{"type":"Topology","objects":{"communes":{"type":"GeometryCollection","geometries":[{"type":"Polygon","arcs":[[0,1,2,3,4]],"properties":{"code":"053010307","name":"Kerrouchen"}},{"type":"Polygon","arcs":[[5,0,6]],"properties":{"code":"053010303","name":"Ait Saadelli"}},{"type":"Polygon","arcs":[[7,8,9,10,11]],"properties":{"code":"053010313","name":"Tighassaline"}},{"type":"Polygon","arcs":[[8,12,-7,1,13]],"properties":{"code":"053010305","name":"El Kbab"}},{"type":"Polygon","arcs":[[7,-14,2,14,15,16,17,18]],"properties":{"code":"053010511","name":"Lehri"}},{"type":"Polygon","arcs":[[11,-19,19,20,21,22,23]],"properties":{"code":"053010301","name":"Ait Ishaq"}},{"type":"Polygon","arcs":[[21,24,25]],"properties":{"code":"053010309","name":"Ouaoumana"}},{"type":"Polygon","arcs":[[26,27,28,29,30,-20,-18,31,32]],"properties":{"code":"053010525","name":"Sidi Lamine"}},{"type":"Polygon","arcs":[[33,-32,-17,34]],"properties":{"code":"053010521","name":"Sidi Amar"}},{"type":"Polygon","arcs":[[35,36,37,38,39,40,41,33,32]],"properties":{"code":"053010703","name":"Aguelmous"}},{"type":"Polygon","arcs":[[42,43,44,45,46,47]],"properties":{"code":"053010719","name":"Sebt Ait Rahou"}},{"type":"Polygon","arcs":[[42,48,-38,49]],"properties":{"code":"053010715","name":"Moulay Bouazza"}},{"type":"Polygon","arcs":[[-50,-37,50,51,52,47]],"properties":{"code":"053010709","name":"Had Bouhssoussen"}},{"type":"Polygon","arcs":[[53,-27,35,50,54]],"properties":{"code":"053010723","name":"Sidi Hcine"}},{"type":"Polygon","arcs":[[55]],"properties":{"code":"053010105","name":"M'rirt"}},{"type":"Polygon","arcs":[[56,57,-40,58],[55]],"properties":{"code":"053010707","name":"El Hammam"}},{"type":"Polygon","arcs":[[59,60,-4,14,61,62]],"properties":{"code":"053010501","name":"Aguelmam Azegza"}},{"type":"Polygon","arcs":[[63,57,40,64,65,66,62]],"properties":{"code":"053010505","name":"El Borj"}},{"type":"Polygon","arcs":[[67,56,-64,59]],"properties":{"code":"053010717","name":"Oum Rabia"}},{"type":"Polygon","arcs":[[15,34,-42,64,68,66,-62]],"properties":{"code":"053010513","name":"Moha Ou Hammou Zayani"}},{"type":"Polygon","arcs":[[68,-66]],"properties":{"code":"053010101","name":"Khenifra"}},{"type":"Polygon","arcs":[[69,70,71,72,73]],"properties":{"code":"053110509","name":"El Foqra"}},{"type":"Polygon","arcs":[[74,75]],"properties":{"code":"053110107","name":"Khouribga"}},{"type":"Polygon","arcs":[[76,77,78,79,80,81,82,83]],"properties":{"code":"053110715","name":"Oulad Boughadi"}},{"type":"Polygon","arcs":[[84,-76,85,86,87,88,89,90]],"properties":{"code":"053110505","name":"Boulanouare"}},{"type":"Polygon","arcs":[[91,92,69,93,84,74,85]],"properties":{"code":"053110513","name":"Oulad Abdoune"}},{"type":"Polygon","arcs":[[-80,94,95]],"properties":{"code":"053110719","name":"Oulad Ftata"}},{"type":"Polygon","arcs":[[-95,-79,96]],"properties":{"code":"053110709","name":"Lagnadiz"}},{"type":"Polygon","arcs":[[-87,91,97,-77,98]],"properties":{"code":"053110503","name":"Bni Ykhlef"}},{"type":"Polygon","arcs":[[72,99,100,101,102,103]],"properties":{"code":"052550905","name":"Bni Oukil"}},{"type":"Polygon","arcs":[[71,-104,104,105,106,107]],"properties":{"code":"053110511","name":"M'fassis"}},{"type":"Polygon","arcs":[[90,-94,70,-108,108,-106,109,110,111,112]],"properties":{"code":"053110501","name":"Bir Mezoui"}},{"type":"Polygon","arcs":[[-109,-107]],"properties":{"code":"053110105","name":"Hattane"}},{"type":"Polygon","arcs":[[-88,-99,-84,113,112,-90,114]],"properties":{"code":"053110507","name":"Lagfaf"}},{"type":"Polygon","arcs":[[-89,-115]],"properties":{"code":"053110103","name":"Boujniba"}},{"type":"Polygon","arcs":[[82,115,116]],"properties":{"code":"053110701","name":"Ait Ammar"}},{"type":"Polygon","arcs":[[113,-112,117,118,119,120,-116]],"properties":{"code":"053110707","name":"Kasbat Troch"}},{"type":"Polygon","arcs":[[-82,121,44,122,123,120,116]],"properties":{"code":"053110717","name":"Oulad Fennane"}},{"type":"Polygon","arcs":[[124,125,126,127,128,129,123,-120]],"properties":{"code":"053110711","name":"Maadna"}},{"type":"Polygon","arcs":[[-105,-103,130,131,-110]],"properties":{"code":"053110515","name":"Oulad Azzouz"}},{"type":"Polygon","arcs":[[-132,132,133,134,135,-126,136,-118,-111]],"properties":{"code":"053110703","name":"Bni Smir"}},{"type":"Polygon","arcs":[[-137,-125,-119]],"properties":{"code":"053110109","name":"Oued Zem"}},{"type":"Polygon","arcs":[[137,135,126,138,139]],"properties":{"code":"053110301","name":"Ain Kaicher"}},{"type":"Polygon","arcs":[[-140,140,141,142,143,144,145]],"properties":{"code":"053110315","name":"Tachraft"}},{"type":"Polygon","arcs":[[146,-145,147,148,149,150,151,152]],"properties":{"code":"053110311","name":"Oulad Gouaouch"}},{"type":"Polygon","arcs":[[143,147,153]],"properties":{"code":"053110101","name":"Bejaad"}},{"type":"Polygon","arcs":[[154,-30,155,150,156]],"properties":{"code":"053110305","name":"Bni Zrantel"}},{"type":"Polygon","arcs":[[155,-150,157,28]],"properties":{"code":"053110307","name":"Boukhrisse"}},{"type":"Polygon","arcs":[[-158,-149,153,-143,158,53,27]],"properties":{"code":"053110303","name":"Bni Bataou"}},{"type":"Polygon","arcs":[[141,158,-55,51,159]],"properties":{"code":"053110313","name":"Rouached"}},{"type":"Polygon","arcs":[[140,-160,52,160,-128,138]],"properties":{"code":"053110309","name":"Chougrane"}},{"type":"Polygon","arcs":[[161,-129,-161,-47]],"properties":{"code":"053110705","name":"Braksa"}},{"type":"Polygon","arcs":[[-123,45,161,129]],"properties":{"code":"053110713","name":"Oulad Aissa"}},{"type":"Polygon","arcs":[[162,163,164,165,-101,166]],"properties":{"code":"052550903","name":"Bni Chegdale"}},{"type":"Polygon","arcs":[[-131,-102,-166,167,168,169,170,-133],[171]],"properties":{"code":"052550911","name":"Krifate"}},{"type":"Polygon","arcs":[[171]],"properties":{"code":"052550105","name":"Fquih Ben Salah"}},{"type":"Polygon","arcs":[[172,173,-163,174,175,176]],"properties":{"code":"052551103","name":"Had Boumoussa"}},{"type":"Polygon","arcs":[[173,163,177,178]],"properties":{"code":"052551101","name":"Dar Ould Zidouh"}},{"type":"Polygon","arcs":[[179,180]],"properties":{"code":"052550109","name":"Ouled Ayad"}},{"type":"Polygon","arcs":[[-173,181,-180,182,183,184,185,186,187,178]],"properties":{"code":"052551107","name":"Ouled Nacer"}},{"type":"Polygon","arcs":[[188,185]],"properties":{"code":"052550111","name":"Souk Sebt Ouled Nemma"}},{"type":"Polygon","arcs":[[186,189,190,191,192,184,-189]],"properties":{"code":"052550505","name":"Ouled Bourahmoune"}},{"type":"Polygon","arcs":[[193,194,195,196,190,197]],"properties":{"code":"052550511","name":"Sidi Aissa Ben Ali"}},{"type":"Polygon","arcs":[[196,-190,187,-178,164,167,198]],"properties":{"code":"052550509","name":"Ouled Zmam"}},{"type":"Polygon","arcs":[[199,200,195,-199,168]],"properties":{"code":"052550909","name":"Hel Merbaa"}},{"type":"Polygon","arcs":[[200,-195,201,202,203,204,205,206]],"properties":{"code":"052550907","name":"Bradia"}},{"type":"Polygon","arcs":[[207,208,209,-204,210]],"properties":{"code":"050910309","name":"Sidi Jaber"}},{"type":"Polygon","arcs":[[193,201,211,212]],"properties":{"code":"050910303","name":"Ouled Gnaou"}},{"type":"Polygon","arcs":[[213,214,215,-192,197,-213]],"properties":{"code":"052550513","name":"Sidi Hammadi"}},{"type":"Polygon","arcs":[[213,216,217,218,-211,-203,211]],"properties":{"code":"050910305","name":"Ouled M'barek"}},{"type":"Polygon","arcs":[[219,220,221,222,223,-208,-219,224,225]],"properties":{"code":"050910301","name":"Foum Oudi"}},{"type":"Polygon","arcs":[[226,227,228,229,230,209,204,231]],"properties":{"code":"050910307","name":"Ouled Yaich"}},{"type":"Polygon","arcs":[[-206,231,232,-134,-171,233]],"properties":{"code":"050911103","name":"Ouled Youssef"}},{"type":"Polygon","arcs":[[-207,-234,-170,199]],"properties":{"code":"052550901","name":"Khalfia"}},{"type":"Polygon","arcs":[[234,146,145,137,-135,-233,226]],"properties":{"code":"050911105","name":"Ouled Said Loued"}},{"type":"Polygon","arcs":[[229,235,-223,236,237]],"properties":{"code":"050910311","name":"Foum El Anceur"}},{"type":"Polygon","arcs":[[223,208,-231,235]],"properties":{"code":"050910101","name":"Béni Mellal"}},{"type":"Polygon","arcs":[[238,239,240,241,237,-229]],"properties":{"code":"050910713","name":"Taghzirt"}},{"type":"Polygon","arcs":[[242,243,244,239,245]],"properties":{"code":"050910715","name":"Tanougha"}},{"type":"Polygon","arcs":[[246,247,248,249,250,251]],"properties":{"code":"050910505","name":"Boutferda"}},{"type":"Polygon","arcs":[[251,252,253,254,-25,22,255,256]],"properties":{"code":"050910517","name":"Tizi N'isly"}},{"type":"Polygon","arcs":[[257,258,250,-257]],"properties":{"code":"050910501","name":"Aghbala"}},{"type":"Polygon","arcs":[[10,-24,255,257,259]],"properties":{"code":"053010311","name":"Sidi Yahya Ou Saad"}},{"type":"Polygon","arcs":[[260,154,30,20,-26,-255,261,262],[263]],"properties":{"code":"050910703","name":"Ait Oum El Bekht"}},{"type":"Polygon","arcs":[[263]],"properties":{"code":"050910113","name":"Zaouiat Cheikh"}},{"type":"Polygon","arcs":[[-243,264,265,253,261,266]],"properties":{"code":"050910711","name":"Naour"}},{"type":"Polygon","arcs":[[267,268,-244,-267,262],[269]],"properties":{"code":"050910707","name":"Dir El Ksiba"}},{"type":"Polygon","arcs":[[269]],"properties":{"code":"050910103","name":"El Ksiba"}},{"type":"Polygon","arcs":[[270,271]],"properties":{"code":"050910107","name":"Kasba Tadla"}},{"type":"Polygon","arcs":[[-153,272,-272,273,268,244,-239,-228,234]],"properties":{"code":"050911101","name":"Guettaya"}},{"type":"Polygon","arcs":[[267,-274,-271,-273,-152,156,-261]],"properties":{"code":"050911107","name":"Semguet"}},{"type":"Polygon","arcs":[[274,275,265,-253,246]],"properties":{"code":"050810921","name":"Tiffert N'ait Hamza"}},{"type":"Polygon","arcs":[[-241,245,264,-276,276]],"properties":{"code":"050810907","name":"Ait Ouqabli"}},{"type":"Polygon","arcs":[[-242,-277,-275,247,277,278,279,221,236]],"properties":{"code":"050810919","name":"Tagleft"}},{"type":"Polygon","arcs":[[220,-280,280,281]],"properties":{"code":"050810913","name":"Isseksi"}},{"type":"Polygon","arcs":[[219,-282,282,283,284]],"properties":{"code":"050810915","name":"Ouaouizeght"}},{"type":"Polygon","arcs":[[285,286,287,288,225,-285,289]],"properties":{"code":"050810911","name":"Bin El Ouidane"}},{"type":"Polygon","arcs":[[224,-289,290,291,217]],"properties":{"code":"050811125","name":"Timoulilt"}},{"type":"Polygon","arcs":[[292,293,-215,216,-292]],"properties":{"code":"050811101","name":"Afourar"}},{"type":"Polygon","arcs":[[294,287,290,292,295]],"properties":{"code":"050811105","name":"Ait Ouaarda"}},{"type":"Polygon","arcs":[[-216,-294,295,296,297,298,183,-193]],"properties":{"code":"050811103","name":"Bni A'yat"}},{"type":"Polygon","arcs":[[299,300,301,286,-295,296,302]],"properties":{"code":"050810519","name":"Taounza"}},{"type":"Polygon","arcs":[[248,303,304,305,-278]],"properties":{"code":"050810909","name":"Anergui"}},{"type":"Polygon","arcs":[[306,307,308,-306]],"properties":{"code":"050810923","name":"Tilougguite"}},{"type":"Polygon","arcs":[[308,278,280,282,309]],"properties":{"code":"050810917","name":"Tabaroucht"}},{"type":"Polygon","arcs":[[-310,283,289,310,311,312,307]],"properties":{"code":"050810903","name":"Ait Mazigh"}},{"type":"Polygon","arcs":[[-307,-305,313,314,315,312]],"properties":{"code":"050810313","name":"Zaouiat Ahansal"}},{"type":"Polygon","arcs":[[298,-183,-181,-182,-177,316,317,318,319]],"properties":{"code":"050810513","name":"Rfala"}},{"type":"Polygon","arcs":[[320,319,-298,302,321,322]],"properties":{"code":"050810511","name":"Moulay Aissa Ben Driss"}},{"type":"Polygon","arcs":[[320,-319,323,324]],"properties":{"code":"050810521","name":"Tisqi"}},{"type":"Polygon","arcs":[[325,326,-324,-318,327]],"properties":{"code":"050810505","name":"Bni Hassane"}},{"type":"Polygon","arcs":[[327,328,329,175,316]],"properties":{"code":"050810507","name":"Bzou"}},{"type":"Polygon","arcs":[[330,331,-329,325,332]],"properties":{"code":"050810509","name":"Foum Jemaa"}},{"type":"Polygon","arcs":[[-325,-327,332,333,334,322]],"properties":{"code":"050810515","name":"Tabia"}},{"type":"Polygon","arcs":[[333,335,336,337,338,-331]],"properties":{"code":"050810517","name":"Tanant"}},{"type":"Polygon","arcs":[[337,339,340,341,342,343]],"properties":{"code":"050811503","name":"Ait Majden"}},{"type":"Polygon","arcs":[[344,345,346,347,340,348,349]],"properties":{"code":"050811511","name":"Imlil"}},{"type":"Polygon","arcs":[[350,349]],"properties":{"code":"050810103","name":"Demnate"}},{"type":"Polygon","arcs":[[351,346,352,353]],"properties":{"code":"050811319","name":"Tidili Fetouaka"}},{"type":"Polygon","arcs":[[354,353,355]],"properties":{"code":"050811309","name":"Anzou"}},{"type":"Polygon","arcs":[[-356,351,-346,356,357,358]],"properties":{"code":"050811317","name":"Sidi Yacoub"}},{"type":"Polygon","arcs":[[359,360,357,361]],"properties":{"code":"050811305","name":"Ait Oumdis"}},{"type":"Polygon","arcs":[[359,362,363,364,365]],"properties":{"code":"050811307","name":"Ait Tamlil"}},{"type":"Polygon","arcs":[[356,-361,362,366,-342,348,-351,344]],"properties":{"code":"050811521","name":"Tifni"}},{"type":"Polygon","arcs":[[-315,367,368,369,370]],"properties":{"code":"050810309","name":"Tabant"}},{"type":"Polygon","arcs":[[370,315,-312,371,372,373,374,375]],"properties":{"code":"050810307","name":"Ait M'hamed"}},{"type":"Polygon","arcs":[[376,377,378,369,-376]],"properties":{"code":"050810303","name":"Ait Abbas"}},{"type":"Polygon","arcs":[[-379,379,380,364,381,368]],"properties":{"code":"050810305","name":"Ait Bou Oulli"}},{"type":"Polygon","arcs":[[-380,-378,382,383]],"properties":{"code":"050811501","name":"Ait Blal"}},{"type":"Polygon","arcs":[[-343,-367,363,-381,-384,384]],"properties":{"code":"050811515","name":"Sidi Boulkhalf"}},{"type":"Polygon","arcs":[[385,336,-344,-385,-383,-377,-375]],"properties":{"code":"050811513","name":"Ouaoula"}},{"type":"Polygon","arcs":[[299,386,373,385,-336,334,-322]],"properties":{"code":"050810501","name":"Ait Taguella"}},{"type":"Polygon","arcs":[[387,388]],"properties":{"code":"050810101","name":"Azilal"}},{"type":"Polygon","arcs":[[-387,300,389,387,390,372]],"properties":{"code":"050810311","name":"Tamda Noumercid"}},{"type":"Polygon","arcs":[[-390,301,-286,310,371,-391,388]],"properties":{"code":"050810301","name":"Agoudi N'lkhair"}}]}},"arcs":[[[94351,64138],[-147,-81],[-512,-246],[-334,-239],[-173,-87],[-70,283],[-75,252],[-231,-7],[-148,-192],[-413,-562],[-260,-256]],[[91988,63003],[-260,381],[-80,122],[-71,108],[-113,174],[-227,599],[-710,940],[-309,565],[152,377],[248,563],[235,450],[405,509],[220,304]],[[91478,68095],[151,208],[607,471],[557,465]],[[92793,69239],[313,363],[566,499],[875,679],[839,655],[547,336],[313,-203],[182,-91],[351,-129],[446,-47],[458,-49],[540,-51],[278,-23]],[[98501,71178],[-92,-195],[88,-18],[585,254],[276,155],[82,-277],[128,-232],[44,-91],[-633,-108],[-257,-137],[-321,-233],[-326,-172],[-310,-133],[-91,-232],[-131,-200],[-104,-215],[-123,-225],[-141,-161],[-156,-68],[-170,-158],[-144,-132],[-91,-131],[24,-140],[116,-121],[161,-138],[7,-77],[80,-80],[-50,-146],[-321,-239],[-241,-396],[-24,-38],[-57,-626],[111,-347],[128,-552],[-33,-616],[-45,-579],[-2119,-236]],[[94000,55862],[285,47],[53,11],[119,-22],[60,9],[87,1289],[439,969],[100,549],[-60,166],[6,28],[0,13],[-41,12],[-3,10],[15,7],[24,5],[18,17],[17,-5],[19,-11],[25,6],[23,13],[20,-5],[17,-15],[20,-4],[35,13],[15,24],[21,17],[24,18],[29,13],[26,-2],[13,12],[4,25],[8,27],[-33,29],[2,24],[18,37],[18,44],[1,24],[-14,24],[22,13],[30,11],[23,3],[35,-5],[14,12],[28,8],[12,19],[1,23],[-10,13],[-10,15],[24,15],[0,21],[8,10],[24,8],[1,20],[7,8],[17,23],[4,13],[14,21],[17,12],[17,8],[26,0],[18,-13],[20,0],[4,4],[-3,19],[12,15],[46,11],[10,4],[15,14],[2,20],[-9,16],[10,16],[16,6],[38,41],[18,2],[16,-9],[25,-3],[7,-11],[16,4],[17,12],[22,-7],[11,-15],[12,-10],[12,-2],[12,8],[31,13],[34,-10],[1,8],[-24,109],[-10,105],[-21,179],[10,101],[-1,98],[-16,70],[30,83],[39,17],[37,27],[49,48],[16,23],[39,40],[62,65],[92,109],[-4,48],[-1,83],[-16,84],[-37,205],[7,56],[43,109],[21,83],[9,186],[-27,183],[-16,116],[-15,34],[-4,44],[17,25],[-3,440],[-31,175],[-239,-49],[-31,29],[-22,22],[-31,21],[-38,14],[-57,5],[-77,12],[-68,23],[-49,26],[-37,18],[-37,25],[-40,19],[-53,40],[-23,69],[-31,53],[-66,64],[-85,77],[-72,91],[-67,62],[-228,-111],[-16,19],[-29,8],[-7,49],[-14,35],[-14,19],[-23,45],[-31,32],[-17,22],[-2,24],[-35,27],[-20,13],[-2,39],[-33,62],[-11,37],[-6,59],[-25,37],[-47,73],[-76,71],[-54,20],[-38,6],[-30,39],[-64,73],[-21,52],[-18,76],[-31,45],[-6,17]],[[91988,63003],[178,-239],[189,-405],[656,-893],[677,-775],[277,-576],[586,-799],[-551,-3454]],[[77958,68410],[165,-151],[297,101],[206,148],[433,-4],[207,14],[206,47],[87,118],[152,67],[157,128],[190,-152],[173,74],[95,135],[322,-44],[194,135],[310,20],[268,202],[326,10],[284,37],[186,44],[190,-185],[194,-135],[272,-108],[223,31],[120,-84],[202,-105]],[[83417,68753],[-293,-376],[-132,-270],[371,-212],[-103,-595],[21,-811],[210,-728],[413,-478],[714,-131],[735,-192],[478,-731],[784,-704],[632,-654],[288,-407],[413,-448],[281,-371],[598,-509],[520,-597],[190,-549],[235,-829],[281,-577],[99,-202],[219,-473],[656,-469],[-114,-298],[-334,-697],[-198,-255],[-48,-110],[-142,-193],[-76,-122],[-300,-190],[-185,-190],[-73,-86]],[[89557,55299],[-53,-57],[-147,-89],[-84,10],[-242,-111],[-64,-19],[-64,-6],[-140,-47],[-169,-52],[-89,-57],[-97,-36],[-81,-29],[-54,-10],[-71,-18]],[[88202,54778],[-37,10],[-136,19],[-29,62],[-42,35],[-97,106],[-82,137],[-334,90],[-190,110],[-77,156],[9,189],[39,171],[-6,192],[-399,-105],[-742,473],[-600,896],[-314,378],[-908,1129],[-308,368],[-5,765],[455,9],[788,93],[1001,292],[349,320],[57,302],[-396,248],[-444,524],[-367,380],[-415,515],[-486,450],[-686,113],[-345,540],[-342,-182],[-672,147],[-91,390],[-454,51],[-57,91]],[[81839,64242],[6,53],[-405,134],[-468,243],[-390,269],[-305,323],[-108,460],[-140,408],[-210,141],[-586,212],[-706,266],[-503,370],[-297,276],[-100,300],[232,461],[99,252]],[[89557,55299],[186,90],[217,31],[336,156],[175,110],[91,45],[211,98],[47,28],[50,24],[82,22],[120,40],[421,16],[107,10],[114,6],[132,32],[196,-19],[113,26],[109,5],[244,-19],[64,-22],[120,16],[224,1],[331,-59],[105,-7],[318,-42],[115,-24],[215,-1]],[[91478,68095],[-59,93],[-219,80],[-371,34],[-384,-161],[-636,-175],[-429,-273],[-520,-518],[-421,-377],[-450,-239],[-342,-172],[-343,-249],[-218,78],[-330,144],[-454,27],[-343,162],[-247,189],[-58,232],[-310,219],[-293,255],[-380,233],[-82,178],[-148,162],[-178,161],[-512,131],[-103,276],[-128,138],[-103,30]],[[92793,69239],[-549,567],[-194,160],[-124,40],[-86,-40],[-293,108],[-273,114],[-367,101],[-413,25],[-177,0],[-392,40],[-211,-8],[-169,-54],[-33,-160],[-62,-192],[-54,-67],[-169,37],[-99,108],[-95,141],[-62,124],[-115,130],[-103,160],[-74,32],[-186,8],[-239,-21],[-194,-81],[-108,-130],[-119,-35],[-79,-22],[-248,148],[-57,107],[-124,101],[-58,121],[-149,215],[-189,236],[-33,87],[-33,101],[-75,128],[-66,188],[-49,209],[-132,154],[-58,128],[-124,-7],[-280,47],[-199,0],[-218,33],[-145,-6],[-157,7],[-201,6],[-182,0],[-169,14],[-91,34]],[[84717,72375],[-215,20],[-239,54],[-231,60],[-264,14],[-210,-122],[-79,162],[-108,128],[0,100],[-20,127],[-379,20],[-599,42],[-396,-21],[-194,24],[-297,36],[-475,-19],[-454,-54],[-177,73],[-656,-100],[-454,-141],[-25,-101],[174,-134],[-99,-229],[-331,-208],[-321,-115],[-339,-67],[-313,-13],[-355,60],[-194,13],[-203,-46],[-280,40],[-211,-82],[-74,-248],[-66,-169],[-231,-67],[-454,-195],[-359,-160]],[[75589,71057],[-206,-61],[-235,-102],[-256,-87],[-409,-60],[-140,-9],[-99,-17]],[[74244,70721],[0,-230],[57,-299],[54,-224],[0,-179],[-165,-93],[-891,-200],[-590,-238],[-298,-165],[-181,-261],[-347,-286]],[[71883,68546],[566,-305],[478,-188],[512,-57],[322,64],[214,91],[17,168],[82,162],[112,151],[156,-23],[116,6],[211,31],[243,80],[264,-6],[367,114],[355,91],[595,67],[338,-37],[21,-175],[66,-303],[350,-201],[359,124],[186,121],[173,10],[-28,-121]],[[71883,68546],[-235,-210],[-227,-169],[-470,-64],[-557,196],[-640,198],[-524,111],[-594,88],[-207,-128],[-264,-175],[-412,77],[-269,269],[-82,196],[-95,275],[-79,142],[-276,-421],[-425,-367],[-343,-437],[-598,-222],[-495,-222],[-301,-306],[-310,-424],[-252,-434],[-73,-238]],[[64155,66281],[956,101],[696,-248],[501,-47],[685,-62],[586,-54],[309,-29],[121,140]],[[68009,66082],[-293,396],[33,263],[128,293],[169,273],[280,75],[648,-123],[326,-131],[305,-198],[384,-142],[574,-562],[590,-522],[318,-300],[334,-10],[-62,286],[87,101],[-54,216],[-66,202],[194,158],[58,-263],[326,-299],[202,-206],[157,-222],[165,-172],[235,-107],[363,-330],[297,-74],[153,50],[326,192],[495,266],[656,253],[198,118],[434,-68],[12,-94],[-87,-272],[-16,-51],[-161,-276],[-153,-243],[-227,-124],[-305,-101],[-178,-91],[-95,-253],[-12,-172],[157,-144],[226,-59],[-67,-275],[-217,-411],[91,-219],[-87,-131],[165,-101],[-243,-159],[9,-174],[3,-75],[157,-233],[318,-54],[202,-97],[-91,-169],[-94,-57],[-100,-61],[-103,-172],[-66,-246],[21,-148],[-132,-88],[82,-145],[-58,-104],[29,-206],[-49,-84],[53,-81],[54,-94],[41,-91],[87,-99]],[[75135,59841],[548,101],[435,-551],[391,321],[315,103],[339,-35],[176,-168]],[[77339,59612],[196,280],[84,202],[155,350],[167,107],[569,2],[23,73],[-105,391],[-45,170],[-122,340],[142,206],[679,461],[543,426],[600,184],[12,230],[-66,151],[324,33],[124,130],[458,231],[136,-188],[278,231],[219,304],[129,316]],[[75135,59841],[-58,-459],[-136,-260],[-161,-237],[-202,-314]],[[74578,58571],[-301,421],[-170,359],[-542,485],[-243,782],[-13,44],[-20,66],[-68,219],[-28,90],[-131,424],[-417,331],[-348,277],[-223,177],[-393,313],[-45,35],[-437,342],[-431,338],[-797,513],[-501,258],[-176,432],[-86,46],[-399,210],[-470,248],[-60,258],[-270,843]],[[66333,75611],[-177,97],[-504,181],[-561,7],[-415,95],[-229,-169],[-513,-206],[-535,-143],[-528,-47],[-512,60],[-819,143],[-345,32],[66,221],[-24,296],[-174,141],[-264,87],[-140,101],[-256,20],[-305,208],[-322,-13],[-330,40],[-116,128],[-223,-34],[-239,54],[-131,43]],[[58737,76953],[-114,-755],[-838,-1134],[-1439,655],[-892,-1493],[-300,-465],[-227,-415],[582,-775],[298,-700]],[[55807,71871],[164,-411],[566,319],[603,340],[567,320],[1674,943],[1087,-988],[61,-1962],[-251,-1452],[759,-127],[191,-726],[57,-449],[28,-270]],[[61313,67408],[-52,-246]],[[61261,67162],[560,-229],[431,-176],[309,-84],[347,-139],[693,-251],[554,-2]],[[74244,70721],[-685,-27],[-190,-21],[-256,-60],[-322,-88],[-214,-94],[-116,21],[-248,26],[-272,61],[-326,73],[-351,61],[-321,48],[-219,59],[-95,26],[107,235],[103,294],[194,288],[235,247],[170,268],[239,202],[120,161],[119,82],[112,107],[-62,95],[-91,161],[-173,168],[-149,128],[-247,107],[-380,61],[-190,40],[-239,29],[-227,21],[0,90],[-4,205],[33,205],[132,188],[95,185],[231,108],[186,171],[272,128],[82,47],[83,163],[-17,126],[-121,99]],[[71242,75215],[-68,96],[-644,209],[-652,295],[-182,-54],[-289,-201],[-247,-195],[-190,-74],[-140,-107],[49,-188],[0,-155],[-132,-195],[-206,-228],[-207,-54],[-231,54],[-189,54],[-83,174],[14,173],[75,162],[-262,156],[-322,60],[-446,276],[-557,138]],[[73433,76855],[-301,-215],[-353,-240],[-528,-293],[-302,-383],[-247,-258],[-460,-251]],[[75589,71057],[149,195],[107,175],[49,215],[-140,168],[-157,195],[-181,141],[-438,282],[-404,699],[-83,397],[66,302],[215,263],[248,241],[82,249],[-8,282],[58,410],[-38,255],[-462,376],[-615,407],[-604,546]],[[66333,75611],[-35,273],[31,730],[103,554],[68,768],[95,560],[-31,371],[252,671],[214,765],[190,433],[45,206],[61,275],[10,280],[-283,73],[-441,-6],[-599,60],[-623,3],[-373,41],[-320,-115],[-578,-128],[-258,-5],[-363,3],[-470,-194],[-322,184],[-388,228],[-33,369],[124,269],[140,207],[-223,121],[-553,228],[-173,134]],[[61600,82969],[195,185],[185,221],[55,109],[149,194],[99,141],[431,122],[369,46],[33,248],[17,355],[33,241],[51,203],[7,112],[-172,310],[-74,362],[-2,380],[8,282],[35,129],[-92,668],[-1382,1020],[-226,424]],[[61319,88721],[-626,788],[144,178],[197,286],[202,216],[1107,1120],[173,80],[171,146],[124,202]],[[62811,91737],[64,58],[23,40],[174,154],[20,521],[248,317],[303,12],[176,-376],[183,-114],[313,-12],[270,15],[-92,55],[195,-31],[243,172],[168,237],[58,81],[65,67],[60,18],[68,-25],[42,-63],[32,-117],[226,-148],[147,-88],[92,-91],[140,-66],[88,25],[150,211],[159,132],[44,38],[48,137],[101,58],[94,-13],[60,-156],[206,-27],[95,-91],[33,-356],[75,-26],[80,49],[0,116],[7,151],[226,200],[194,49],[101,-32],[-276,-484],[71,-83],[164,7],[63,-149],[115,39],[66,-15],[81,-8],[166,15],[188,-45],[318,14],[208,61],[96,-27],[257,-197],[52,34],[62,8],[90,-12],[59,35],[57,12],[208,29],[68,-88],[70,-1],[83,129],[77,-2],[100,-131],[61,-35],[143,0],[61,61],[159,-51],[134,44],[172,-11],[112,8],[235,-53],[180,39],[91,6],[37,-17],[35,-134],[42,-46],[167,-63]],[[71862,91707],[-28,-174],[124,-157],[123,-151],[-53,-127],[157,-278],[309,-254],[281,-194],[297,-114],[285,54],[71,219],[52,-249],[333,-42],[142,-79],[227,-127],[330,-64],[169,87],[293,-20],[248,-288],[342,-56],[141,-255],[59,-309],[-53,-134],[303,-163],[322,-211],[161,-308],[206,-160],[446,-144],[470,-188],[227,-218],[141,-43],[-355,-315],[-384,-265],[-429,-261],[-79,-218],[-41,-147],[559,-69],[380,-93],[293,-111],[408,-77],[436,39],[330,23],[433,157],[79,-23],[-87,-214],[144,-134],[244,-114],[454,0],[227,-34],[169,-97],[82,-141],[5,-234],[210,-84],[124,-211],[-190,-268],[-227,-77],[8,-614],[-58,-221],[-138,-414],[-20,-70],[796,-329],[256,-248],[38,-135]],[[81654,82561],[-251,-202],[-336,-194],[-159,-128],[-454,-317],[-227,-154],[-134,-112],[-194,-364],[-282,-859],[-116,-367]],[[79501,79864],[-751,-403],[-933,-547],[-511,-205],[-479,-174],[-331,-319],[-127,-121],[-442,-399],[-317,-356],[-429,188],[-170,184],[-210,-10],[-272,534],[-143,364],[-774,-146],[-130,-713],[-59,-522],[10,-364]],[[57727,84639],[7,42],[-12,28],[-535,104],[-118,278],[-328,63],[-240,69],[-388,142],[-88,152],[-671,169],[-16,180],[-448,168],[-236,274],[-182,27],[-952,63],[-690,102],[-271,152],[-545,369],[-144,131],[-301,99],[34,57],[201,335],[130,288],[-95,279],[-135,486],[-98,377],[-80,411],[-107,469],[-111,380],[77,245],[181,256],[212,172],[149,216],[155,258],[62,214],[111,311],[4,165],[71,17],[-53,203],[281,112],[159,-79],[234,-107],[194,187],[138,179],[239,279],[148,199],[152,199],[-26,36],[-49,36],[-19,11],[3,24],[54,47],[64,30],[56,2],[23,40],[-15,66],[2,47],[17,20],[68,33],[38,5],[35,2],[33,3],[32,16],[30,30],[38,10],[23,6],[22,10],[19,-2],[42,-26],[10,-23],[-11,-46],[21,-25],[12,-5],[132,-7],[75,17],[33,1],[37,-21],[31,-32],[27,-22],[20,1],[26,34],[19,23],[11,28],[-4,19],[-18,28],[-46,46],[-7,30],[-4,29],[12,30],[25,24],[30,1],[70,-15],[43,-18],[20,9],[8,26],[12,49],[17,25],[28,11],[61,1],[36,9],[41,8],[36,-3],[15,-33],[3,-84],[7,-63],[13,-25],[46,-25],[56,-3],[68,-13],[62,-36],[18,-41],[26,-58],[45,-58],[42,-20],[45,-11],[23,-8],[81,-29],[34,-29],[26,-44],[-18,-66],[-4,-55],[15,-22],[47,-25],[27,5],[32,14],[61,43],[27,5],[54,-18],[32,-20],[29,-26],[29,-19],[79,-8],[48,12],[56,5]],[[56239,93282],[-28,85],[65,89],[2,144],[-32,138],[-53,18],[-40,48],[2,36],[29,123],[-23,122],[1,104],[78,252],[2,76],[44,29],[156,9],[58,6],[-20,92],[-64,86],[34,62],[4,103],[-53,52],[-45,67],[92,72],[-33,21],[-178,18],[-112,-34],[-77,-55],[-42,-30],[-44,-12],[-35,-12],[-41,-26],[-44,-16],[-37,13],[-18,21],[-36,46],[-15,50],[-16,71],[-52,47],[-52,-10],[-62,-4],[7,24],[57,45],[122,114],[9,14],[22,23],[72,67],[35,63],[56,71],[11,52],[-6,50],[-20,69],[-46,52],[-55,-23],[37,-51],[-30,-18],[-67,41],[-57,-35],[-91,7],[-38,-25],[-30,-6],[-65,-11],[1,-26],[-33,-41],[-21,-18],[30,-46],[-84,-17],[-33,35],[-50,29],[-14,-34],[-17,3],[0,15],[-51,-20],[-4,18],[-15,11],[-23,1],[-16,15],[-44,19],[-11,25],[-14,18],[-24,5],[-8,-18],[-17,3],[-7,20],[-14,4],[-23,-7],[-16,13],[-1,13],[-12,9],[-16,3],[-26,-7],[-9,-21],[-17,-4],[-13,7],[-9,16],[-29,27],[-7,15],[3,14],[-28,12],[-21,20],[-23,13],[-4,17],[12,26],[12,24],[34,14],[15,12],[-22,36],[-20,12],[-14,-9],[-4,-18],[-9,-19],[-11,-8],[-17,0],[-24,13],[-50,-8],[-22,13],[-19,2],[-11,14],[1,15],[8,14],[-11,29],[-23,26],[-16,6],[-8,-6],[-7,-9],[-14,-31],[-13,-11],[-13,36],[-49,42],[-15,1],[-21,13],[1,41],[-12,10],[-17,-14],[-37,56],[-19,19],[-17,0],[-17,-3],[3,-31],[-34,-54],[-18,0],[-52,45],[3,12],[19,10],[1,13],[-19,8],[-16,-8],[-25,-2],[-25,-16],[-16,11],[-20,10],[-7,10],[-17,4],[-14,-9],[-15,5],[0,13],[13,32],[-8,10],[-17,-10],[-33,-15],[-12,15],[-20,1],[-10,8],[-17,2],[-16,5],[-12,-10],[-24,-8],[-10,-12],[-44,10],[-10,15],[-3,15],[-8,15],[-19,17],[-10,14],[-18,4],[-36,-6],[-36,-12],[-14,6],[-7,18],[47,7],[14,6],[5,12],[1,16],[-8,18],[-6,8],[-15,11],[-21,8],[-23,5],[-15,10],[-6,23],[13,17],[13,-11],[13,-3],[22,-4],[1,16],[-10,16],[-30,22],[-2,11],[14,9],[10,11],[-1,14],[-16,9],[-2,12],[13,12],[0,14],[-21,5],[-13,8],[-5,18],[-13,14],[-15,9],[-25,22],[-35,15],[-20,1],[-18,1],[-19,3],[-13,20],[0,15],[12,17],[23,14],[2,20],[0,17],[8,28],[-17,10],[-25,8],[-24,-5],[-17,-2],[-21,15],[2,21],[7,30],[17,50],[36,24],[139,264],[25,57],[0,49],[-43,58],[-29,38],[-108,-73],[-66,-19],[-119,-60],[-85,2],[-142,61],[-58,-7],[-83,27],[-66,24],[-135,53],[-49,-16],[9,-32],[-19,-74],[-596,-197],[-590,-148],[-993,491],[-445,-166],[-538,64],[505,1437],[-250,80],[-78,83],[-394,212],[-239,56],[-266,54],[-345,-67],[-99,18],[-109,63],[16,130],[-154,30],[-483,353],[-576,150],[-358,-60],[-449,15],[-321,82],[-208,-197],[-35,-230],[98,-127],[-108,-301],[118,-275],[112,-57],[6,-110],[-102,-227],[20,-231],[26,-206],[55,-1104],[-45,-148],[-440,-255],[33,-635],[-125,-128],[-164,-88],[-67,-101],[-104,-34],[-110,-93],[-107,-39],[-76,-85],[-73,-33],[-202,105],[-98,65],[-61,-15],[-2,-168],[39,-79],[87,-122],[-116,-130],[-119,-67],[-89,-34],[-80,25],[-46,-20],[14,-67],[117,-31],[58,-49],[-26,-233],[-138,-45],[-179,25],[-43,-39],[-14,-101],[51,-87],[66,-35],[207,-80],[370,-145],[286,-253],[17,-91],[-125,-106],[-196,-13],[-90,-52],[-74,-120],[-136,-102],[-56,-194],[56,-89],[-131,-160],[-317,-180],[-111,-20],[-56,-81],[263,-96],[98,-215],[150,-106],[11,-45],[-132,-118],[18,-173],[119,-66],[69,-34],[6,-98],[0,-161],[153,-59],[31,-73],[-154,-155],[106,-107],[98,49],[293,152],[84,-12],[-6,-52],[-190,-179],[56,-229],[-134,-218],[181,-67],[37,-172],[236,45],[307,-32],[87,-472],[-146,-51],[-7,-61],[127,-87],[-142,-246],[27,-110],[-78,-86],[-228,-32],[-243,-95],[-74,-147],[80,-160],[-27,-101],[-109,-54],[-221,5],[-223,47],[-88,-48],[-97,-140],[-120,-141],[61,-111],[-5,-87],[-39,-92],[-76,-81],[-110,-46]],[[43527,87890],[27,-159],[20,-149],[-370,-87],[-219,-139],[185,-721],[718,-364],[291,-325],[221,-538],[382,-246]],[[44782,85162],[406,-263],[1348,-211],[390,-149],[408,113]],[[47334,84652],[555,-334],[344,76],[53,-654],[917,-479],[430,-39],[33,-114],[61,-210],[597,-194],[169,306],[178,-445],[304,-251]],[[50975,82314],[-47,162],[-24,171],[123,202],[277,73],[549,134],[646,73],[744,98],[413,135],[462,137],[646,8],[466,-117],[850,0],[723,161],[293,901],[78,3],[97,26],[69,6],[65,15],[78,35],[59,52],[185,50]],[[56239,93282],[49,-107],[108,-57],[39,-34],[60,-163],[144,-88],[95,-59],[227,-24],[-2,-73],[-93,-57],[-47,-57],[70,-28],[-54,-100],[-8,-154],[22,-42],[79,-37],[-8,-45],[18,-49],[-51,-78],[-118,-49],[14,-31],[52,-9],[14,-47],[83,-30],[23,-57],[97,14],[0,-17],[-27,-25],[-91,-45],[-6,-25],[56,-14],[86,-1],[62,-39],[27,-58],[-14,-15],[-54,-2],[-41,-34],[-17,-23],[-4,-30],[12,-13],[48,-17],[16,17],[44,18],[29,-5],[20,-12],[-41,-15],[-12,-18],[-9,-35],[17,-17],[68,-39],[58,-3],[39,-27],[70,9],[56,18],[74,-47],[93,-13],[60,-40],[55,-42],[97,12],[56,38],[25,25],[136,60],[66,32],[87,42],[107,-27],[116,55],[51,20],[66,-1],[27,-14],[29,-36],[27,-4],[10,-11],[23,-9],[14,-48],[52,-32],[-2,-18],[39,-24],[37,-2],[17,-8],[51,-3],[23,-20],[18,-30],[93,122],[93,82],[43,35],[62,40],[277,89],[128,-31],[51,-38],[-45,-107],[-17,-59],[0,-43],[38,-55],[99,-12],[148,18],[127,-99],[-15,-76],[-83,-54],[-80,-33],[-19,-30],[63,-1],[38,4],[64,-17],[70,-62],[70,-25],[68,-35],[26,-35],[125,0],[62,-7],[39,-22],[21,-40],[-6,-40],[-35,-63],[-44,-32],[-12,-37],[12,-25],[48,-27],[70,-30],[47,-17],[2287,1290]],[[61319,88721],[-297,-170],[-165,-94],[50,-134],[49,-160],[33,-174],[37,-128],[-15,-175],[-118,-194],[-258,-202],[-59,-299],[-317,-268],[-311,-214],[-36,-191],[-200,-226],[-142,-144],[-198,-158],[-422,-186],[-221,-188],[-118,-133],[-192,-227],[-135,-143],[-103,-295],[-72,-115],[-302,131],[-26,5],[-29,8],[-25,-8]],[[61600,82969],[-330,-241],[-306,-268],[-123,-215],[-347,-416],[-157,-161],[-91,-107],[-231,134],[-338,221],[-190,88],[-190,-128],[-330,-107],[-256,-215],[116,-382],[239,-429],[25,-410],[-83,-235],[-660,-322],[-635,-329],[-256,-187],[-273,-195],[-198,-128],[-214,-141],[-174,-161],[-356,-236]],[[56242,78399],[-449,55],[-429,213],[-78,379],[-582,593],[-125,155],[-453,145],[-363,245],[-62,59]],[[53701,80243],[-235,225],[-260,296],[-433,183],[-425,219],[-203,206],[-252,294],[-461,294],[-457,354]],[[56889,77872],[268,-239],[340,-181],[311,-157],[374,-62],[555,-280]],[[56242,78399],[204,-163],[322,-256],[121,-108]],[[84434,84339],[-239,-4],[-47,84],[-312,256],[-243,218],[-91,119],[119,134],[95,148],[75,58],[70,93],[101,184],[157,144],[175,48],[210,-11],[126,-27],[188,-45],[79,-99],[121,-111],[101,-70],[135,-92],[-38,-62],[-107,-29],[45,-62],[-78,-191],[-93,-150],[-97,-215],[-200,-166],[-60,-30],[-86,-65],[-106,-57]],[[90071,85147],[-872,-101],[-667,-314],[-819,24],[-392,-437],[-243,-344],[-261,-288],[-390,-317],[-404,-314],[-305,-207],[-363,-180],[-712,-240],[-487,-120],[-557,-94],[-102,0]],[[83497,82215],[-141,92],[-331,25],[-396,37],[-287,91],[-293,68],[-260,69],[-135,-36]],[[71862,91707],[688,173],[378,352],[390,257],[387,262],[671,296],[-460,190],[-512,-93],[-66,298],[-201,197],[-182,197],[-239,138],[-242,118],[-160,211],[48,85],[110,82],[141,208],[45,163],[114,117],[53,498],[15,614],[-172,520],[-314,441],[0,349],[458,261],[301,524],[272,425],[29,260],[233,299],[124,246],[196,-84],[50,-140],[-116,-94],[-78,-130],[103,-126],[42,-178],[463,-244],[124,-147],[-160,-223],[158,-132],[190,-139],[196,-190],[380,-119],[-13,-175],[325,-365],[534,216],[419,-252],[245,-180],[2112,-753],[250,-45],[128,-35],[719,274],[24,-14],[48,-62],[70,22],[148,-25],[85,-236],[233,-185],[433,-137],[283,-21],[177,174],[174,-284],[231,-71],[158,199],[312,-202],[134,51],[68,143],[298,110],[226,-291],[413,4],[126,218],[101,-48],[136,-284],[268,-228],[-116,-282],[290,-150],[289,-59],[389,-79],[44,-257],[287,-124],[222,-180],[103,-72],[-89,-117],[-117,-156],[261,-88],[407,-20],[214,-99],[314,-487],[-85,-218],[163,-221],[490,263],[-83,-390],[47,-301],[293,-47],[42,-269],[-590,-2190],[1113,-1000],[158,-1909],[787,-585],[575,-427],[174,-129],[305,-227]],[[85615,77527],[55,-168],[176,-293],[78,-360],[167,-413],[157,-169],[239,-74],[605,26],[780,225],[512,258],[124,121],[-599,625],[-400,503],[1110,386],[376,-47],[586,339],[1256,639],[483,114],[144,-3],[314,-215],[449,-436],[343,-228],[540,-400],[607,-285],[524,-195],[838,-228],[328,-50],[278,80],[51,42]],[[95736,77321],[280,-502],[749,-136],[852,-401],[842,-373],[1041,-1198],[499,-792],[-359,-900],[-253,-410],[-316,-510],[-283,-458],[-287,-463]],[[84717,72375],[66,201],[132,202],[252,154],[314,121],[185,155],[112,154],[-54,229],[-248,135],[-264,94],[-116,80],[-255,54],[-108,14],[-148,168],[-289,0],[-223,-14],[-388,-47],[-272,0],[-91,397],[87,261],[86,222],[58,188],[66,208],[173,222],[66,175],[62,218],[25,145],[0,83],[-297,-23],[-508,-17],[-482,17],[-202,10]],[[82456,76181],[132,281],[115,218],[17,127],[-141,121],[-264,210],[-161,119],[-4,73],[50,73],[68,153],[58,129],[39,123],[74,175],[93,135],[99,47],[190,17],[155,-43],[313,-59],[394,-35],[213,-76],[171,-121],[153,-40],[55,-111],[118,-99],[248,-54],[342,-16],[215,47],[417,-48]],[[85615,77527],[-169,259],[-21,32],[-33,234],[99,236],[231,308],[241,195],[289,267],[-181,25],[-500,52],[-458,54],[91,275],[138,156],[81,124],[-21,61],[-115,62],[-265,126],[-317,43],[-297,-3],[-122,-185],[-281,-261],[-120,110],[-63,-166],[-71,56],[-109,22],[-194,-145],[-56,37],[128,321],[64,377],[75,171],[268,235],[328,292],[371,401],[388,359],[-464,149],[-497,271],[-368,28],[-103,65],[-85,45]],[[79501,79864],[351,-121],[231,-165],[54,-235],[78,-258],[-21,-389],[-101,-270],[-49,-430],[-378,-378],[-413,-285],[-196,-290],[-138,-262],[-130,-182],[-136,-253],[-83,-262],[174,-180],[710,-147]],[[79454,75757],[230,-60]],[[79684,75697],[121,187],[505,-47],[348,-135],[448,-152],[599,220],[447,198],[304,213]],[[95736,77321],[2007,326],[-75,344],[-45,867],[-1377,488],[-501,2002],[1482,666],[731,1497],[193,1489],[-112,332],[-314,262],[-412,66],[-2113,-734],[-1268,-325],[-1088,76],[-1354,85],[-172,47],[-363,98],[-565,153],[-319,87]],[[79454,75757],[-42,-480],[-222,23],[-85,-38],[-113,17],[-201,67],[-198,-39],[-100,-235],[228,-314],[128,-73],[72,-132],[68,-161],[-156,-108],[88,-242],[4,-128],[78,-180],[7,-16],[14,-128],[-10,-213],[225,-126],[235,-51],[134,52],[157,22],[221,91],[29,99],[10,86],[10,123],[147,224],[-35,204],[135,45],[-56,60],[-58,92],[31,82],[121,75],[498,144],[-145,369],[-80,238],[-119,258],[-223,25],[-167,12],[-360,93],[-40,103]],[[14362,66759],[463,-137],[313,-551],[297,-847],[570,220],[458,297],[408,269],[458,175],[595,303],[400,202],[351,155]],[[18675,66845],[433,-64],[429,-94],[413,-381]],[[19950,66306],[462,-373],[58,-81],[-83,-131],[-64,-101],[35,-145],[182,-226],[132,-161],[-45,-202],[-99,-314],[-178,-249],[-122,-239],[-107,-219],[142,-323],[161,-337],[62,-323],[58,-715],[140,-515],[293,-540],[359,-703]],[[21336,60409],[-627,-255],[-954,-282],[-1269,-190],[-1129,150],[-832,231],[-436,412]],[[16089,60475],[-311,360],[-473,316],[-494,263],[-234,300],[-197,286],[-199,209],[-184,179],[-332,200],[-291,156],[-172,274],[-177,304],[-274,92],[68,263],[124,250],[91,341],[187,282],[19,491],[153,303],[425,624],[544,791]],[[20759,70871],[-222,-275],[-633,-178],[-464,-7],[-446,205],[-167,145],[-274,131],[21,152],[-31,171],[-357,316],[-297,306],[-143,443],[169,222],[9,151],[23,53],[53,196],[372,44],[201,32],[664,-99],[754,-111],[240,2],[453,4],[554,111],[453,-96],[316,-192],[359,-568],[47,-223]],[[22413,71806],[-407,-309],[-797,-214],[-450,-412]],[[27928,76736],[-47,228],[-83,131],[-293,10],[-515,87],[-322,228],[-198,148],[-141,302],[-144,262],[-144,107],[-269,-154],[-95,74],[-123,211],[-368,98],[-388,-67],[-268,-269],[-491,-27],[-540,181],[-450,319],[-677,-28],[-145,276],[-499,133],[-210,77],[-217,-144],[-269,-5],[-96,270],[-337,160],[-202,-62],[-140,28],[-170,56],[-132,60],[0,35]],[[19955,79461],[42,113],[150,184],[37,208],[527,178],[678,679],[112,365],[-215,316],[172,258],[540,693]],[[21998,82455],[96,-103],[57,-86],[113,-63],[108,36],[72,122],[130,175],[206,158],[237,128],[213,47],[163,254],[179,575],[520,329],[387,-44],[356,-120],[92,-238],[-94,-411],[94,-115],[298,-178],[339,-115],[154,-87],[112,-175],[72,-84],[324,-187],[178,-84],[267,-75],[403,-272],[157,-85],[588,4],[274,-4],[140,134],[180,211],[425,168],[107,86],[94,139],[49,258],[-52,413],[338,360],[463,828]],[[29837,84354],[-62,-406],[637,-121],[465,-170],[788,234],[1040,45],[429,109],[466,302],[814,476],[32,19],[28,12],[80,66],[63,42],[23,24],[56,44],[104,69],[48,43],[188,89],[104,48],[62,26],[53,40],[26,14],[53,33],[128,111],[99,103],[77,53],[80,54],[67,55],[51,34]],[[35836,85802],[91,13],[77,0],[106,-47],[39,-114],[94,-53],[103,11],[89,-27],[223,-238],[271,-259],[210,-14],[211,5],[273,-57],[208,-10],[230,2],[53,3],[26,4],[25,2]],[[38165,85023],[-12,-96],[-129,-138],[-234,-157],[-140,-138],[-83,-95],[-92,-141],[-46,-193],[-94,-33],[-425,-265],[-384,-385],[5,-694]],[[36531,82688],[-343,-47],[-589,-268],[-380,-228],[-605,-205],[-1139,-188],[-696,-191],[-460,-322],[-511,-171],[-324,-114],[-722,-356],[-721,-352],[-559,-289],[-243,-375],[-293,-433],[-74,-265],[-9,-245],[169,-423],[133,-205],[276,-551],[142,-238],[153,-147],[196,26],[219,44],[144,-57],[632,-729],[693,-547]],[[31620,75812],[-223,-131],[-580,-124],[-908,285],[-443,289],[-467,460],[-340,77],[-582,115],[-149,-47]],[[21070,69708],[-54,594],[-233,111],[-24,458]],[[22413,71806],[491,293],[518,396],[118,209],[33,460],[470,68],[40,2]],[[24083,73234],[517,38],[326,30]],[[24926,73302],[5,-376],[229,44],[-407,-330],[103,-403],[791,252]],[[25647,72489],[72,-279],[297,-78],[458,-124],[301,-124],[-62,306],[-85,267]],[[26628,72457],[411,-119],[454,-135],[310,18],[239,83],[107,326],[339,349],[429,27],[39,-257],[194,-185],[223,156],[287,213],[439,67],[390,-74]],[[30489,72926],[-305,-330],[-299,-151],[-345,-249],[-538,-147],[-454,-78],[-407,-171],[-458,-152],[-644,-27],[-499,68],[-330,-41],[-594,-63],[-619,-74],[-413,-111],[-508,-175],[-321,-141],[-580,-272],[-386,-250],[-369,-288],[-245,-307],[-274,-125],[-428,-105],[-403,-29]],[[24083,73234],[-128,206],[-118,242],[-206,178],[-590,81],[-553,53],[-514,202],[-691,487],[-467,232],[-633,84],[-526,-74],[-62,195],[-161,211],[-330,175],[-487,272],[-458,168],[-283,103],[-285,119]],[[17591,76168],[-235,-311],[-121,-288],[-296,-313],[-600,-132],[-1022,296],[-51,-75],[-224,-331],[459,-422],[-249,-333],[-103,-416],[141,-1013],[156,-2462],[-73,-238],[-109,-357],[-142,-388],[-32,-102],[-96,-242],[-171,-397],[-334,-416],[-440,-622],[-263,-861],[576,14]],[[18675,66845],[-9,101],[17,84],[58,165],[136,64],[111,148],[182,276],[128,209],[214,282],[364,216],[445,208],[268,145],[178,340],[115,433],[188,192]],[[29837,84354],[19,175],[-10,41],[52,150],[306,972],[-290,78],[-404,293],[180,169],[103,91],[-76,59],[210,323],[163,438],[41,50],[54,41],[-6,22]],[[30179,87256],[221,32],[76,-33],[106,79],[139,48],[150,77],[200,84],[191,73],[342,123],[314,64],[159,-87],[379,-164],[109,-35],[52,-16],[128,-39],[62,-35],[90,-41],[119,-62],[87,-46],[115,-34],[49,-12],[153,-30],[31,-7],[70,-25],[83,-31],[55,-19],[54,-21],[-51,-111],[-27,-74],[11,-132],[99,-75],[134,-48],[80,-18],[52,-104],[101,-26],[210,20],[91,10],[131,2],[155,-142],[116,-67],[153,-62],[42,-60],[218,-174],[48,-26],[91,-19],[62,-42],[109,-111],[145,-42],[153,4]],[[21998,82455],[19,28],[-413,-12],[-565,220],[-152,733],[-10,69],[-8,89],[-22,60],[-117,250],[34,56],[-8,35],[-1,59],[45,258],[46,123],[131,227],[99,202],[69,107],[95,115],[62,103],[32,77],[137,271],[142,244],[113,173],[24,88],[67,107],[108,108],[327,237],[71,34],[100,104],[65,112],[8,74],[-33,62],[-72,88],[-45,37],[-85,106],[-4,403],[-8,200],[-101,61],[100,-9],[82,37],[60,19],[178,107],[67,20],[90,124],[11,35],[59,14],[17,27],[71,15],[58,-22],[125,73],[67,-57],[56,49],[30,14],[100,78],[38,1],[27,34],[102,62],[17,29],[40,34],[33,50],[95,2],[114,57],[89,-62],[68,-30],[139,32],[39,57],[153,40],[264,-12],[74,6],[88,-7],[28,-26],[34,-10],[41,-16],[79,-31],[70,-25],[44,0],[35,-16],[35,-28],[58,-39],[16,-8],[64,-14],[39,-4],[-22,-9],[-34,-27],[9,-34],[7,-52],[14,-63],[21,-60],[19,-28],[22,-26],[30,-30],[69,-66],[27,-27],[32,-30],[73,-76],[74,-88],[35,-49],[42,-41],[32,-30],[22,-30],[20,4],[47,3],[51,21],[55,-5],[88,-4],[39,2],[49,-5],[86,1],[126,4],[220,7],[125,45],[224,-47],[440,7],[136,-50],[101,2],[58,-1],[6,-70],[40,-34],[73,-67],[22,-209],[90,-88],[225,-134],[195,28],[24,-4],[272,-9],[249,-78],[45,48],[51,34],[97,3],[138,66],[174,-56],[241,6],[93,43],[196,69],[209,90],[160,37]],[[17591,76168],[220,387],[376,526],[-75,800],[1563,1603],[153,36],[60,-11],[67,-48]],[[27928,76736],[-447,-142],[-706,-64],[-4,-208],[-303,-218],[-308,-423],[-495,-612],[-380,-416],[-321,-434],[-79,-420],[41,-497]],[[16089,60475],[-193,-1238],[-133,-1499],[-68,-362],[-77,-408],[-905,-181],[296,-360],[620,-1795]],[[15629,54632],[177,-64],[225,-71],[304,-76],[243,-68],[522,-251],[537,-98],[730,-10],[1325,37],[947,25],[584,-79],[590,-87],[629,-44],[378,-112],[400,-172],[594,-3],[588,142],[310,34]],[[24712,53735],[459,61],[722,50],[146,-402],[691,142],[202,81],[87,183],[210,416],[281,196],[7,549],[983,401],[111,244],[-123,381],[-104,304],[3,336],[117,170],[206,98],[314,145],[297,111],[215,135],[-21,209],[-58,233],[-66,408],[-144,634],[-239,489],[-261,412],[-404,206],[-721,1242],[-1108,1200]],[[26514,62369],[-733,-299],[-637,-223],[-1093,26],[-1161,-146],[-236,633]],[[22654,62360],[-410,-1042],[-908,-909]],[[22654,62360],[-96,354],[-188,498],[-72,596],[-21,323],[-62,416],[17,342],[134,298],[530,271],[454,106],[458,174],[716,417],[683,461],[471,204],[441,124],[607,344],[225,220],[392,256],[270,281],[210,153],[60,94],[-37,263],[-12,193],[212,135],[-299,89],[23,97],[381,222],[163,296],[33,234],[-185,298],[-15,181],[50,130],[138,129],[285,254],[138,86]],[[28758,70899],[-192,60],[-318,125],[-280,-219],[-157,-166],[-310,-94],[-187,-149],[-324,-46],[-281,-24],[-569,-180],[-339,-96],[-247,22],[-122,108],[-246,126]],[[25186,70366],[7,-151],[-62,-164],[4,-244],[-10,-201],[-168,20],[-255,49],[-132,45]],[[24570,69720],[-79,-138],[-120,-171],[-302,-202],[-426,-177],[-309,-397],[-269,-313],[-449,-252],[-302,-114],[-148,-246],[-176,-161],[-258,-159],[-499,-320],[-167,-366],[-574,-226],[-542,-172]],[[24570,69720],[-67,23],[-243,76],[122,103],[121,94],[256,143],[64,104],[52,156],[192,35],[119,-88]],[[28758,70899],[305,6],[306,46],[295,28],[155,24],[154,45],[7,-168]],[[29980,70880],[41,96],[68,96],[260,45],[609,135],[819,227],[253,271],[-22,367],[458,256],[314,419],[174,171],[111,252]],[[33065,73215],[6,14],[177,315],[212,397],[-82,171],[-149,252],[-367,205],[-292,126]],[[32570,74695],[-129,-368],[-309,-292],[-785,-420],[-431,-568],[-427,-121]],[[31620,75812],[555,-451],[-116,-446],[399,-171],[112,-49]],[[26628,72457],[-80,348],[-53,259],[-844,-121],[-95,-165],[91,-289]],[[31620,75812],[448,233],[260,227],[427,358]],[[32755,76630],[-359,817],[175,64],[43,282],[-206,439],[231,433],[310,826],[743,631],[604,299],[577,369],[729,412],[530,114],[254,255],[347,288],[57,202],[-111,117],[-256,37],[-152,-20],[61,201],[178,77],[21,215]],[[33065,73215],[536,-175],[503,-47],[95,158],[803,-97],[132,-239],[103,-144],[264,-189],[151,-185],[154,-134],[134,-185]],[[35940,71978],[314,6],[286,-100]],[[36540,71884],[226,188],[204,242],[93,262],[-41,242],[136,299],[175,212],[186,306],[66,632],[76,342],[-45,239],[37,188],[35,118],[97,23],[188,-47],[196,-101],[-235,289],[-31,184]],[[37903,75502],[-762,-120],[-433,3],[-211,222],[-187,349],[-229,171],[-145,104],[-185,-77],[-190,-80],[-299,17],[-527,201],[-433,188],[-421,302],[-169,-127],[-95,-101],[-243,-131],[-306,3],[-245,140],[-68,64]],[[38165,85023],[238,16],[50,1],[51,87],[67,96],[91,28],[130,24],[308,40],[198,-50],[259,89],[65,68],[67,82],[46,72],[19,60],[24,55],[55,87],[34,26],[193,8],[79,-13],[36,-31],[36,-72],[2,-49],[12,-44],[95,-18],[70,2],[33,25],[39,6],[196,147],[68,49],[177,191],[140,151],[97,61],[167,37],[126,6],[270,164],[41,105],[14,57],[16,161],[15,162],[41,40],[80,7],[98,-8],[93,-91],[51,-14],[246,19],[172,10],[140,30],[25,43],[-24,61],[-67,36],[-128,21],[-93,46],[1,90],[-14,78],[-44,24],[-14,95],[31,81],[8,97],[14,78],[39,49],[91,23],[34,11],[13,20],[-6,66],[4,26],[24,53],[87,53],[46,26],[46,21],[32,61],[29,34],[87,38],[39,2],[59,-12],[97,-74],[52,-36],[112,-88],[111,-17],[96,-14],[30,-4]],[[44782,85162],[-147,-88],[-132,-131],[-392,-348],[-271,-288],[-289,-265],[-393,-402],[-240,-470],[33,-328],[-60,-131],[-121,-27],[-268,-449],[-145,-294],[-169,-317],[138,-234],[35,-145],[37,-191],[-78,-184],[-77,-362],[-83,-91],[-33,-120],[-67,-299],[-143,-232],[-80,-352],[13,-275],[-234,-359],[-200,-386],[-11,-255],[-245,-215],[-210,-420],[-147,-215],[-92,-245]],[[40711,77044],[-193,-6],[-139,-58],[-51,-305],[-214,-222],[-80,-235],[-265,-148],[-156,-127],[-176,81],[-261,-182],[-185,-181],[-162,-209],[-358,128],[-580,178],[12,-256]],[[36540,71884],[266,-90],[235,-128],[424,-318],[-65,-349],[-238,-245]],[[37162,70754],[239,-54],[330,34],[330,-41],[146,-100],[25,-141],[-47,-189],[141,-168],[222,-7],[-8,-127],[66,-155],[341,-253]],[[38947,69553],[179,114],[221,128],[143,121],[190,68],[210,114],[333,37],[174,-75]],[[40397,70060],[401,283],[355,355],[314,167],[297,237],[276,503],[214,175]],[[42254,71780],[-344,316],[-209,198],[141,461],[652,915],[-58,426]],[[42436,74096],[-405,84],[-414,443],[-255,473],[-176,237],[-292,117],[-199,202],[-138,243],[84,271],[14,190],[31,275],[12,259],[13,154]],[[26514,62369],[857,-285],[1322,-196],[1031,-24],[763,73]],[[30487,61937],[-10,311],[-33,270],[-37,508],[-13,536],[11,610],[109,320],[54,508],[-58,640],[-178,155],[79,229],[198,289],[62,519],[-70,484],[-58,498],[140,246],[99,225],[50,212],[147,177],[39,205],[38,164],[228,176],[183,164],[165,192],[-87,156],[77,212],[-269,204],[-503,-12],[-139,493],[-16,194],[-175,152],[-468,-166],[-72,72]],[[30487,61937],[657,64],[-99,-613],[1280,231]],[[32325,61619],[-353,1051],[2013,178]],[[33985,62848],[-330,434],[-351,774],[355,104],[18,-3],[107,-22]],[[33784,64135],[287,104],[334,104],[76,155],[29,189],[56,60],[215,4],[210,20],[79,118],[173,27],[45,151],[66,223],[219,178],[-143,276],[114,205],[475,4],[117,168],[473,30],[414,112],[305,249],[359,390],[512,461],[41,222],[-30,290],[223,471],[228,249],[-33,381],[194,242],[-37,127],[162,208]],[[37162,70754],[-322,-356],[-581,-195],[-272,-41],[-14,-114],[-487,-13],[-511,181],[-58,531],[22,465],[124,33],[77,242],[49,87],[171,108],[176,134],[248,81],[156,81]],[[39745,63186],[-700,171],[-825,275],[-1286,250],[-1229,59],[-1129,33],[-792,161]],[[40397,70060],[-210,-270]],[[40187,69790],[-178,-161],[-97,-72],[-66,-239],[-53,-387],[16,-316],[578,-313],[355,-141],[-165,-676],[-174,-256],[75,-340],[-301,-594],[95,-608],[-223,-587],[121,-729],[-58,-463],[-158,-386],[-137,-206],[-72,-130]],[[40187,69790],[351,-44],[181,161],[240,-89],[148,-93],[87,-77],[177,-125],[-99,-275],[-25,-128],[112,-145],[161,24],[198,40],[173,-161],[58,-108],[145,30],[226,138],[33,323],[17,222],[223,350],[99,309],[-17,414],[79,208],[177,-353],[479,47],[479,-53]],[[43889,70405],[0,-350],[-83,-276],[-256,-289],[-214,-256],[198,-343],[363,-303],[379,-336],[215,-162],[421,-67]],[[44912,68023],[-124,-337],[-46,-100]],[[44742,67586],[-391,14],[-406,-10],[-140,-237],[-23,-113],[-59,-287],[-140,-350],[198,-303],[322,-377],[149,-189]],[[44252,65734],[-34,-215],[-66,-142],[-57,-141],[-118,-200],[-47,-238],[-2,-220],[25,-270],[-15,-231],[33,-229],[56,-274],[-56,-231],[-25,-128],[-28,-247]],[[43918,62968],[-1354,97],[-1183,-108],[-989,72],[-647,157]],[[44423,62710],[-457,53],[-48,205]],[[44252,65734],[268,71],[417,172],[355,208],[144,192],[73,234]],[[45509,66611],[261,8],[264,-57],[227,14],[294,171],[371,226],[458,222],[85,68]],[[47469,67263],[269,-38],[326,-33],[615,-105],[628,68],[520,-1],[481,17],[338,50],[234,175],[144,226]],[[51024,67622],[-54,-151],[-50,-155],[-68,-119],[-79,-92],[-68,-99],[-74,-175],[50,-154],[-17,-303],[-16,-391],[-66,-370],[-165,-445],[-116,-336],[8,-351],[322,-195],[256,-155],[231,-188],[41,-203],[-214,-121],[-2,-146],[-15,-344]],[[50928,63129],[-1170,-157],[-1643,-1129]],[[48115,61843],[-58,359],[-802,179],[-2133,248],[-699,81]],[[45509,66611],[518,351],[-304,294],[-583,34],[-398,296]],[[60331,65152],[813,1139],[100,485],[17,386]],[[61313,67408],[-544,545],[-322,235],[-157,54],[-243,77],[-291,83],[-167,116],[-248,40],[-278,150],[-489,188],[-275,333],[-258,441],[-390,28],[-341,-131],[-271,-209],[-99,-338],[-375,-431],[-538,139],[-428,35],[-247,-28],[-356,57],[-114,21],[-314,-123],[-276,-119],[-302,-120],[-214,-114],[-208,-444],[-306,49],[-297,16],[-363,-66],[-305,33],[-510,-33],[-231,-21],[-165,-90],[-95,-165],[-145,3],[-127,3]],[[50928,63129],[373,51],[758,-157],[1688,161],[1895,407],[1415,547],[803,230],[641,117],[527,208],[541,203],[222,128],[540,128]],[[47469,67263],[207,238],[252,364],[351,370],[206,236],[297,6],[331,74],[466,58],[273,84],[358,370],[495,276],[483,212],[277,477],[293,316],[206,387],[218,487],[83,336],[215,565],[272,498],[-438,201],[-495,14],[-49,201],[223,115],[487,262],[511,282],[562,-32],[355,-209],[668,-804],[264,-144],[967,-632]],[[44912,68023],[173,283],[190,336],[248,357],[156,329],[462,-30],[310,-10],[111,-60],[335,-41],[209,36],[158,274],[285,535],[577,635],[311,539],[394,228],[376,435],[367,395],[463,375],[801,1013],[808,647],[755,239],[648,303],[520,78],[458,397],[425,509],[215,353],[297,406],[590,329],[508,309],[346,276],[481,374]],[[53701,80243],[-78,-222],[-285,-285],[-388,-413],[-474,-345],[-454,-423],[-508,-631],[-483,-685],[-697,-769],[-623,-541],[-536,-701],[-566,-820],[-648,-1015],[-409,-850],[-685,-430],[-569,-377],[-346,-524],[-145,-249],[-181,30],[-343,14],[-120,-205],[-86,-199],[-165,-87],[-277,-151],[-746,40]],[[50975,82314],[-253,-457],[-231,-265],[-347,-571],[-346,-440],[-124,-177],[53,-285],[-41,-185],[-152,-23],[-265,114],[-288,-373],[-685,-708],[-401,-255],[298,-500],[-648,-443],[-239,-191],[-59,-178],[174,-370],[-75,-158],[-432,-40],[-330,-265],[-447,-699],[-246,-327],[-479,-437],[-167,-825],[-394,-1546],[-310,-911],[-339,-156],[-446,4],[-379,-117],[-553,162],[-570,88]],[[47334,84652],[8,-862],[-33,-563],[-12,-419],[-33,-231],[-190,-249],[-214,-318],[-219,-396],[-235,-365],[-219,-225],[-107,-527],[-95,-288],[-50,-268],[-91,-282],[-161,-323],[-189,-352],[-190,-389],[-120,-356],[-91,-212],[-124,-197],[-284,-313],[-248,-325],[-252,-296],[-132,-225],[-218,-302],[-157,-218],[62,-286],[-107,-201],[-30,-134],[103,-58],[-263,-295],[-232,-343],[-296,-491],[-199,-315],[-280,68]],[[13484,48254],[183,42],[200,69],[215,67],[210,98],[223,39],[727,248]],[[15242,48817],[223,28],[340,127],[357,550],[455,703],[205,565],[100,732],[1752,-858],[940,124],[1044,108],[1330,187],[607,-1432]],[[22595,49651],[73,225],[1886,31],[693,811]],[[25247,50718],[-841,44],[-404,247],[198,395],[318,500],[168,256],[49,341],[-15,352],[-8,882]],[[15629,54632],[185,-510],[-3060,-2576],[730,-3292]],[[25247,50718],[347,429],[389,419],[853,-382],[1020,-310],[1060,459],[260,131],[-16,-229],[425,34],[17,-260],[341,60],[194,47],[926,-2],[28,-119],[504,48],[416,57],[34,115]],[[32045,51215],[350,1220],[631,1566],[574,365],[624,179],[44,175],[376,7]],[[34644,54727],[13,311],[-178,-47],[-189,229],[-231,-84],[-186,145],[-677,1083],[-739,243],[306,847],[165,756],[114,424],[224,574],[225,438],[310,374],[190,212],[156,208]],[[34147,60440],[-31,12],[-210,70],[-404,193],[-256,121],[-236,148],[-232,134],[-278,271],[-175,230]],[[32763,54575],[-1024,-1039],[-674,148],[-828,-327],[-1208,-253],[-275,250],[408,238],[-144,691],[225,296],[-247,495],[276,234],[375,243],[541,47],[825,41],[318,71],[817,-601],[615,-534]],[[23826,39836],[-206,574],[-107,-40],[-316,159],[-418,244],[711,549],[-1367,1209]],[[22123,42531],[-2928,-549],[-125,121],[-1155,1121],[446,99],[-128,162],[636,355],[-273,217],[524,396],[-214,-7],[-128,61],[-124,105],[-8,173],[107,179],[-895,545],[-607,882],[-673,444],[-363,257],[-293,-4],[-280,203],[-335,375],[285,58],[-466,419],[-400,287],[516,387]],[[13484,48254],[-3118,-964],[-439,-458],[-766,-857],[-118,-257],[101,-122],[92,-87],[67,-27],[80,20],[65,51],[64,106],[-4,128],[52,133],[88,93],[72,36],[100,-34],[94,-72],[107,-193],[183,-313],[230,-259],[175,-112],[-59,-304],[-103,-462],[-56,-252],[-133,-593],[-176,-789],[-142,-636],[-86,-384],[294,-477],[243,-392],[-263,-1040]],[[10128,39737],[1751,-221],[2673,-905],[225,-201]],[[14777,38410],[167,178],[722,362],[2163,568],[1384,-221],[2691,252],[1817,310],[105,-23]],[[22595,49651],[385,-1172],[358,-842],[295,-663],[274,-471],[194,37],[-62,-615],[248,189],[198,-57],[109,-143],[89,-121]],[[24683,45793],[-4,-430],[4,-199],[75,-219],[305,-892],[106,-311],[59,-172],[-760,-203],[-111,165],[-135,-26],[-270,-54],[-445,-89],[59,-161],[28,-76],[-886,-175],[-76,-15],[-134,-27],[-677,-100],[302,-278]],[[25469,39725],[77,79],[12,75],[-8,105],[37,102],[91,40],[194,31],[-87,281],[18,108],[-121,302],[-1368,-299],[124,-376],[97,-372],[-12,-146]],[[24523,39655],[209,-121],[511,68],[226,123]],[[23826,39836],[697,-181]],[[25469,39725],[839,209],[35,-5]],[[26343,39929],[614,-98],[-447,1607],[695,652],[391,-528],[2310,561],[-28,380],[414,57],[179,-505],[298,25]],[[30769,42080],[-103,386],[-99,467],[-152,525],[-64,456]],[[30351,43914],[-1441,-221],[-59,163],[-44,117],[-87,241],[-25,70],[-26,66],[-78,199],[-6,13],[-78,202],[-9,22],[5,90]],[[28503,44876],[-138,11],[-464,36],[-99,14],[-363,51],[-20,104],[-78,38],[-64,155],[-521,256],[-318,-294],[-124,274],[-104,279],[-268,30]],[[25942,45830],[-219,-64],[-239,30],[-149,108],[-400,-60],[-252,-51]],[[28503,44876],[125,396],[1358,-6],[219,-326],[236,-329],[120,-402],[41,-256],[-251,-39]],[[25942,45830],[643,514],[219,31],[260,54],[165,-4],[466,169],[285,-10],[351,-57]],[[28331,46527],[-9,-251],[62,-290],[750,16],[629,204],[561,-680],[279,-401],[497,99],[338,-118],[413,-17],[241,16],[108,7],[344,41],[556,-72],[834,-461]],[[33934,44620],[269,-526],[252,-419],[41,-122],[-549,-653],[-371,-437],[-299,-322]],[[33277,42141],[-726,314],[-593,73],[-1189,-448]],[[35142,45785],[583,274],[268,20],[-79,241],[66,405],[95,332]],[[36075,47057],[-176,68]],[[35899,47125],[-178,98],[-247,139],[-392,71],[-339,112],[145,314],[44,243],[-205,264],[-281,318],[-91,236],[-136,92],[-454,-44],[-123,-71]],[[33642,48897],[-132,-369],[-289,-334],[-438,118],[-322,-470],[-214,-132],[-252,288],[-165,0],[-128,-288],[-231,-132],[70,-189],[79,-189],[-149,-125],[-396,54],[-206,362],[-116,-122],[-111,-271],[-413,-250],[-206,-162],[-277,-163],[-223,183],[-317,223],[-364,24],[-144,-288],[-58,-88],[-309,-50]],[[33934,44620],[144,45],[-127,228],[417,247],[774,645]],[[32045,51215],[514,-200],[-593,-172],[78,-173],[-202,-360],[537,331],[219,-115],[425,10],[223,301],[313,-325],[445,101],[-29,-243],[-82,-250],[236,4],[122,-173],[-821,-649],[-11,-246],[223,-159]],[[34644,54727],[108,-209],[478,-20],[364,-422]],[[35594,54076],[-71,-206],[124,-44],[-487,-817],[595,-318],[-302,-469],[-53,-693],[4,-425],[99,-206],[523,-347],[149,-485],[-136,-605],[-119,-199],[140,-281],[239,-253],[-20,-328],[-116,-243],[173,-139],[-140,-345],[-297,-548]],[[36075,47057],[299,-68],[243,-83],[456,-19],[320,6],[483,193],[243,489],[784,21],[124,-122]],[[39027,47474],[940,-11],[-8,139]],[[39959,47602],[-793,327],[-1428,653],[-326,297],[-132,308],[223,186],[439,-229],[114,-48],[367,216],[430,213],[37,-467],[247,-321],[260,24],[0,162],[165,37],[141,-91],[173,-170],[553,140],[161,61],[297,236],[260,216],[75,-53],[168,-119],[592,227],[377,208]],[[42359,49615],[120,56],[-41,49],[-83,145],[-105,-37],[-15,73],[205,218],[-246,223],[27,262],[-10,327],[619,-30],[80,348],[107,326],[37,221],[1,172]],[[43055,51968],[-227,4],[-318,17]],[[42510,51989],[36,-92],[-144,-37],[-293,17],[-272,54],[-128,61],[-71,114],[-186,14],[-161,-41],[-103,-138],[-144,-173],[-409,-57],[-229,-46],[-159,-174],[-375,4],[-235,348],[-277,439],[-206,327],[-244,139],[-408,17],[-429,-36],[-442,63],[-330,84],[-465,-2],[-252,175],[-45,358],[-207,91],[79,240],[0,165],[-47,131],[-305,14],[-465,28]],[[42748,44567],[173,-237],[347,224],[-115,390],[129,67]],[[43282,45011],[26,464],[-12,231],[167,33],[-1,83],[143,86],[-138,292],[192,183],[231,-37],[444,110],[429,11],[-47,139],[33,254],[189,216],[165,88],[201,147],[218,349],[61,16],[144,39],[309,7],[155,-12]],[[46191,47710],[12,63],[-20,493],[61,364],[-239,292],[-206,215],[-87,-15],[-115,37],[-115,-8],[-201,-65],[-151,26],[-210,-70],[-200,-123],[-333,-100],[-356,-103],[-325,367],[-284,-162],[-426,412],[-265,-213],[-372,495]],[[39959,47602],[487,142],[396,-545],[-528,-144],[223,-420],[140,-182],[0,-465],[141,-341],[626,280],[224,-415],[247,-383],[223,160],[610,-722]],[[39027,47474],[-87,-250],[408,-68],[-66,-704],[322,-40],[405,-54],[5,-48],[53,-453],[66,-507],[-652,-291],[-516,-218],[-1078,-457],[-765,-269]],[[37122,44115],[-274,274],[-562,486],[-25,328],[54,596],[-161,10],[-62,-284],[-372,34],[-578,226]],[[37122,44115],[113,-113],[297,-538],[384,-420],[-120,-51],[244,-423],[-170,-30],[21,-58],[-677,-132],[-261,-658]],[[36953,41692],[-737,-579]],[[36216,41113],[-52,-38],[-238,211],[-265,109],[-472,93],[-401,-12],[-1016,-442],[-495,1107]],[[36953,41692],[1870,-681]],[[38823,41011],[381,510],[160,214],[691,927],[679,85]],[[40734,42747],[158,342],[520,27],[611,21],[519,29],[65,188],[114,307],[-157,349],[-186,95],[-769,131],[-428,173],[107,244],[570,-190],[297,54],[354,-58],[239,108]],[[43545,39717],[-34,1602],[1076,462],[555,641],[221,254],[319,195]],[[45682,42871],[564,343],[1048,143],[441,178],[741,-37],[773,249]],[[49249,43747],[-198,447]],[[49051,44194],[-83,188],[-140,230],[-77,142],[43,185],[10,47],[-128,206],[-159,76],[-109,143]],[[48408,45411],[-128,-85],[-262,-102],[-200,-33],[-221,-4],[-262,-20],[-369,-76],[-173,36],[-28,6],[-10,2],[-187,-98],[-240,-38],[-128,0],[-267,7],[-432,-150],[-413,15],[-295,-78],[-390,3],[-391,5],[-347,-23],[-241,103],[-142,130]],[[40734,42747],[2575,-3190]],[[43309,39557],[236,160]],[[48213,53140],[223,372],[285,216],[383,290]],[[49104,54018],[84,-31],[363,-134],[395,-274],[261,-357],[589,-220],[748,-162],[941,-402]],[[52485,52438],[-400,-361],[-508,-392],[-425,-186],[33,-189],[-169,-216],[-352,-65],[-29,-155],[215,-291],[-104,-81],[-124,-62],[-181,-94],[-230,-23]],[[50211,50323],[-392,-348],[-13,-237],[-207,-260],[-260,-189],[-233,74],[-171,-135],[153,-176],[-79,-165],[-4,-244],[-246,-50],[-279,119],[-242,-191],[-597,-347],[-71,-271],[-117,-277]],[[47453,47626],[-175,-73],[-318,97],[-452,54],[-317,6]],[[43055,51968],[243,48],[50,-125],[171,-32],[47,-59],[205,29],[196,-121],[196,110],[215,-108],[148,21],[76,-36],[124,7],[169,-132],[132,-7],[205,279],[138,99],[400,41],[374,66],[346,189],[407,-160],[862,-288],[260,723],[194,628]],[[48213,53140],[-644,230],[-107,-78],[-79,-40],[-189,115],[-99,-65],[-409,146],[-257,103],[-114,-73],[-359,230],[-372,222],[-417,206],[355,773],[-239,31],[-281,27],[-309,17],[-87,-91],[-326,-108],[-165,155],[-210,27],[-79,40],[-206,-121],[-268,-68],[-99,85],[91,290],[-5,155],[-334,253],[-392,183],[-239,104],[275,724],[-48,235],[-751,263],[-852,224],[-516,240],[-357,187],[-330,276],[-553,446],[-289,242],[-396,304],[-487,351],[-165,141],[-349,184],[-287,254],[-200,232],[-371,202],[-535,133],[-478,27],[-347,60],[-198,122],[-216,319],[-108,404],[-122,436],[-177,311],[-219,259],[-313,384]],[[34147,60440],[946,-357],[596,-188],[-252,-408],[-37,-161],[25,-172],[416,-287],[372,-239],[491,-331],[338,-182],[547,-227],[454,-287],[343,-321],[410,-268],[536,-466],[494,-382],[563,-495],[279,-167],[365,-2],[477,-200],[520,-210],[241,-326],[313,-439],[198,-182],[246,-329],[42,-168],[90,-183],[-23,-130],[-66,-74],[-51,-221],[-81,-117],[-66,-149],[-107,-108],[-50,-121],[-91,-149],[-125,-99],[-118,-53],[-54,-61],[-78,-88],[-17,-94],[141,23],[136,-33]],[[49104,54018],[136,118],[-334,230],[-747,412],[-903,564],[-776,624],[530,309],[405,223],[-733,318],[-186,-121],[-152,54],[196,89],[-23,117],[8,131],[7,137],[-271,130],[-231,91],[-132,121],[-248,95],[-148,23],[-87,361],[-111,250],[-182,293],[-49,219],[24,91],[-128,51],[9,169],[33,111],[-17,182],[0,152],[-86,178],[-25,164],[-10,118],[-54,112],[-74,82],[-145,181],[-140,230],[-53,197],[-25,230],[107,451],[-192,426],[8,176],[99,235],[19,368]],[[47453,47626],[318,30],[303,54],[12,-301],[99,-388],[17,-217],[-13,-193],[99,-209],[57,-267],[47,-217],[57,-281],[-41,-226]],[[49051,44194],[582,-29],[288,39],[487,111],[769,355],[313,-109],[659,-230],[429,-149],[134,-32],[55,-13],[790,-185],[1076,260],[979,-241],[282,-69],[59,-15],[445,56],[4,0],[22,3],[34,4],[3,0],[3,1],[1125,139],[283,712],[183,459],[15,58],[7,27],[32,119],[85,325],[24,92],[43,164],[5,33],[3,20],[7,45],[68,445]],[[58344,46589],[-74,105],[-11,79],[-10,78],[-1,14],[-22,166],[-6,49],[-91,14],[-5,-1],[-92,-4],[-236,-10],[-129,-6],[-437,-16],[-58,-3],[-215,-8],[-544,-13],[-355,13],[-38,9],[-13,3],[-73,16],[-137,32],[-38,8],[-26,6],[-114,26],[-102,23],[-16,6],[-362,121],[-163,55],[-8,5],[-92,54],[-477,285],[-184,203],[-179,196],[-322,230],[-51,38],[-31,23],[-347,257],[-339,0],[-619,-34],[-495,-81],[-452,-107],[-36,-9],[-24,-6],[-246,5],[-120,85],[-245,365],[-189,432],[-133,558],[-176,473]],[[52485,52438],[346,330],[375,456],[483,222],[260,87],[220,140],[454,263]],[[54623,53936],[-6,-405],[384,-537],[297,-247],[145,-344],[107,-331],[301,-149],[396,20],[360,44],[338,-10],[272,-91],[211,-216],[459,-422],[428,-345],[44,-40],[327,-278],[94,-62],[64,-42],[294,-196],[24,-16],[91,-61],[47,-32],[10,-7],[24,-16],[302,-206],[264,-179],[652,-457],[602,-537],[347,-266],[231,-213],[210,-214]],[[61942,48081],[-429,-338],[-18,-6],[-82,-26],[-1071,-341],[-11,-3],[-615,-170]],[[59716,47197],[-48,-14],[-247,-68],[-502,-245],[-575,-281]],[[63809,49245],[-18,45],[-95,205],[-82,304],[-223,325],[-347,405],[-281,75],[-214,256],[-157,305],[-28,38],[-187,259],[-145,115],[-66,52],[-20,15],[-379,48],[-355,-68],[-355,-351],[-140,68],[-263,119],[-55,25],[-94,42],[-37,17],[-14,6],[-22,20],[-67,57],[-298,260],[-15,21],[-73,105],[-215,309],[-3,5],[-236,638]],[[59325,52965],[-243,-44],[-214,149],[-227,121],[-285,152],[-8,6],[-111,65],[-29,17],[-500,297],[-326,206],[-29,189],[-239,146],[-363,6],[-281,-152],[-177,115],[-240,182],[-173,98],[-91,115],[50,91],[-186,27]],[[55653,54751],[-148,-172],[-223,-125],[-659,-518]],[[61942,48081],[578,402],[582,403],[707,359]],[[67223,46812],[117,-616],[175,-605],[127,-440],[289,-572],[98,-193],[363,-730],[495,-516],[569,-608],[541,-744],[-192,-117],[-111,-288],[200,-159],[155,-249],[12,-73],[-400,-302],[-1180,-706],[-215,-125],[-338,-205],[-254,-236],[-89,-86],[-57,-114],[-85,-259]],[[67443,38869],[-15,-34],[81,-462],[25,-40]],[[67534,38333],[2,-1],[862,-518],[1572,-399],[1020,-262],[1278,-163],[1732,-78],[287,-37]],[[74287,36875],[69,48],[177,119],[649,313],[423,243],[120,54],[365,304],[766,969],[72,182],[121,352],[97,175],[236,315],[322,321],[219,159],[544,303],[914,3],[859,174],[817,50],[1116,283],[1452,195],[509,194],[-18,73],[15,48],[-21,45],[10,40],[-16,32],[8,41],[-21,26],[8,31],[-2,26],[-40,-14],[-33,18],[-23,30],[-44,4],[24,42],[13,13],[19,28],[4,17],[3,40]],[[84020,42171],[-157,4],[-145,54],[-115,44],[-87,4],[-107,62],[-85,36],[-289,-68],[-258,-36],[-61,53],[-135,-22],[-115,63],[-176,-92],[-226,36],[-106,-112],[-344,-22],[-123,135],[-540,199],[-405,329],[-152,156],[-5,243],[-181,197],[-182,199],[-173,562],[83,596],[474,504],[-63,38],[-325,199],[-305,247],[-37,182],[-458,379],[-2,86],[-7,276],[198,318],[-4,213],[-324,397],[-497,607],[-441,744],[-331,726]],[[77814,49707],[-231,28],[-48,-43],[-67,-59],[-244,-20],[-206,84],[-78,-128],[-128,-27],[-99,78],[-83,-125],[-161,64],[-41,-71],[-128,-44],[-75,29],[-89,36],[-108,43],[-203,189],[-202,-148],[-202,-65],[-115,-13],[-25,192],[-21,156],[-148,40],[-145,-135],[-132,-71],[-82,-44],[-62,180],[-165,60],[-182,-40],[-144,91],[-203,68],[-273,41],[-248,-74],[-300,39],[-108,-80],[45,-297],[195,-454],[-282,-212],[-218,128],[-289,-30],[-41,-230],[-260,0],[-190,233],[-482,-119],[-166,-161],[-461,114],[-660,34],[-323,-98],[-302,-375],[-284,-314],[49,-345],[-500,-237],[-101,-48],[-208,-202],[-161,-247],[-243,122],[-851,-343],[-112,-45]],[[67223,46812],[-142,370],[-571,1814]],[[66510,48996],[766,143],[737,-196],[27,25],[20,18],[20,18],[17,16],[101,91],[62,56],[157,222],[24,35],[162,229],[27,38],[12,17],[2,2],[285,403],[24,34],[180,258],[18,26],[18,27],[17,24],[194,278],[11,15],[97,139],[63,92],[29,46],[3,4],[144,235],[47,76],[53,86],[170,276],[279,343],[10,12],[9,11],[52,65],[7,8],[233,287],[399,501],[71,90],[13,17],[136,166],[83,101],[60,121],[137,277],[21,44],[174,354],[7,9],[385,493],[-16,304],[-273,685],[-60,98]],[[71724,55715],[811,241],[702,566],[-4,256],[-467,99],[-169,406],[423,450],[47,50],[67,71],[346,300],[697,203],[401,214]],[[77339,59612],[-60,-177],[53,-148],[448,-72],[554,-150],[559,-124],[2312,212],[-10,-1116]],[[81195,58037],[-524,-67],[49,-164],[-483,-801],[-619,-1192],[-516,-1363],[-223,-483],[-37,-93],[-367,-903],[-2,-31],[-23,-328],[-21,-293],[-95,-831],[-42,-147],[-277,-946],[-8,-29],[-163,-558],[-30,-101]],[[81195,58037],[221,75],[1262,21],[878,-282],[523,-1418],[314,-403],[31,-63],[284,-128],[22,-27],[133,-226],[68,-173],[18,-53],[269,-433],[249,-315],[242,-307],[143,-298],[82,-281]],[[85934,53726],[-56,-20],[-56,-17],[-108,-38],[-51,-31],[-37,-23],[-101,-31],[-15,-11],[9,-39],[4,-38],[53,-6],[32,-23],[45,-22],[34,-21],[49,-107],[68,-37],[11,-27],[18,-20],[48,-24],[31,-12],[68,-30],[33,-19],[-2,-20],[26,-27],[13,-30],[49,-44],[9,-29],[26,-46],[71,-42],[45,-20],[35,-34],[50,-25],[8,-34],[79,-40],[-3,-27],[35,-41],[22,-42],[40,-32],[-212,-588],[-132,-372],[-145,-408],[-25,-86],[-6,-58],[-29,-47],[-14,-47],[-17,-44],[-24,-46],[-54,-101],[-8,-32],[-33,-77],[-27,-27],[-41,-94],[-14,-61],[-26,-139],[23,-111],[0,-79],[-12,-97],[-50,-121],[-16,-17],[-64,-108],[-52,-109],[-37,-67],[-31,-85],[-8,-49],[-35,-57],[-50,-49],[-70,-60],[-20,-56],[-48,-31],[-42,-44],[-39,-41],[-64,-61],[-18,-33],[-41,-41],[-31,-40],[-15,-48],[-10,-94],[2,-80],[37,-128],[155,-1016],[15,-57],[108,-267],[845,-2000],[-89,-132],[-228,-368],[-399,-628],[-262,-415],[-521,-819],[-73,-137],[-424,-662],[-125,8]],[[85934,53726],[94,-10],[99,20],[37,26],[160,59],[67,51],[46,44],[51,47],[43,65],[7,35],[68,37],[65,37],[141,31],[82,33],[94,43],[86,29],[76,30],[85,35],[63,47],[105,62],[100,57],[95,54],[84,39],[45,16],[122,43],[77,19],[111,52],[67,28],[77,18],[21,5]],[[59572,61626],[-17,29],[-60,468],[-115,836],[-116,788],[718,303],[578,236],[-74,404],[-155,462]],[[71724,55715],[-608,-96],[-1106,457],[-781,-450],[-655,50],[-867,283]],[[67707,55959],[-445,208],[-545,498],[-211,596],[-141,400],[-576,666],[-588,315],[14,576],[-25,620],[-182,580],[-41,553],[31,465],[-64,2],[-55,-3],[-32,1],[-24,-2],[-22,-5],[-29,-7],[-31,-18],[-43,-15],[-53,13],[-41,12],[-52,49],[-8,22],[4,16],[16,9],[15,10],[20,14],[35,45],[72,100],[26,53],[6,55],[8,56],[-3,27],[-53,27],[-67,26],[-68,11],[-55,7],[-55,-8],[-155,-33],[-160,-41],[-43,-29],[-3,-20],[14,-28],[26,-34],[-17,-23],[-14,-16],[-22,-20],[-22,-3],[-24,14],[-6,43],[-33,61],[-51,44],[-60,32],[-12,37],[20,46],[17,41],[3,18],[6,12],[-22,21],[-41,11],[-31,2],[-52,-49],[-37,-23],[-69,-27],[-79,-25],[-58,-24],[-81,-26],[-42,-49],[-23,-58],[-7,-85],[1,-42],[-27,-60],[-43,-16],[-65,14],[-20,33],[10,33],[27,37],[-32,69],[-66,94],[-25,35],[-13,46],[8,31],[36,3],[76,0],[38,15],[49,31],[29,39],[6,41],[-14,30],[-32,46],[-65,41],[-39,17],[-40,7],[-42,-4],[-24,-1],[-50,-14],[-48,-27],[-53,-29],[-50,-25],[-77,-6],[-62,8],[-41,10],[-41,-17],[-26,-59],[2,-20],[29,-78],[78,-89],[55,-38],[36,-54],[25,-87],[29,-87],[42,-83],[60,-81],[32,-42],[9,-57],[-24,-33],[-39,-10],[-50,13],[-28,23],[-44,-1],[-52,-4],[-45,-16],[-42,-9],[-35,18],[-16,35],[-10,32],[-3,38],[10,45],[-19,35],[-80,43],[-53,13],[-29,15],[-55,45],[-61,35],[-37,20],[-35,11],[-36,-7],[-23,-13],[-30,-17],[-19,-27],[-63,-123],[-30,-28],[-64,5],[-31,6],[-41,19],[-30,13],[22,40],[34,13],[48,24],[21,48],[20,35],[27,33],[37,27],[44,20],[43,60],[5,64],[-16,40],[-10,61],[-37,22],[-55,15],[-116,-4],[-113,-15],[-104,-53],[-61,-64],[-65,-31],[-45,-12],[-48,7],[-82,22],[-88,19],[-115,12],[-24,-3],[-5,-4],[-216,-81],[-52,-18],[-33,-18],[-16,-12],[-30,-51],[-10,-25],[-7,-60],[-4,-84],[-3,-37],[-13,-38],[-11,-21],[-18,-20],[-31,-27],[-31,-20],[-41,-12],[-53,-3],[-57,2],[-70,9],[-44,13],[-49,20],[-40,27],[-48,45],[-33,16],[-32,6],[-45,1],[-83,-14],[-37,-14],[-56,-36],[-97,-50],[-36,-10],[-38,-3],[-26,6],[-13,11],[-2,15],[0,61],[3,87],[0,58],[-23,41],[-31,25],[-43,18],[-48,9],[-30,-2],[-45,-18],[-41,-33],[-32,-37],[-15,-18]],[[68080,61185],[-85,111],[-186,56],[-175,8],[-220,-3],[-259,-93],[-99,-52],[-131,-116],[-68,-122],[-89,-143],[-36,-168],[-92,-46],[-84,-162],[-107,-136],[0,-71],[129,-154],[153,27],[170,41],[175,-4],[88,-11],[128,52],[132,-7],[141,52],[148,80],[236,153],[164,67],[108,91],[20,125],[-17,169],[-45,68],[-46,70],[-53,118]],[[63809,49245],[496,251],[1964,-45]],[[66269,49451],[144,-292],[97,-163]],[[67707,55959],[-268,-125],[-164,-76],[-47,-21],[-219,-77],[-424,-146],[-438,-81],[-163,5],[-728,22],[-743,-27],[-640,-238],[-1261,-497],[-81,9],[-3,0],[-3,0],[-414,44],[-643,-20],[-793,-176],[-347,-216],[-11,-7],[-162,-101],[-150,-275],[-213,-387],[-140,-418],[-157,-156],[-170,-30]],[[59572,61626],[-44,-39],[-107,-238],[91,-196],[148,-212],[95,-226],[4,-108],[-305,115],[-128,64],[-37,-196],[-62,-404],[-103,-250],[-314,-37],[-301,-192],[-248,-88],[-115,-320],[-5,-391],[1,-172],[-529,-169],[-396,-131],[-202,-368],[-462,-540],[-446,-435],[-668,-668],[-401,-186],[-363,-155]],[[54675,56084],[202,-152],[182,-138],[37,-240],[107,-165],[58,-162],[70,-175],[99,-145],[33,-71],[190,-85]],[[61133,57572],[143,-36],[158,15],[159,38],[84,6],[82,-6],[78,-17],[136,-88],[78,-107],[150,-3],[106,54],[151,-22],[206,-33],[168,17],[92,-63],[-102,-61],[-59,-38],[-40,-111],[-72,-121],[70,-179],[89,-165],[33,-139],[-64,-120],[-153,-10],[-62,154],[-22,163],[8,139],[-8,148],[-106,10],[-88,-128],[-229,-121],[-295,-34],[-157,-41],[-182,185],[-181,99],[-112,158],[-299,-77],[-47,91],[-31,140],[-40,133],[66,81],[116,-12],[113,-104],[94,26],[-107,152],[76,27]],[[49726,59715],[1692,-24],[684,-2106],[-1022,65]],[[51080,57650],[-1341,176],[-166,310],[153,1579]],[[48115,61843],[206,-228],[421,-573],[160,-270],[277,-418],[240,-407],[307,-232]],[[51080,57650],[-57,-335],[372,159],[297,44],[289,-175],[392,-179],[487,-186],[503,-212],[532,-223],[442,-169],[338,-290]],[[67443,38869],[-867,46],[-324,632],[-383,747],[-366,696],[-1273,-171],[-295,504],[-22,246],[72,139],[99,96],[64,31],[60,25],[55,48],[23,49],[35,47],[-4,68],[-56,37],[-137,104],[-65,31],[-62,34],[-37,68],[-91,52],[-55,14],[-38,22],[-22,32],[-13,48],[-51,18],[-68,29],[-31,13],[-17,31],[-16,61],[-31,21],[-59,11],[-20,-5],[-42,-42],[-44,-18],[-40,-22],[-30,-5],[-43,-3],[-11,39],[-33,24],[-4,30],[-2,39],[-24,34],[-1,15],[-23,26],[-4,30],[4,41],[-23,32],[5,23],[-23,68],[-20,57],[-52,43],[-10,43],[-27,33],[-42,18],[-30,27],[-22,19],[-24,-2]],[[62883,43242],[-8,11],[-32,18],[-34,3],[-24,11],[-47,2],[-33,18],[-33,-8],[-29,10],[-31,43],[-32,23],[-25,41],[-28,15],[9,25],[-21,28],[-33,93],[-40,38],[0,38],[52,12],[48,50],[50,-27],[42,0],[111,36],[53,31],[51,62],[63,19],[83,35],[71,-17],[77,15],[106,22],[62,-17],[91,2],[52,-17],[102,12],[36,12],[84,-2],[67,7],[85,19],[50,0],[59,6],[87,22],[62,11],[87,0],[41,10],[109,7],[345,38],[62,16],[26,42],[21,93],[19,25],[25,51],[28,97],[91,152],[-16,68],[-58,98],[-94,82],[-34,66],[-55,44],[-23,45],[-5,148],[-26,105],[-50,100],[-80,198],[-23,93],[-43,56],[-7,27],[38,86],[-7,63],[-27,122],[81,79],[8,79],[-13,16],[-111,-78],[-88,-22],[-66,32],[-48,-2],[-138,-32],[-37,-10],[-37,5],[-225,15],[-46,14],[-8,20],[-47,24],[8,32],[37,36],[8,88],[27,108],[-12,20],[-39,39],[-3,45],[-7,64],[10,64],[11,66],[-6,66],[-20,52],[-25,79],[-10,160],[-88,162],[-28,29],[-48,22],[-11,45],[-48,73],[-122,223],[74,63],[86,45],[92,38],[56,4],[60,19],[103,44],[108,59],[121,47],[61,27],[75,62],[56,19],[86,68],[104,58],[93,-5],[115,-7],[66,8],[39,21],[56,48],[110,96],[28,43],[14,117],[9,88],[70,67],[52,36],[74,69],[78,22],[145,76],[113,56],[72,15],[89,31],[83,33],[134,-6],[45,10],[87,34],[37,52],[-4,39],[-17,42],[2,25],[108,0],[-2,27],[-53,75],[-16,94],[-27,87],[114,22],[58,20],[83,25],[43,49]],[[62883,43242],[-160,-77],[-534,-1136],[-247,17],[-272,18],[-863,101],[-53,7],[-376,54],[-168,-50],[-129,-38],[-392,133],[-82,127],[-87,134],[39,65],[122,203],[-79,183],[71,108],[-75,172],[-29,65],[58,213],[224,240],[309,329],[614,599],[-53,115],[-1,3],[-1,3],[-275,596],[-177,-7],[-76,29],[-25,9],[-143,54],[-239,135],[-153,213],[-16,111],[-6,35],[-8,54],[-5,32],[-5,35],[-1,7],[13,132],[1,18],[11,113],[1,16],[7,69],[-19,264],[-1,18],[-3,34],[-6,83],[41,183],[81,134]],[[67534,38333],[-118,-57],[-237,-297],[-156,-45],[-73,-111],[-1409,122],[-489,-50],[-1102,-112],[-952,-244],[-1151,-259],[-957,-377],[-702,-712],[-557,-419]],[[59631,35772],[-618,712],[-421,244],[-90,21],[-320,75],[-200,47],[-36,4],[-682,77],[-119,19],[-773,123],[-143,86],[-254,151],[-114,68],[-93,34],[-186,66],[-580,205],[-809,197],[-182,121],[-61,40],[-318,212],[-102,126],[-20,24],[-5,7],[-3,4],[-423,523],[-256,617],[-107,58]],[[52716,39633],[-231,125],[-109,146],[-540,720],[-597,963],[-798,865],[-506,401],[-435,405],[-251,489]],[[52716,39633],[-479,-11],[-426,-42],[-66,-6],[-388,-319],[-231,-671],[-3,-1],[-4,-3],[-6,-3],[-408,-223],[-85,-379]],[[50620,37975],[-773,477],[-619,617],[-667,593],[-27,24],[-45,40],[-128,640],[-132,607],[-416,823],[-647,607],[-608,246],[-876,222]],[[50620,37975],[-23,-130],[-52,-300],[-226,-220],[-632,-258],[-133,36],[-254,69],[-270,74],[-305,-250],[-47,-236]],[[48678,36760],[-590,14],[-631,-241],[-888,-183],[-832,-267]],[[45737,36083],[-190,261],[-285,305],[-614,275],[-339,173],[-132,152],[-315,294],[-28,221],[-133,305],[-37,430],[50,451],[-33,185],[-91,350],[-45,232]],[[42530,33399],[-1284,17],[-726,126],[-982,-407],[-1156,68],[-652,-75],[-610,-186]],[[37120,32942],[-388,489],[-272,576],[-396,821],[115,240],[314,187],[197,268],[137,570]],[[36827,36093],[258,-48],[282,5],[540,156],[597,-179],[601,-151],[511,-85],[449,-31],[22,285],[28,573],[10,605],[51,26],[656,333],[908,617]],[[41740,38199],[604,530],[520,407],[445,421]],[[45737,36083],[-1173,-492],[-1230,-560],[-516,-393],[-255,-435],[189,-264],[194,-255],[-346,-132],[-70,-153]],[[41740,38199],[-585,727]],[[41155,38926],[-626,1102],[-463,405],[149,296],[-1371,-682],[-259,177],[331,362],[-93,425]],[[41155,38926],[-534,-238],[-728,-331],[-471,149],[-421,115],[-404,-41],[-314,-264],[-462,-149],[-272,27],[-454,88],[-372,203],[-396,305],[-157,97],[-128,196]],[[36042,39083],[91,33],[42,101],[-112,92],[252,349],[277,312],[-202,48],[140,74],[149,380],[-293,64],[-33,267],[-37,156],[-100,154]],[[34103,38798],[8,-486],[-74,-310],[79,-251],[603,40],[387,-777],[405,-694],[326,-351],[990,124]],[[36042,39083],[-899,-101],[-1040,-184]],[[34103,38798],[-776,-292],[-474,-258],[-288,-29],[-640,64],[-933,36],[-364,48],[-610,-298]],[[30018,38069],[-648,-183],[-174,98],[-111,203],[-29,231],[-54,233],[-416,112],[-223,27],[-380,-20],[-474,-14]],[[27509,38756],[-47,202],[-192,179],[-295,186],[-470,222],[-162,384]],[[29891,32384],[118,-143],[449,-432],[650,-501],[219,-187]],[[31327,31121],[582,297],[182,-185],[507,-690]],[[32598,30543],[949,499],[998,665],[734,511],[677,480],[595,190],[569,54]],[[30018,38069],[437,-238],[51,-395],[-223,-336],[338,-244],[297,-197],[405,-203],[313,-190],[244,-78],[20,-125],[-276,-272],[-516,-298],[-994,-122],[198,-214],[371,-291],[260,-183],[384,-119],[172,-1144],[-742,35],[-33,-245],[-297,-152],[-272,-282],[-264,-392]],[[74287,36875],[-47,-39],[-70,-58],[-364,-264],[-153,-53],[-169,-122],[-72,-29],[-169,-79],[-2615,348],[-281,-249],[-298,-480],[-198,-449],[75,-534],[-413,-1108],[-330,-1574],[-289,-2130]],[[68894,30055],[-536,393],[-20,215],[-183,97],[-242,168],[-199,90],[-208,-1],[-150,-58],[-246,102],[-236,77],[-59,110],[-131,1],[-227,-264],[-178,12],[-142,-124],[-259,-125]],[[65878,30748],[-304,53],[-307,264],[-69,299],[-967,445],[-95,72],[-62,60],[-240,110],[-309,101],[-191,132],[-581,337],[-378,519],[-116,194],[-41,185],[-817,-121],[-44,57],[-231,302],[-180,241],[-488,662],[-465,625],[-44,60],[-318,427]],[[65878,30748],[-116,-199],[-828,-573],[-193,-173],[-14,-17],[-429,-394],[-982,-435],[-1774,61],[-1003,132],[-491,65],[-149,-129],[-355,-272],[-308,-101],[-602,-169],[-666,46],[-751,95],[-671,219],[-776,-265],[-270,-15],[-734,-645],[-1354,-788],[-859,-745],[-1048,-79],[-1270,-144]],[[50235,26223],[-253,692],[-36,401],[-195,475],[-144,764],[-181,545],[-99,336],[-71,175],[-128,323],[87,632],[-10,22],[-6,15],[-22,54],[-5,11],[-28,69],[-12,29],[-10,28],[-28,77],[-1,4],[-48,132],[-30,127],[-89,375],[-64,264],[-45,182],[-3,12],[-12,23],[-243,456],[-263,305],[-97,112],[-93,209],[-113,249],[-8,190],[293,241],[565,156],[925,285],[371,289],[326,349]],[[50465,34831],[832,202],[85,44],[799,407],[76,39],[63,32],[1320,882],[1065,-733],[353,-262],[679,-504],[842,-441],[910,426],[438,407],[830,184],[688,176],[186,82]],[[48678,36760],[-183,-288],[-27,-44],[437,-387],[565,-296],[20,-10],[100,-53],[91,-95],[-34,-127],[-32,-120],[-20,-93],[-9,-43],[155,-97],[78,-50],[31,-19],[54,-18],[561,-189]],[[42530,33399],[350,38],[251,-159],[881,-560],[337,105],[145,-486],[10,-78],[48,-349],[16,-255],[128,-254],[252,-452],[532,-224],[112,-305],[66,-22],[298,-100],[494,115],[623,-167],[116,-206],[21,-254],[173,-265],[288,-212],[220,-162],[139,-354],[-3,-172],[-8,-375]],[[48019,28246],[-42,-371],[-3,-32],[-66,-656],[4,-425],[70,-336],[77,-266],[788,-306],[734,-209],[100,-29]],[[49681,25616],[554,607]],[[68894,30055],[2996,-918],[1115,-1159],[197,-506],[-906,-1253],[-314,-347],[-26,-494],[271,568],[76,-1761],[-1833,-851],[-1873,-337],[-1262,-512],[-193,-181],[-329,-528],[-601,-908],[-361,-742],[-706,-906],[-668,-519],[-1072,-458],[-738,-464],[-633,-183],[-1414,-493],[-2779,-627],[-217,-49],[-748,-294]],[[56876,16133],[-22,403],[-381,663],[-378,583],[-974,852],[-33,258],[90,497],[-676,708],[-1032,-429],[-1197,-1007],[-1312,-327],[-1008,-440],[-692,59],[-339,408],[-231,248],[99,1250],[8,248],[-408,303]],[[48390,20410],[-536,596],[-479,711],[-222,749],[193,768],[-157,687],[116,387],[624,267],[306,-25],[362,-30],[507,474],[577,622]],[[14777,38410],[52,-442],[747,705],[870,-854],[353,-256],[-472,-283],[107,-346],[120,-325],[-479,-380],[120,-339],[272,-587],[140,-281],[481,26],[114,-152],[37,-196],[-39,-276],[233,-203],[134,-28],[16,-199]],[[17583,33994],[1220,-14],[220,177],[357,105],[262,25],[295,-39],[238,50],[167,111],[258,214],[185,156],[267,49],[239,194]],[[21291,35022],[549,342],[615,448],[268,203],[107,204],[103,390],[116,244],[148,88],[310,91],[759,214],[392,298],[449,369],[92,54]],[[25199,37967],[25,15],[342,203],[330,-316],[268,-149],[256,156],[396,-74],[273,176],[210,166],[206,175],[41,102],[-37,180],[0,155]],[[26032,32766],[106,231],[317,405],[388,502],[320,609],[354,428],[-216,204],[161,626],[50,175],[21,335],[-305,261],[-486,319],[-140,124],[-244,163],[-247,181],[-271,180],[-316,105],[-184,177],[-141,176]],[[29891,32384],[-211,-22],[-197,19],[-87,-63],[-91,-166],[-441,52],[-469,-91],[-204,-126],[-287,-66],[-86,-48],[-111,-51],[-109,-25]],[[27598,31797],[-249,218],[-438,208],[-380,77],[-239,150],[-260,316]],[[21291,35022],[375,-95],[425,-143],[133,-241],[239,-301],[379,-214],[463,-61],[280,-180],[326,-241],[219,-58],[169,112],[-58,-162],[-4,-168]],[[24237,33270],[359,5],[37,-136],[99,-129],[393,-61],[408,-142],[499,-41]],[[13908,31526],[283,-159],[229,-284],[281,-258],[388,-231],[445,-184],[525,-166],[379,-88],[346,-39],[709,82],[414,-47],[413,-81],[218,-184],[647,-13],[352,61],[301,63]],[[19838,29998],[533,197],[307,147],[159,160],[99,49],[-17,105],[393,26],[147,211],[0,335],[-314,173],[75,495],[718,62],[1032,119],[265,438],[792,281],[111,184],[95,210],[4,80]],[[17583,33994],[-253,-92],[-879,-471],[-547,-398],[-613,-539],[-309,126],[-438,-204],[-541,-290],[-54,-310],[-41,-290]],[[13908,31526],[-319,-132],[49,-173],[12,-154],[-123,-137],[-171,-116],[-380,-44],[-396,58],[-942,235],[-438,37]],[[11200,31100],[-407,240],[-652,436],[-293,1011],[-54,184],[41,854],[-75,998],[-453,744],[29,527],[-146,373],[-43,359],[-3,24],[250,657],[148,476],[-74,397],[256,591],[219,293],[185,473]],[[18679,27910],[-520,-393],[-594,27],[-335,7],[-276,-109],[-256,-85],[-326,-7],[-740,159],[-399,-210],[-302,-141],[-200,-32],[-322,-1],[-290,72],[8,354],[-363,103],[-437,110],[-343,-81],[-322,-201],[-377,-238]],[[12285,27244],[33,211],[94,620],[-184,676],[-109,464],[773,332],[-219,468],[-1161,663],[-312,422]],[[19838,29998],[-211,-159],[-351,-234],[-225,-202],[-253,-198],[-142,-318],[-120,-176],[-76,-207],[63,-212],[70,-273],[86,-109]],[[18679,27910],[454,273],[293,214],[322,207],[338,475],[219,207],[276,-27],[483,-458],[553,-377],[615,153],[544,248],[607,271],[198,0],[334,143],[706,251]],[[24621,29490],[124,296],[379,485],[331,340],[491,492],[355,278],[522,246],[775,170]],[[24621,29490],[-16,-394],[16,-397],[392,-84],[310,-178],[144,-173],[99,-176],[103,-226],[-115,-182],[-17,-238],[-12,-272],[0,-261],[29,-260],[227,-485]],[[25781,26164],[-760,-333],[-553,184],[-1923,-123],[-3284,-523]],[[19261,25369],[66,495],[-388,-109],[-330,-338],[-182,-772],[211,-134],[45,-123],[-132,-238],[-128,-222],[-293,-235],[-219,-136],[-363,190],[-479,361],[-672,751],[-442,-58],[-153,-343],[-482,-68],[-351,-164],[-185,38],[-331,67]],[[14453,24331],[-985,531],[-250,438],[-271,423],[-170,137],[181,503],[-784,152],[111,729]],[[14453,24331],[-154,-677],[526,27],[101,-536],[129,-312],[285,-339]],[[15340,22494],[380,-248],[640,-218],[511,-211],[607,-201],[276,-228],[25,-200],[-62,-484],[-223,-364],[128,-391],[306,-441],[309,-349],[30,-179]],[[18267,18980],[131,-5]],[[18398,18975],[181,231],[347,98],[817,106],[662,-22],[435,-160],[377,-222],[329,-202],[324,-105],[317,-85],[374,-11],[370,-76],[349,-15],[263,-26],[203,12]],[[23746,18498],[628,134],[-116,567],[-46,282],[66,348],[14,295],[7,164],[-27,321],[-22,268],[24,320],[-37,251],[-185,140],[-331,44],[-317,-82],[-557,-297],[-347,-148],[-640,139],[-272,388],[-475,850],[-322,320],[-511,316],[-343,361],[-95,296],[-37,377],[13,238],[0,187],[-124,143],[-107,119],[-170,143],[-82,156],[-74,231]],[[15636,17642],[-126,-330],[-879,-440],[-392,-225],[-403,237],[-311,189],[-206,24]],[[13319,17097],[-116,154],[-165,186],[-141,169],[-111,149],[-29,217],[-12,168],[-450,-243],[-276,-65],[-236,77],[-208,229]],[[11575,18138],[-48,138],[23,97],[54,137],[12,115],[17,153],[57,126],[27,138],[-18,99],[-130,86],[-93,130],[21,117],[-9,189]],[[11488,19663],[685,11],[916,-5],[1182,636],[-913,615],[301,1264],[169,309],[-117,213],[55,82],[290,-197],[496,-150],[413,-29],[375,82]],[[18267,18980],[-463,-33],[-359,-99],[-310,-102],[-334,-167],[-255,-211],[-265,-156],[-78,-68],[-110,-120],[-14,-138],[-248,-260],[-164,54]],[[15667,17680],[57,74],[128,119],[91,202],[-55,111],[-152,-8],[-63,5],[-15,61],[-18,94],[37,119],[-31,73],[-167,37],[-149,16],[-74,34],[-138,138],[-184,-72],[-151,-37],[-144,-14],[-161,-12],[-33,65],[-138,25],[-167,26],[-102,-17],[-94,-10],[-62,-101],[-143,43],[-140,10],[-33,-82],[23,-117],[39,-65],[128,-25],[210,-41],[-4,-128],[-16,-128],[24,-216],[374,-39],[-2,-225],[380,-3],[299,12],[181,-14],[229,14],[205,38]],[[15636,17642],[31,38]],[[7975,14421],[277,271],[219,210],[252,223],[120,106],[-153,293],[2,412],[224,363],[127,293],[-198,321],[-83,244],[110,135],[6,114],[79,67],[245,5],[328,-21],[374,101],[772,270],[614,181],[285,129]],[[11488,19663],[-757,-13],[-254,-22],[-1424,-310],[-1032,-289],[-365,-89],[-346,-68],[-231,130],[-298,81],[-206,130],[-140,211],[-322,27],[-198,102],[8,184],[-261,34],[-678,-52],[-570,524],[-6,-521],[-592,88]],[[3816,19810],[375,-1188],[264,-388],[577,-291],[211,-235],[11,-285],[-213,-576],[-80,-536],[38,-234],[322,-230],[5,-230],[-38,-342],[421,-460],[831,-193],[490,-121],[378,0],[567,-80]],[[5139,11620],[-380,948],[-1999,606],[-199,524],[229,1388],[-319,507],[-412,-37],[-474,-68],[-644,-13],[-565,-34],[-161,10],[-13,296],[-37,218],[-37,75],[-33,177],[-37,164],[-58,150],[194,75],[161,34],[536,-24],[-214,415],[-359,245],[-194,167],[462,273],[516,279],[631,414],[147,638],[396,14],[81,-379],[324,-12],[91,532],[-102,502],[367,97],[476,-145],[303,154]],[[7975,14421],[-219,-317],[-33,-320],[115,-437],[413,-518],[41,-238],[-16,-253],[-107,-102],[-479,-293],[-545,-68],[-701,-62],[-529,75],[-231,-13],[-545,-255]],[[13319,17097],[-265,-213],[-231,-242],[-186,-269],[-111,-385],[285,-390],[309,-43],[294,-186],[288,-81],[128,-150],[-95,-148],[-210,-256],[276,-101],[144,-209],[-202,-239],[17,-296]],[[13760,13889],[-417,-112],[-627,-300],[-1164,-682],[-474,-474],[-595,-634],[-534,-1137],[-446,-750],[-186,-218],[-164,-358]],[[9153,9224],[-163,977],[-2853,85],[-742,831],[-256,503]],[[15636,481],[654,880],[12,761],[-198,755],[66,687],[4,570],[-79,509],[-57,441],[-149,655],[-61,463],[49,256],[149,304],[284,384],[318,399],[437,635],[-272,420],[231,723],[-157,360]],[[16867,9683],[-416,-140],[-777,-230],[-730,-75],[-99,250],[-156,379],[-87,234],[0,167],[82,259],[45,277],[87,374],[-123,566],[-145,630],[12,459],[-157,579],[-49,280],[-136,335],[-458,-138]],[[9153,9224],[-427,-356],[-33,-194],[-123,-714],[-273,-1266],[-410,-700],[-643,-31],[-151,-609],[-411,-552],[-114,-606],[305,-368],[214,-195],[460,216],[237,260],[172,56],[241,-544],[155,-375],[205,-551],[214,-748],[570,-665],[223,82],[321,2],[627,-157],[941,89],[1065,164],[396,294],[355,458],[289,178],[231,-144],[404,-813],[814,-1435],[629,481]],[[16867,9683],[718,449],[871,419],[747,341],[903,120],[1160,296],[689,300],[805,447],[75,868],[4,373]],[[22839,13296],[910,-155],[489,-96],[1473,-88],[941,81]],[[26652,13038],[-207,-322],[-281,-40],[-12,-522],[-62,-549],[-62,-796],[-20,-565],[45,-619],[382,-513],[289,-502],[427,-611],[-223,-362],[74,-457],[363,-485],[405,-307],[899,-95],[603,-123],[543,-84]],[[29815,6086],[-113,-2385],[-276,-1038],[-186,-950],[-278,-839],[-687,-416],[-520,6],[-732,-148],[-1294,-37],[-1116,-76],[-5507,78],[-2348,288],[-267,-21],[-855,-67]],[[22839,13296],[206,637],[-831,224],[-330,-721],[-751,-142],[462,1088],[649,346],[-164,249],[-183,122],[-360,-110],[-615,-324],[-299,253],[-242,267],[-135,102],[-500,429],[-123,223],[94,162],[87,272],[-49,200],[-75,185],[-210,150],[-273,-10],[-165,70],[-171,64],[-124,112],[-268,491],[-328,585],[257,755]],[[56876,16133],[-1257,-494],[-2240,-804],[-2426,-973],[-2524,-756],[-2028,-790],[-1944,-556],[-1298,-576],[-235,-211],[-46,-41],[-88,-80],[-39,-34],[-69,-62],[-369,-443],[-66,-92],[-227,-318],[-124,-173],[-320,-72],[-902,131],[-271,310]],[[40403,10099],[-34,77],[-17,65],[-405,1303],[-232,1126],[-79,335],[-88,391],[-69,300],[253,1490]],[[39732,15186],[328,104],[-51,984],[-66,715],[-417,361],[-276,344],[-457,805],[-187,775]],[[38606,19274],[244,183],[561,-187],[1,-2],[280,-371],[1093,-11],[1366,180],[326,745],[1334,355],[878,95],[1697,-54],[1089,61],[372,-129],[382,81],[161,190]],[[48019,28246],[-1036,796],[-899,58],[-636,125],[-455,-174],[-139,-53],[-810,-480],[-1897,-865],[-892,-350],[-697,200],[-924,-1067],[-475,-190]],[[39159,26246],[-619,-182],[-788,-226],[-908,-285],[-400,-412],[-248,-238],[-499,157],[-710,71],[-437,-53],[-239,-156],[-356,-73],[-322,187],[-536,347],[-334,102],[-557,-148],[-458,-119],[-631,-89],[-393,-188],[-240,-112]],[[30484,24829],[-214,-99],[-256,-177],[-614,-262],[-586,-334],[-264,-148],[-194,-283],[-145,-273]],[[28211,23253],[-165,-262],[-144,-281]],[[27902,22710],[479,-241],[421,38],[1119,150],[733,148],[29,-119],[351,-381],[566,56],[79,153],[143,47],[-90,-306],[412,-157],[575,-200],[329,183],[243,-140],[351,-438],[525,-493],[379,-467],[81,-678],[1,-13],[87,-667],[243,-177],[1086,24],[1287,146],[1275,96]],[[27902,22710],[-99,-251],[83,-349],[152,-228],[215,-299],[252,-351],[189,-382],[111,-184],[260,-225],[-33,-330],[232,-652],[301,-582],[239,-100],[569,-303],[558,-480],[515,-460],[347,-424],[310,-376],[136,-130]],[[32239,16604],[235,-265],[309,-263],[595,-269],[243,-119],[62,-167],[-28,-206],[-92,-209],[-189,-200],[-318,-133]],[[33056,14773],[850,-46],[752,-125],[545,0],[308,98],[986,269],[1070,280],[801,109],[432,23],[132,-51],[355,-49],[445,-95]],[[33056,14773],[-1213,-3],[-632,-19],[-61,-210],[-141,-284],[-277,-218],[-420,-26],[-421,273],[-25,148],[-260,191],[-235,49],[-322,4],[-372,-159],[-466,-345],[-512,-472]],[[27699,13702],[-177,-150],[-870,-514]],[[29815,6086],[1868,-365],[1405,-8],[3346,2162],[420,201],[1106,530],[1062,409],[691,165],[541,354],[149,565]],[[32239,16604],[-595,-102],[-589,15],[-413,123],[-359,266],[-293,247],[-366,-75],[-429,-101],[-373,-37],[-299,8],[-256,85],[-161,104],[-264,159],[-208,1],[-308,-10],[-287,4],[-63,103],[-69,76],[-173,89],[-159,136],[-43,85],[-202,85],[-52,-33],[-31,-40],[8,-58],[4,-59],[0,-98],[-165,-227]],[[26094,17350],[83,-3],[115,-52],[182,-73],[54,-130],[57,-121],[-25,-129],[-12,-82],[16,-92],[-24,-118],[41,-161],[49,-188],[63,-249],[36,-253],[79,-437],[124,-388],[91,-327],[132,-382],[544,-463]],[[26094,17350],[-825,327],[-277,7],[-140,87],[-103,107],[-120,211],[-557,290],[-326,119]],[[28211,23253],[-375,1129],[-520,1448],[-240,171],[-684,345],[-611,-182]],[[31327,31121],[-788,-293],[-1108,-484],[-574,-166],[-332,-282],[-23,-279],[99,-339],[167,-477],[196,-549],[297,-689],[85,-692],[6,-362],[460,-127],[215,-581],[457,-972]],[[35288,29337],[-190,-268],[-210,-408],[-74,-186],[-190,-211],[144,-299],[269,-95],[239,41],[256,107],[244,64],[140,143],[239,75],[169,46]],[[36324,28346],[186,161],[107,209],[87,401],[-16,259],[42,301],[-365,225],[-388,-99],[-181,-75],[-173,-72],[-153,-139],[-182,-180]],[[32598,30543],[-468,-403],[-632,-533],[0,-74],[318,-330],[223,133],[156,98],[673,44],[553,44],[390,43],[611,-60],[485,-98],[381,-70]],[[36324,28346],[12,-238],[355,-265],[376,-34],[363,47],[182,14],[140,-51],[227,-51],[157,48],[198,115],[190,44],[321,-34],[137,-120],[-29,-221],[-211,-345],[170,-151],[41,-449],[206,-409]]],"bbox":[-7.3211361,31.338992,-5.2412251,33.4831479],"transform":{"scale":[0.00002079931799317993,0.000021441773417734154],"translate":[-7.3211361,31.338992]}}
