{"type":"Topology","objects":{"communes":{"type":"GeometryCollection","geometries":[{"type":"Polygon","arcs":[[0,1,2]],"properties":{"code":"083630707","name":"Ait Ben Yacoub"}},{"type":"Polygon","arcs":[[3,4,2,5,6,7,8,9]],"properties":{"code":"083630729","name":"Zaida"}},{"type":"Polygon","arcs":[[10,-1,5,11]],"properties":{"code":"083630717","name":"Itzer"}},{"type":"Polygon","arcs":[[12,-7,11,13,14]],"properties":{"code":"083630523","name":"Tanourdi"}},{"type":"Polygon","arcs":[[15,-15,16,17]],"properties":{"code":"083630525","name":"Tizi N'ghachou"}},{"type":"Polygon","arcs":[[18,19,-18,20]],"properties":{"code":"083630501","name":"Aghbalou"}},{"type":"Polygon","arcs":[[21,22,19,15,12,7]],"properties":{"code":"083630115","name":"Boumia"}},{"type":"Polygon","arcs":[[21,23,24,-9]],"properties":{"code":"083630705","name":"Ait Ayach"}},{"type":"Polygon","arcs":[[25,26,27,28,29,30]],"properties":{"code":"083631703","name":"Agoudim"}},{"type":"Polygon","arcs":[[31,25,32,33,-24,22,-19,34]],"properties":{"code":"083631727","name":"Tounfite"}},{"type":"Polygon","arcs":[[35,36,37,29,38]],"properties":{"code":"083631713","name":"Anemzi"}},{"type":"Polygon","arcs":[[31,-31,38,39]],"properties":{"code":"083630521","name":"Sidi Yahia Ou Youssef"}},{"type":"Polygon","arcs":[[40,41,42,43,44]],"properties":{"code":"083630711","name":"Amersid"}},{"type":"Polygon","arcs":[[44,45,-4,46,47]],"properties":{"code":"083630719","name":"Mibladen"}},{"type":"Polygon","arcs":[[-25,-34,48,49,42,50,-47,-10]],"properties":{"code":"083630709","name":"Ait Izdeg"}},{"type":"Polygon","arcs":[[-51,43,-48]],"properties":{"code":"083630103","name":"Midelt"}},{"type":"Polygon","arcs":[[51]],"properties":{"code":"082010103","name":"Boudnib"}},{"type":"Polygon","arcs":[[52,53,54,55,56,57],[51]],"properties":{"code":"082010709","name":"Oued Naam"}},{"type":"Polygon","arcs":[[58,-53,59,60,61]],"properties":{"code":"083630907","name":"Guir"}},{"type":"Polygon","arcs":[[61,62,63,64]],"properties":{"code":"083630903","name":"Gourrama"}},{"type":"Polygon","arcs":[[65,66,67,49,-42,68,63]],"properties":{"code":"083630901","name":"En-Nzala"}},{"type":"Polygon","arcs":[[69,70]],"properties":{"code":"083630107","name":"Er-Rich"}},{"type":"Polygon","arcs":[[71,72,73,69,74,66,75]],"properties":{"code":"083630911","name":"Sidi Aayad"}},{"type":"Polygon","arcs":[[-27,32,48,-68,75,76]],"properties":{"code":"083630913","name":"Zaouiat Sidi Hamza"}},{"type":"Polygon","arcs":[[64,-61,77,78,79,73,-71,74,-66]],"properties":{"code":"083630905","name":"Guers Tiaallaline"}},{"type":"Polygon","arcs":[[80,81,82,72,-80]],"properties":{"code":"083630909","name":"M'zizel"}},{"type":"Polygon","arcs":[[83,-28,-77,71,-83,84,85,86]],"properties":{"code":"083631503","name":"Amouguer"}},{"type":"Polygon","arcs":[[-82,87,88,89,-85]],"properties":{"code":"082011302","name":"Amellagou"}},{"type":"Polygon","arcs":[[90,91,92,-37,93]],"properties":{"code":"083631507","name":"Imilchil"}},{"type":"Polygon","arcs":[[-92,94,95,96,97]],"properties":{"code":"083631505","name":"Bou-Azmou"}},{"type":"Polygon","arcs":[[97,98,-87,99]],"properties":{"code":"083631509","name":"Outerbat"}},{"type":"Polygon","arcs":[[28,-38,-93,98,83]],"properties":{"code":"083631501","name":"Ait Yahya"}},{"type":"Polygon","arcs":[[100,101,89,85,99,-97]],"properties":{"code":"085770305","name":"Assoul"}},{"type":"Polygon","arcs":[[102,103,104,105,106,107,88,-102,108]],"properties":{"code":"082011501","name":"Aghbalou-N'kerdous"}},{"type":"Polygon","arcs":[[109,110,111,112,95,100,108,113]],"properties":{"code":"085770301","name":"Ait Hani"}},{"type":"Polygon","arcs":[[-88,-81,-79,114,115,107]],"properties":{"code":"082011313","name":"Tadighoust"}},{"type":"Polygon","arcs":[[116,117,57,59,77,114,118,119,120,121,122]],"properties":{"code":"082010707","name":"Lkheng"}},{"type":"Polygon","arcs":[[116,123]],"properties":{"code":"082010105","name":"Errachidia"}},{"type":"Polygon","arcs":[[122,-124,117,-57,124]],"properties":{"code":"082010703","name":"Chorfa M'daghra"}},{"type":"Polygon","arcs":[[-125,-56,125,126,127,121]],"properties":{"code":"082010701","name":"Aoufous"}},{"type":"Polygon","arcs":[[128,129,130,131,132,133]],"properties":{"code":"082011109","name":"Sidi Ali"}},{"type":"Polygon","arcs":[[-132,134,135]],"properties":{"code":"082011107","name":"Et-Taous"}},{"type":"Polygon","arcs":[[136,137,138]],"properties":{"code":"082011105","name":"Es-Sfalat"}},{"type":"Polygon","arcs":[[139,140,-138],[141]],"properties":{"code":"082011101","name":"Bni M'hamed-Sijelmassa"}},{"type":"Polygon","arcs":[[142,-139,-141,143,144]],"properties":{"code":"082010307","name":"Es-Sifa"}},{"type":"Polygon","arcs":[[145,146,-127]],"properties":{"code":"082010705","name":"Er-Rteb"}},{"type":"Polygon","arcs":[[147,148,-146,-126,-55,149,150,144],[151]],"properties":{"code":"082010303","name":"Aarab Sebbah Ziz"}},{"type":"Polygon","arcs":[[151]],"properties":{"code":"082010101","name":"Arfoud"}},{"type":"Polygon","arcs":[[147,152,153,154,155,156,-143]],"properties":{"code":"082010301","name":"Aarab Sebbah Gheris"}},{"type":"Polygon","arcs":[[157,153]],"properties":{"code":"082010111","name":"Jorf"}},{"type":"Polygon","arcs":[[-128,-147,-149,152,-158,154,158,159,120]],"properties":{"code":"082010309","name":"Fezna"}},{"type":"Polygon","arcs":[[159,-120,160,161,162,163]],"properties":{"code":"082011309","name":"Gheris Es-Soufli"}},{"type":"Polygon","arcs":[[-162,164]],"properties":{"code":"082010109","name":"Goulmima"}},{"type":"Polygon","arcs":[[165,106,-116,118,160,164,162]],"properties":{"code":"082011307","name":"Gheris El Ouloui"}},{"type":"Polygon","arcs":[[163,-159,155,166,167,168,169,170]],"properties":{"code":"082011511","name":"Melaab"}},{"type":"Polygon","arcs":[[171,172]],"properties":{"code":"082010115","name":"Tinejdad"}},{"type":"Polygon","arcs":[[-105,173,174,175,169,176,171,177]],"properties":{"code":"082011503","name":"Ferkla El Oulia"}},{"type":"Polygon","arcs":[[-106,-178,172,-177,170,165]],"properties":{"code":"082011505","name":"Ferkla Es-Soufla"}},{"type":"Polygon","arcs":[[178,179,180,181,175,-169,182]],"properties":{"code":"085770205","name":"Alnif"}},{"type":"Polygon","arcs":[[183,-129,184,185,186,-179]],"properties":{"code":"085770211","name":"H'ssyia"}},{"type":"Polygon","arcs":[[-183,-168,187,-130,-184]],"properties":{"code":"085770221","name":"M'ssici"}},{"type":"Polygon","arcs":[[188,-135,-131,-188,-167,156,136,139,143,-151]],"properties":{"code":"082011103","name":"Er-Rissani"}},{"type":"Polygon","arcs":[[189,186,179,190,191,192,193,194]],"properties":{"code":"085871141","name":"Tazarine"}},{"type":"Polygon","arcs":[[195,196,197,184,198]],"properties":{"code":"085871131","name":"Taghbalte"}},{"type":"Polygon","arcs":[[189,-186,198,199]],"properties":{"code":"085871105","name":"Ait Boudaoud"}},{"type":"Polygon","arcs":[[200,201,202,203,133,-198]],"properties":{"code":"085870919","name":"Ktaoua"}},{"type":"Polygon","arcs":[[202,204,205,206,207,208,209,210]],"properties":{"code":"085870933","name":"Tagounite"}},{"type":"Polygon","arcs":[[-206,211]],"properties":{"code":"085870923","name":"M'hamid El Ghizlane"}},{"type":"Polygon","arcs":[[212,213,207,214,215]],"properties":{"code":"085870709","name":"Bleida"}},{"type":"Polygon","arcs":[[216,212,217,218,219,220,221,222,223,224,225]],"properties":{"code":"085870339","name":"Tansifte"}},{"type":"Polygon","arcs":[[226,222,227]],"properties":{"code":"085870101","name":"Agdz"}},{"type":"Polygon","arcs":[[223,228,229,-228]],"properties":{"code":"085870321","name":"Mezguita"}},{"type":"Polygon","arcs":[[230,231,232,229,226,-222]],"properties":{"code":"085870301","name":"Afella N'dra"}},{"type":"Polygon","arcs":[[233,-225,228,-233,234,235,236]],"properties":{"code":"085870303","name":"Afra"}},{"type":"Polygon","arcs":[[237,-237,238,239]],"properties":{"code":"085870337","name":"Tamezmoute"}},{"type":"Polygon","arcs":[[-240,240,193,241,242,243,244]],"properties":{"code":"085870729","name":"Taftechna"}},{"type":"Polygon","arcs":[[245,192,-241,-239,246,247]],"properties":{"code":"085871107","name":"Ait Ouallal"}},{"type":"Polygon","arcs":[[245,-192,248,249,250]],"properties":{"code":"085871125","name":"N'kob"}},{"type":"Polygon","arcs":[[237,233,225,251,252,244]],"properties":{"code":"085870327","name":"Oulad Yahia Lagraire"}},{"type":"Polygon","arcs":[[253,254,-252,216,-216]],"properties":{"code":"085870745","name":"Tinzouline"}},{"type":"Polygon","arcs":[[255,242,256,257,258]],"properties":{"code":"085870711","name":"Bni Zoli"}},{"type":"Polygon","arcs":[[259,260,261,-259]],"properties":{"code":"085870113","name":"Zagora"}},{"type":"Polygon","arcs":[[-197,262,-261,263,209,264,-201]],"properties":{"code":"085870935","name":"Tamegroute"}},{"type":"Polygon","arcs":[[-209,214,253,257,259,263]],"properties":{"code":"085870743","name":"Ternata"}},{"type":"Polygon","arcs":[[243,-253,-255,-257]],"properties":{"code":"085870713","name":"Bouzeroual"}},{"type":"Polygon","arcs":[[-242,194,-200,195,262,261,255]],"properties":{"code":"085870715","name":"Errouha"}},{"type":"Polygon","arcs":[[210,-202,-265]],"properties":{"code":"085870917","name":"Fezouata"}},{"type":"Polygon","arcs":[[265,112,-95,-91,266]],"properties":{"code":"085770529","name":"Tilmi"}},{"type":"Polygon","arcs":[[267,268,265,-112]],"properties":{"code":"085770521","name":"M'semrir"}},{"type":"Polygon","arcs":[[269,-268,-111,270,271]],"properties":{"code":"085770505","name":"Ait Sedrate Jbel El Oulia"}},{"type":"Polygon","arcs":[[272,273,-271,274]],"properties":{"code":"085770507","name":"Ait Sedrate Jebel Soufla"}},{"type":"Polygon","arcs":[[275,276,277,278,279,272,280]],"properties":{"code":"085770513","name":"Ait Youl"}},{"type":"Polygon","arcs":[[273,271,281,282,283,284,-281]],"properties":{"code":"085770915","name":"Ighil N'oumgoun"}},{"type":"Polygon","arcs":[[285,-277]],"properties":{"code":"085770103","name":"Boumalne-Dades"}},{"type":"Polygon","arcs":[[-250,286,-278,-286,-276,287,288,289]],"properties":{"code":"085770925","name":"Souk Lakhmis Dades"}},{"type":"Polygon","arcs":[[290,274,-280,291]],"properties":{"code":"085770719","name":"Imider"}},{"type":"Polygon","arcs":[[180,292,293,-292,-279,-287,-249,-191]],"properties":{"code":"085770517","name":"Ikniouen"}},{"type":"Polygon","arcs":[[294,-293,181,-175]],"properties":{"code":"085770701","name":"Ait El Farsi"}},{"type":"Polygon","arcs":[[295,296,297,109,-291,-294,298]],"properties":{"code":"085770723","name":"Ouaklim"}},{"type":"Polygon","arcs":[[299,-103,113,-298,300]],"properties":{"code":"085770731","name":"Toudgha El Oulia"}},{"type":"Polygon","arcs":[[296,300,301,302]],"properties":{"code":"085770111","name":"Tinghir"}},{"type":"Polygon","arcs":[[302,-296,303]],"properties":{"code":"085770733","name":"Toudgha Essoufla"}},{"type":"Polygon","arcs":[[-295,-174,-104,-300,301,-304,-299]],"properties":{"code":"085770727","name":"Taghzoute N'ait Atta"}},{"type":"Polygon","arcs":[[304,-289,305,306]],"properties":{"code":"085770105","name":"Kalâat M'gouna"}},{"type":"Polygon","arcs":[[305,307,308,284,287]],"properties":{"code":"085770903","name":"Ait Ouassif"}},{"type":"Polygon","arcs":[[309,235,246,310,-307,307,311]],"properties":{"code":"085770911","name":"Ait Sedrate Sahl El-Gharbia"}},{"type":"Polygon","arcs":[[-305,-311,247,-251,-290]],"properties":{"code":"085770909","name":"Ait Sedrate Sahl Charkia"}},{"type":"Polygon","arcs":[[283,-309,311,312,313,314,315]],"properties":{"code":"084010711","name":"Toundoute"}},{"type":"Polygon","arcs":[[315,-283,316]],"properties":{"code":"084010705","name":"Imi-N'oulaoune"}},{"type":"Polygon","arcs":[[-313,309,-235,-232,317,318]],"properties":{"code":"084010707","name":"Skoura Ahl El Oust"}},{"type":"Polygon","arcs":[[-318,-231,-221,319,320]],"properties":{"code":"084010703","name":"Idelsane"}},{"type":"Polygon","arcs":[[-321,321,322,323,324,-314,-319]],"properties":{"code":"084010701","name":"Ghassate"}},{"type":"Polygon","arcs":[[-324,325,326,327]],"properties":{"code":"084010315","name":"Telouet"}},{"type":"Polygon","arcs":[[-327,328,329,330,331]],"properties":{"code":"084010307","name":"Ighrem N'ougdal"}},{"type":"Polygon","arcs":[[330,332,333,334]],"properties":{"code":"084010317","name":"Tidili"}},{"type":"Polygon","arcs":[[329,-335,335,336,337]],"properties":{"code":"084010303","name":"Amerzgane"}},{"type":"Polygon","arcs":[[337,-329,-326,-323,338,339]],"properties":{"code":"084010301","name":"Ait Zineb"}},{"type":"Polygon","arcs":[[340]],"properties":{"code":"084010107","name":"Ouarzazate"}},{"type":"Polygon","arcs":[[341,219,319,321,338,342],[340]],"properties":{"code":"084010709","name":"Tarmigt"}},{"type":"Polygon","arcs":[[343]],"properties":{"code":"084010109","name":"Taznakht"}},{"type":"Polygon","arcs":[[344,345]],"properties":{"code":"084010305","name":"Iznaguen"}},{"type":"Polygon","arcs":[[344,346,341,-219,347],[343]],"properties":{"code":"084010311","name":"Ouisselsate"}},{"type":"Polygon","arcs":[[348,336,-340,342,-347,349]],"properties":{"code":"084010313","name":"Siroua"}},{"type":"Polygon","arcs":[[-334,350,348,-336]],"properties":{"code":"084010309","name":"Khouzama"}},{"type":"Polygon","arcs":[[141]],"properties":{"code":"082010113","name":"Moulay Ali Cherif"}}]}},"arcs":[[[60558,95726],[5,235],[-11,427],[-218,104],[-277,197],[-235,295],[-124,184],[-4,405],[41,509],[-6,199],[8,276],[-48,220],[-9,143],[-15,306],[-34,246],[-22,69]],[[59609,99541],[113,-24],[668,17],[654,-16],[564,-37],[634,-134],[382,44],[225,289],[160,319],[136,-698],[283,-692],[727,-817],[175,-487],[246,-1117],[-303,-710]],[[64273,95478],[-141,-104],[-115,-59],[-589,-142],[-407,-152],[-632,-208],[-568,-209],[-296,305],[-551,453],[-416,364]],[[64592,91448],[5,10],[14,30],[56,179],[170,620],[92,342],[492,241],[564,329],[533,185],[55,126],[98,140],[22,118],[6,228]],[[66699,93996],[-1236,326],[-1205,549],[-68,410],[83,197]],[[60558,95726],[-357,-662],[-217,-350],[-60,-43],[-56,-34],[-375,-128],[-126,-215],[-129,-277],[-424,7],[-78,-75],[-77,-49],[-89,-108],[-70,-122],[-32,-99],[-14,-108],[-34,-91],[-107,-54],[-152,18],[-146,52],[-135,46],[-109,2],[-68,-31],[-102,-29],[-140,-84],[-69,-50],[-165,-62]],[[57227,93180],[38,-97],[127,-191],[228,-191],[212,-148],[178,-137],[342,-301],[-48,-319],[-76,-390],[-69,-442],[-27,-236],[5,-440],[9,-135],[-20,-397]],[[58126,89756],[-5,-245],[-58,-344],[-4,-352],[60,-385],[63,-276],[105,-231]],[[58287,87923],[562,217],[396,274],[102,173],[133,419],[87,363],[-87,283],[-23,279],[69,303],[94,210],[111,163],[113,166],[85,-20],[172,-12],[181,3],[342,312],[220,245],[172,163],[169,171],[220,128],[255,62],[290,-16],[340,-14],[132,42],[149,63],[85,146],[102,201],[61,187],[52,104],[190,-18],[113,10],[100,-70],[181,-86],[60,-108],[76,-84],[-13,-60],[21,-9],[36,24],[25,-9],[23,-49],[39,-74],[3,-149],[176,-56],[126,-93],[41,-100],[116,-118],[142,-71],[43,16],[50,34],[96,38],[34,-38],[18,-21],[13,-16]],[[64580,91431],[12,17]],[[55902,94710],[340,68],[193,241],[117,770],[746,388],[85,65],[125,95],[188,143],[117,88],[174,133],[86,66],[-64,228],[-56,201],[-50,182],[-33,117],[-125,184],[50,357],[79,19],[109,171],[125,195],[248,151],[159,316],[116,126],[93,141],[204,172],[447,264],[234,-50]],[[57227,93180],[-83,17],[-133,2],[-126,8],[-79,40],[-83,65],[-98,80],[-85,111],[-43,92],[-28,147],[-105,142],[-122,207],[-72,85],[-109,166],[-95,127],[-46,117],[-18,124]],[[54692,92094],[87,-42],[124,-11],[87,-49],[44,-86],[63,-91],[-7,-87],[-39,-73],[-91,-62],[15,-119],[15,-132],[90,-141],[147,-50],[123,-56],[134,-99],[166,-142],[139,-147],[129,-124],[168,-127],[178,-128],[157,-102],[43,70],[63,130],[49,109],[135,40],[106,10],[100,56],[77,18],[56,-42],[102,-66],[149,-59],[148,-70],[174,-36],[122,-50],[135,-42],[-11,-38],[-48,-110],[-76,-177],[-35,-127],[-20,-142],[173,-88],[141,58],[122,86]],[[55902,94710],[-239,-48],[-463,300],[-402,-398],[-222,-244],[-230,-239],[-105,-93],[-29,-26],[-344,-235],[-54,-40],[37,-164],[57,-137],[19,-54]],[[53927,93332],[74,-205],[89,-144],[73,-133],[63,-111],[141,-92],[138,-30],[134,-43],[53,-112],[-24,-150],[0,-107],[24,-111]],[[54351,90345],[49,97],[72,294],[137,236],[-17,340],[-11,232],[-159,129],[-18,126],[14,163],[25,104],[57,34],[103,2],[89,-8]],[[53927,93332],[-283,-64],[-115,-81],[-144,-138],[-146,-102],[-139,-79],[-41,-137],[-59,-118],[-46,-128],[-55,-133],[-63,-95],[-70,-40],[-76,-94],[-65,-78],[-41,-77],[11,-84],[52,-71],[72,-82],[3,-45],[36,-48]],[[52758,91638],[200,-15],[114,8],[69,0],[120,18],[59,26],[44,-40],[45,-75],[-35,-80],[-98,-96],[-133,-105],[-139,-166],[-41,-128],[-16,-135],[22,-225],[77,-294],[-31,-31],[57,-149],[69,-132],[172,-252],[105,46],[74,45],[91,8],[63,-8],[64,81],[96,90],[76,46],[316,-76],[111,261],[42,85]],[[51645,84530],[124,-31],[419,-122],[365,39],[249,-38],[266,82],[546,-25],[577,9],[609,71],[428,125],[626,-22]],[[55854,84618],[-300,550],[-227,685],[-145,545],[-109,383],[54,372],[37,391],[-11,116],[-102,41],[-89,-35],[-168,-94],[-59,481],[-32,357],[152,121],[52,84],[59,156],[59,145],[-79,8],[-106,-57],[-76,65],[-20,108],[-161,425],[83,271],[47,104],[-78,151],[-183,42],[-96,128],[-5,184]],[[52758,91638],[-22,-86],[-144,-142],[-108,-234],[-11,-23],[-26,-370],[50,-206],[58,-327],[-15,-364],[-20,-343],[-950,-140],[3,-10],[14,-27],[8,-45],[9,-31],[29,-42],[13,-24],[17,-3],[24,-12],[35,-42],[21,-43],[11,-22],[3,-35],[4,-22],[15,-37],[1,-23],[9,-8],[16,-16],[1,-14],[7,-13],[14,-19],[10,-26],[7,-11],[6,-21],[3,-29],[13,-5],[7,-11],[102,65],[31,-36],[32,-54],[38,-46],[30,-38],[13,-31],[11,-41],[24,-24],[17,-11],[17,-15],[16,-11],[23,-15],[30,-14],[34,-7],[26,-3],[17,-8],[14,-12],[10,-13],[14,-17],[107,28],[14,-103],[1,-261],[-8,-15],[2,-25],[7,-20],[7,-69],[12,-109],[-4,-110],[-9,-49],[-19,-64],[-4,-34],[17,-121],[7,-50],[1,-49],[1,-28],[-41,-65],[-28,-38],[-17,-24],[-7,-13],[-22,-29],[-17,-16],[-17,-10],[-14,-49],[7,-41],[1,-59],[-5,-59],[10,-107],[4,-61],[11,-65],[0,-5],[-16,6],[-14,-8],[-5,-4],[-5,1],[-6,6],[-5,8],[-9,5],[-8,-7],[-7,-3],[-4,7],[-11,2],[-7,5],[-8,-1],[-17,-24],[-7,-4],[-5,-9],[4,-10],[-1,-12],[-6,-8],[-5,-2],[-20,-7],[-6,-9],[2,-11],[-2,-3],[-9,1],[-8,7],[-12,0],[-7,-4],[-8,-8],[-6,-12],[-2,-8],[-8,-13],[-3,-5],[0,-12],[-11,-5],[-3,-6],[-1,-12],[-11,-9],[5,-9],[5,-7],[-1,-14],[-5,-11],[-13,-5],[-6,-7],[-16,3],[-10,-2],[-13,-6],[-10,-8],[6,-15],[-1,-14],[-7,-25],[-8,-22],[-1,-15],[14,-17],[-3,-16],[-2,-15],[-6,-7],[-12,1],[-12,-8],[-11,-10],[-10,-10],[-6,-15],[-16,-7],[-9,2],[-8,9],[-9,3],[-10,-8],[-11,-3],[-9,7],[-7,2],[-8,-10],[-11,-2],[-7,-5],[2,-6],[18,-7],[0,-7],[-3,-17],[27,-99],[-45,-324],[-196,-574],[-39,-763]],[[58287,87923],[-231,-146],[-342,-407],[-352,-698],[-266,-597],[-63,-594],[-14,-381]],[[57019,85100],[-229,-76],[-302,-109],[-222,-103],[-412,-194]],[[57019,85100],[286,90],[387,-88],[697,-240],[436,122],[683,142],[390,206],[353,24],[348,-12],[388,-74],[375,-42],[126,-18],[357,52],[298,28],[242,28],[212,64],[107,58]],[[62704,85440],[6,127],[-28,388],[38,150],[128,525],[-102,606],[-119,403],[252,835],[161,279],[152,115],[-56,112],[-34,1095],[1086,967],[182,183],[109,83],[101,123]],[[53021,80295],[569,156],[485,222],[569,212],[599,350],[516,333],[248,150],[444,254],[336,220],[243,152],[473,128],[383,89],[484,23],[404,103],[444,197],[365,100],[374,37],[320,-69],[-48,-438],[-47,-284],[396,152],[207,110],[278,176],[131,103]],[[61194,82771],[202,-155],[2063,-310],[623,-160],[208,-159],[-3,-198],[-288,-158],[-595,-300],[-278,-141],[-192,-165],[-233,-129],[-270,-154]],[[62431,80742],[-122,-63],[-163,-100],[-77,-88],[-252,-77],[-336,-141],[-397,-208],[-319,-173],[-477,-189],[-538,-318]],[[59750,79385],[-543,-320],[-154,-136],[-475,-473],[-588,-399],[-548,-22],[-250,96],[-340,-230],[-385,-240],[-898,-55],[-748,-493]],[[54821,77113],[-341,529],[-324,521],[-257,438],[-74,154],[-94,169],[-165,298],[-277,144],[-259,18],[-39,124],[80,253],[-95,108],[-222,248]],[[52754,80117],[218,146],[49,32]],[[49988,84500],[7,-51],[72,-163],[-8,-105],[158,-983],[626,4],[394,-37],[516,-42],[482,93],[160,-65],[-125,-1405],[96,-228],[104,-347],[83,-174],[127,-160],[117,-90],[70,-136],[154,-316]],[[61194,82771],[368,323],[422,1070],[605,531]],[[62589,84695],[75,265],[31,295],[9,185]],[[51645,84530],[-27,-6],[-54,13],[-24,-6],[-127,-28],[-96,1],[-52,14],[-143,25],[-47,4],[-148,34],[-100,0],[-54,-9],[-29,13],[-109,11],[-49,-3],[-51,-15],[-87,11],[-60,-19],[-51,-4],[-48,-6],[-188,-9],[-54,-24],[-37,-13],[-22,-14]],[[47464,79606],[49,-158],[378,-1185],[-40,-77],[-102,-218],[-178,-373],[-118,-245],[-233,-485]],[[47220,76865],[797,93],[447,93],[98,2],[75,-32],[324,-183],[250,-104],[78,-49],[199,-332],[100,-190],[186,-739],[48,-104],[91,-159],[103,-141],[463,-50],[460,118]],[[50939,75088],[364,83],[194,367],[516,30],[1322,414],[653,270],[464,475],[369,386]],[[52754,80117],[-86,-58],[-322,-174],[-553,-100],[-629,-63],[-507,-84],[-240,-64],[-300,-340],[-336,32],[-461,-56],[-695,144],[-62,67],[-69,35],[-155,34],[-129,-19],[-174,-3],[-260,57],[-219,54],[-93,27]],[[47464,79606],[-7,33],[-69,602],[-17,76],[-1,47],[5,56],[7,28],[13,24],[19,24],[8,20],[29,36],[17,24],[19,26],[21,18],[10,34],[31,35],[22,29],[16,34],[4,29],[13,50],[17,40],[23,64],[29,64],[7,11],[22,71],[6,57],[0,47],[-10,66],[11,83],[6,35],[19,57],[12,15],[15,46],[3,19],[24,60],[12,27],[7,26],[6,28],[13,28],[3,34],[11,51],[65,242],[59,220],[95,348],[-18,19],[-9,25],[-16,24],[1,16],[-35,24],[-4,20],[-22,15],[-16,20],[-20,12],[-32,25],[-12,27],[-3,17],[-23,26],[-5,18],[-12,16],[1,12],[-15,11],[-31,18],[-13,7],[-22,14],[-8,12],[-5,16],[-30,22],[-22,63],[-15,12],[-21,13],[-14,14],[-24,3],[-1,23],[-4,23],[6,7],[45,18],[17,13],[23,19],[48,23],[25,10],[25,12],[43,-7],[44,12],[17,15],[71,35],[30,31],[21,26],[23,28],[19,38],[3,21],[30,21],[30,22],[63,19],[36,19],[43,26],[38,17],[35,18],[38,20],[28,28],[47,37],[44,34],[43,32],[38,23],[20,10],[55,25],[34,11],[50,31],[30,16],[35,11],[9,3],[32,11],[24,6],[36,17],[44,21],[40,34],[75,31],[63,28],[29,3],[28,11],[109,66],[37,-6],[66,53],[24,33],[83,54],[97,18],[151,92],[79,66],[40,27],[95,58],[21,16]],[[71836,92215],[274,-150],[732,-656],[1016,-1007],[417,-487],[427,-497],[419,-728],[502,-864],[229,-501]],[[75852,87325],[-325,-219],[-327,-212],[-883,-261],[-725,-117],[-434,-252],[-744,-90],[-376,-243],[-491,-137],[-1227,-53],[-1038,-43],[-606,-464],[-405,-198],[-549,-421],[-544,105]],[[67178,84720],[-154,176],[-47,258],[-116,366],[-29,365],[-59,183],[-43,135],[-78,427],[-101,158],[-58,187],[-33,225],[-11,248],[-103,101],[-169,109],[-102,66],[-131,-1],[-192,-12],[-159,4],[-131,24],[-104,44],[-102,46],[-163,4],[-92,26],[-61,20],[-76,54],[-28,31],[-26,96]],[[64810,88060],[42,12],[55,-4],[74,9],[80,11],[88,35],[65,13],[52,46],[5,56],[-37,48],[-24,35],[-3,58],[59,84],[-6,56]],[[65260,88519],[70,32],[80,58],[165,64],[440,144],[493,211],[437,445],[331,369],[353,269],[263,277],[323,347],[400,319],[364,277],[142,221],[87,189],[235,108],[542,191],[212,105],[692,-25],[338,71],[221,46],[388,-22]],[[71836,92215],[-992,726],[-499,696],[210,419],[-996,352],[-740,22],[-1399,-458],[-721,24]],[[64592,91448],[21,-86],[42,-153],[13,-136],[36,-200],[10,-114],[47,-182],[31,-120],[-15,-35],[-27,-65],[-19,-114],[26,-80],[57,-183],[-12,-214],[41,-191],[9,-155],[-31,-77],[-12,-88],[-10,-93],[-15,-85],[-18,-87],[-27,-62]],[[64739,88928],[57,-2],[45,-1],[5,124],[9,95],[75,-4],[127,-60],[67,-83],[113,-98],[29,-71],[-3,-83],[-23,-100],[20,-126]],[[62589,84695],[-167,-958],[946,207],[451,-36],[133,-11],[729,205],[249,24],[853,-101],[557,127]],[[66340,84152],[305,211],[533,357]],[[64810,88060],[-76,127],[-45,53],[-29,16],[-28,112],[-16,43],[-47,57],[-45,42],[-2,43],[36,36],[29,58],[14,115],[-20,65],[-1,3],[-9,49],[10,31],[97,12],[61,6]],[[89634,68146],[-80,-44],[-373,-56],[-198,101],[-63,116],[76,153],[227,145],[122,22],[247,-182],[19,-72],[69,-111],[-46,-72]],[[78749,72782],[310,-86],[547,-19],[222,137],[360,321],[-83,125],[-5,132],[33,93],[333,176],[740,444],[327,172],[721,297],[414,-20],[877,-22],[603,-100],[225,-78],[274,122],[242,114],[351,307],[34,193],[-323,713],[81,61],[-31,491],[54,272],[38,225]],[[85093,76852],[10,4],[65,2],[35,5],[18,6],[30,-5],[20,0],[19,1],[46,19],[35,7],[32,10],[25,4],[26,12],[20,5],[24,12],[63,16],[68,40],[45,41],[25,21],[16,9],[82,25],[31,19],[30,-4],[41,-28],[28,-1],[138,69],[112,27],[127,41],[76,31],[55,10],[88,-4],[32,10],[-58,-198],[-91,-463],[-82,-356],[-168,-476],[-98,-221],[-16,-77],[0,-49],[13,-48],[39,-37],[39,-27],[104,-16],[273,-58],[141,-30],[156,-17],[317,-44],[475,-63],[381,-61],[25,-11],[18,-20],[13,-73],[-3,-86],[-18,-70],[-121,-351],[-109,-250],[-111,-253],[-172,-359],[-91,-217],[-102,-247],[6,-371],[140,13],[153,1],[40,10],[70,27],[95,27],[198,24],[202,6],[68,-6],[188,-4],[345,162],[54,18],[353,132],[523,99],[97,45],[217,93],[193,96],[241,122],[182,189],[76,168],[37,118],[1,135],[-37,176],[-111,230],[-83,110],[-41,117],[78,44],[233,0],[63,23],[76,-32],[74,-21],[57,-7],[75,18],[72,8],[165,-7],[117,-21],[101,-10],[92,-9],[220,-28],[203,-84],[255,-77],[134,-43],[275,-81],[113,-66],[135,-71],[148,-74],[70,-40],[16,-49],[-1,-95],[-12,-92],[-46,-158],[11,-85],[48,-193],[68,-21],[203,-92],[296,-69],[192,-31],[155,-43],[270,-61],[95,-12],[99,-44],[313,-61],[406,-39],[262,98],[497,359],[479,378],[328,266],[152,132],[407,130],[662,195],[307,79],[171,18],[-142,-187],[-557,-573],[-629,-642],[-196,-165],[-503,-363],[-5,-589],[-33,-505],[-50,-788],[1,-953],[3,-470],[14,-559],[241,-696],[272,-944],[160,-570],[17,-48],[36,-161],[115,-321],[24,-104],[21,-18],[125,-273],[319,-701],[388,-785],[58,-87],[55,-122],[65,154],[12,76],[11,42],[47,110],[35,53],[48,81],[30,26],[42,9],[74,-7],[62,9],[87,68],[91,-5],[35,6],[119,25],[31,42],[18,11],[43,4],[131,-27],[70,-8],[69,-3],[52,14],[122,14],[45,-1],[59,-17],[47,3],[33,13],[39,17],[98,-3],[-207,-282],[-22,-13],[-384,-355],[-336,-474],[-771,-422],[-715,-500],[-433,-245],[-236,-125],[-329,-151],[-216,-255],[200,-353],[-1026,-262],[-1323,-312],[-2639,-636],[-1602,-397],[-1818,-443],[-75,-43],[-7,-3304]],[[88060,56257],[-164,32],[-245,53],[-595,252],[-529,233],[-405,181],[-444,299],[-381,221],[-351,276],[-288,202],[-304,150],[-290,74],[-353,89],[-290,127],[-181,25]],[[83240,58471],[173,458],[165,325],[185,539],[168,363],[80,179],[79,390],[43,177],[5,297],[-35,153],[-155,298],[-130,474],[-51,492],[-54,218],[-35,219],[-127,117],[-117,200],[-24,221],[-74,262],[-80,262],[-177,236],[-248,197],[-130,234],[-235,241],[-160,216],[-308,344],[-166,250],[-61,154],[-241,276]],[[81530,66263],[-69,129],[-188,347],[-136,304],[-154,385],[-200,218],[-371,519],[-273,290],[-169,279]],[[79970,68734],[-152,276],[-152,202],[-202,332],[-198,321],[-154,254],[-179,357],[-124,292],[-200,450],[-155,421],[-192,424],[127,171],[220,309],[140,239]],[[81735,83700],[100,8],[293,11],[502,20],[176,11],[76,-107],[11,-115],[24,-89],[25,-43],[-10,-54],[-36,-48],[-26,-50],[3,-22],[3,-28],[0,-30],[-33,-32],[-54,-37],[-111,-96],[-34,-16],[-45,-40],[-36,-56],[-13,-26],[1,-9],[25,-33],[19,-22],[7,-18],[14,-34],[6,-47],[-5,-31],[-14,-39],[-1,-28],[0,-34],[7,-23],[21,-40],[28,-19],[11,-10],[4,-28],[0,-36],[3,-30],[6,-23],[6,-19],[22,-16],[12,-3],[16,7],[17,13],[25,-8],[4,-16],[17,-14],[15,-12],[26,-4],[30,9],[25,-6],[20,-15],[28,1],[21,-6],[38,-24],[19,-4],[20,-2],[24,12],[30,1],[39,-24],[63,-31],[32,-29],[14,-16],[17,-47],[26,-38],[8,-45],[9,-20],[6,-9],[13,-18],[7,-9],[35,-32],[25,-35],[8,-29],[10,-64],[7,-20],[24,-10],[21,-32],[15,-10],[29,-3],[36,13],[14,-5],[19,-36],[21,-40],[22,-25],[24,-19],[31,-14],[42,-14],[52,-34],[28,-23],[22,-41],[0,-17],[-18,-15],[-1,-23],[26,-37],[29,-18],[8,-42],[16,-19],[18,-7],[34,-26],[-3,-41],[2,-23],[26,-7],[36,5],[35,-31],[22,-16],[22,-12],[29,-27],[16,-14],[18,-17],[23,-49],[54,-62],[30,-73],[13,-16],[9,-23],[29,-25],[26,1],[12,-13],[29,-43],[29,-34],[32,-15],[11,-19],[-8,-12],[-10,-23],[8,-22],[10,-15],[27,-21],[10,-33],[17,-43],[4,-67],[-3,-38],[10,-19],[7,-15],[15,-42],[25,-37],[28,-43],[6,-18],[2,-24],[3,-37],[-9,-30],[-18,-28],[-16,-42],[-11,-60],[0,-45],[5,-52],[6,-44],[5,-77],[-3,-19],[-2,-30],[18,-16],[10,-17],[31,-26],[7,-19],[10,-30],[2,-66],[11,-36],[16,-42],[2,-23],[-2,-42],[-12,-23],[-3,-108],[3,-70],[10,-43],[5,-62],[16,-45],[28,-37],[30,-25],[28,-50],[26,-32],[41,-99],[14,-19],[28,-36],[13,-50],[8,-34],[16,-33],[18,-23],[15,-5],[38,-9],[9,-13],[37,-62],[16,-35],[9,-33],[15,-19],[17,-44],[25,-33],[13,-17],[22,-15],[10,-17],[10,-26],[18,-34],[21,-27],[26,-15],[26,-15],[13,-33],[0,-32],[6,-11],[22,-15],[14,-24],[28,-32],[8,-22],[12,-21],[19,-18],[19,-28],[11,-9],[16,-11],[24,-7],[27,-2],[22,-7],[54,-26],[26,-7],[13,-10],[9,-17],[3,-34],[-6,-78],[27,-59],[9,-32],[2,-28],[-6,-19],[-22,-45],[-27,-51],[-19,-40],[-23,-40],[-35,-36],[-13,-22],[-11,-13],[-28,-25],[-29,-12],[-26,-5],[-38,2],[-46,7],[-30,11],[-44,-5],[-22,-11],[-33,-176],[-58,-301],[-12,-77]],[[78749,72782],[-75,20],[-571,219],[-259,323],[-259,576],[-285,547],[-273,452],[-102,289],[-199,470]],[[76726,75678],[-21,51],[-104,339]],[[76601,76068],[536,371],[363,86],[414,74],[296,311],[457,230],[224,105],[190,68],[270,43],[139,21],[139,30],[129,50],[147,88],[167,100],[19,30],[301,166],[217,99],[82,26],[110,16],[60,33],[177,59],[2,83],[-260,42],[-179,178],[50,263],[57,299],[-95,134],[-27,466],[-5,45],[-24,60],[-77,49],[-319,629],[-2,172],[-36,197],[18,148],[103,186],[55,175],[23,22],[21,72],[18,11],[18,17],[3,11],[12,14],[11,1],[2,12],[19,15],[59,19],[24,16],[32,32],[33,69],[-13,90],[13,32],[117,129],[300,116],[305,61],[579,-19],[-71,903],[-31,382],[-21,263],[-14,175],[-3,57]],[[81735,83700],[-40,70],[-36,66],[-50,92],[-18,28],[13,119],[107,244],[199,364],[141,302],[10,198],[-82,142],[-196,255],[-128,230],[-182,327],[-80,308],[-362,-18],[-247,-62],[-69,-38],[-42,-41],[-111,-52],[-17,21],[-45,22],[-77,-14],[-827,1],[-345,218]],[[79251,86482],[-185,-296],[-15,-32],[-181,-395],[-373,-413],[-997,-809],[-167,-702],[-658,-1064],[-397,-256],[-359,-350],[-437,-435],[-588,-483],[-379,-470],[-473,-324]],[[74042,80453],[239,-568],[155,-351],[109,-212],[244,-178],[590,-381],[255,-210],[59,-187],[74,-314],[205,-499],[73,-158],[144,-143],[127,-372],[163,-393],[105,-365],[17,-54]],[[74042,80453],[-107,18],[-274,6],[-631,-74],[-418,-242],[-134,-248],[-195,-122],[-179,-131],[-301,-24],[-378,-82],[-410,-422],[-235,-239],[-50,-356],[-224,-467],[-148,-378],[-179,-353]],[[70179,77339],[-168,-150],[-156,112],[115,134],[335,1140],[186,895],[197,421],[46,502],[-22,210],[-402,244],[-645,396],[-658,101],[-572,-37],[-353,-105]],[[68082,81202],[70,277],[113,185],[-189,276],[-288,406],[-152,260],[-72,118],[-192,277],[-231,417],[-146,197],[-168,106],[-167,102],[-320,329]],[[75852,87325],[319,-696],[921,-351],[1519,607],[640,-403]],[[69981,76441],[-83,78],[-54,83],[43,120],[68,162],[44,39],[16,167],[90,39],[17,13],[138,221]],[[70260,77363],[208,-97],[61,-337],[14,-63],[-38,-126],[-43,-243],[-76,-46],[-133,-20],[-139,-18],[-133,28]],[[63753,79618],[45,-458],[155,-477],[153,-486],[139,-401],[200,-427],[89,-210]],[[64534,77159],[179,52],[287,58],[384,109],[374,55],[329,47],[303,7],[139,48],[222,129],[214,-2],[296,20],[166,-107],[87,-192],[24,-128],[104,-163],[144,-188],[154,-164],[198,-239],[234,-196],[294,-213],[109,-391],[65,-290],[183,-153]],[[69023,75258],[193,148],[235,121],[253,54],[181,68],[31,213],[-5,234],[35,211],[35,134]],[[70260,77363],[-81,-24]],[[68082,81202],[-174,-193],[-164,-186],[-133,-170],[-29,-202],[-81,-274],[-52,-62],[-4,-90],[-5,-54],[-83,22],[-59,50],[-96,6],[-144,8],[-159,-24],[-163,44],[-117,-4],[-133,-70],[-288,-106],[-200,-73],[-251,-14],[-417,85],[-282,48],[-330,32],[-111,-46],[-288,10],[-216,-100],[-265,-163],[-85,-58]],[[63753,79618],[-185,106],[-148,-56],[-118,-198],[-91,-224],[-101,-162],[-122,38],[-87,150],[-98,330],[-130,212],[-53,145],[-189,783]],[[76726,75678],[-175,-114],[-304,-171],[-486,-276],[-478,-180],[-330,-109],[-328,-113],[-222,-115],[-174,-90],[-266,-87],[-216,-67],[-214,-7],[-274,-5],[-187,-55],[-193,-68],[-225,-171],[-238,-282],[-210,-274],[-168,-239],[-167,-163],[-374,-242],[-289,-133],[-314,-201],[-327,-229],[-305,-156],[-240,-164],[-270,-159],[-226,-92],[-169,-38]],[[69357,71678],[-171,-38],[-418,30],[-405,-48],[-421,-27],[-252,-33],[-311,-95],[-210,-67],[-267,-53],[-547,-222]],[[66355,71125],[153,233],[217,334],[219,349],[118,528],[484,910],[233,365],[455,329],[229,265],[293,300],[200,349],[67,171]],[[66355,71125],[-429,49],[-429,60],[-550,88],[-502,530]],[[64445,71852],[-429,368],[-479,582],[-248,613],[-277,935],[-252,331],[-429,393],[-299,132]],[[62032,75206],[98,137],[242,198],[170,239],[350,244],[489,181],[435,174],[355,88],[211,62],[181,135],[39,148],[-35,166],[-33,181]],[[57750,76666],[145,44],[108,55],[73,96],[24,119],[65,78],[203,-20],[241,-91],[209,-41],[284,-16],[297,-35],[273,22],[32,14],[268,121],[105,107],[-19,232],[2,212],[-57,287],[-63,95],[-107,296],[-78,392],[131,268],[58,181],[-194,303]],[[62032,75206],[-455,-428],[-268,-263],[-241,-156],[-177,-84]],[[60891,74275],[-70,-33],[-356,-47],[-210,-72],[-333,-147],[-315,-136],[-186,-139],[-197,-108],[-131,-116],[-257,-83],[-74,139],[-77,164],[-93,218],[-5,194],[29,136],[48,151]],[[58664,74396],[37,109],[94,212],[32,147],[-44,148],[-44,32],[-75,56],[-222,59],[-168,65],[-175,117],[-134,278],[-13,249],[41,389],[18,272],[-125,40],[-136,97]],[[64445,71852],[137,-638],[-12,-218],[-90,-383],[-13,-219],[-189,-128],[-325,-117],[-470,-215],[-543,-378],[-503,-366],[-341,-203],[-170,-173],[-562,-368],[-414,-289],[-559,-324],[-388,-342],[-207,-199],[-153,-260],[-298,-467],[-405,-424],[-250,-320],[-510,-115],[-314,-60],[-160,-125],[-140,-81],[-85,36],[-152,43]],[[57329,65519],[-78,120],[-192,195]],[[57059,65834],[102,221],[-42,189],[-234,305],[-83,113],[13,89],[263,116],[151,203],[161,236],[200,259],[248,240],[159,267],[92,144],[59,194],[-40,261],[2,142],[-95,155],[-216,200],[-96,111],[-193,54],[-181,63],[-257,58],[-214,42],[-58,0],[-53,52],[39,89],[68,173],[259,64],[353,112],[163,190],[177,194],[143,32],[77,-64],[-16,-80],[-161,-97],[-82,-82],[19,-33],[85,-46],[159,51],[483,227],[249,114],[-5,157],[-122,183],[-124,249],[3,215],[130,104],[348,171],[269,104],[278,261],[222,314],[251,367],[302,440],[275,560],[187,360],[98,204],[17,194]],[[41656,66790],[134,-195],[115,-167],[488,457],[744,767],[647,744],[732,675],[259,349],[351,472],[226,282]],[[45352,70174],[-103,383],[-148,277],[-48,181],[11,225],[446,492],[318,536],[298,602],[142,347],[100,229],[233,267],[102,157],[248,-49],[305,8],[467,59],[370,100],[449,97],[161,-61],[236,-56],[208,-50],[318,10],[533,96],[153,131],[320,137],[30,13],[264,67],[161,41],[169,169]],[[51095,74582],[-27,108],[-33,175],[-96,223]],[[47220,76865],[-33,-81],[-190,-392],[-56,5],[-1,-24],[-2,-10],[-9,-17],[-6,-7],[-11,-25],[20,-3],[11,-17],[14,-11],[18,8],[1,-15],[-3,-18],[9,-16],[-3,-24],[7,-19],[-5,-24],[9,-26],[-6,-29],[8,-43],[-228,-115],[-651,-115],[-500,-168],[-366,-30],[-385,-103],[-409,-1],[-244,-180],[-99,-94],[-144,-190],[-105,-186],[-44,-104],[-54,-208],[-32,-108],[-344,-574],[-163,-180],[-54,-32],[-190,-144],[-290,-185],[-80,-70],[-30,-29],[-22,-23],[-31,-35],[-163,-156],[-69,-31],[-75,-72],[-33,-17],[-76,-47],[-1171,206],[-126,-147],[-133,-285],[-89,-266],[33,-316],[-185,-656],[-148,-932],[-129,-1261],[1342,-544],[500,-686],[88,-299],[-406,-742],[-141,-206],[-11,-292],[121,336]],[[45352,70174],[161,121],[93,72],[225,-378],[340,-799],[230,-536],[726,-759],[689,-475],[217,-263],[324,-492],[66,-382]],[[48423,66283],[84,145],[111,177],[122,129],[211,38],[170,93],[188,34],[226,-18],[366,-54],[291,-284],[181,-334]],[[50373,66209],[156,143],[240,342],[137,231],[186,336],[141,511],[223,405],[119,295],[125,292],[-5,174]],[[51695,68938],[-50,164],[-15,240],[-13,287],[-6,135],[-54,326],[188,663],[76,272],[2,186],[-84,230],[-145,224],[-191,262],[-111,295],[-31,168],[0,358],[-54,365],[15,211],[6,411],[5,165],[15,200],[-72,253],[-81,229]],[[51095,74582],[186,-1],[292,-75],[294,-116],[133,-44],[384,-251],[147,-150],[248,8],[375,108],[414,246],[375,207],[396,441],[350,250],[643,272],[205,154],[411,269],[466,321],[373,233],[598,428],[68,-1],[91,-60],[96,-31],[110,-124]],[[58664,74396],[-203,-95],[-213,-66],[-451,-110],[-205,-86],[-344,-203],[-653,-452],[-246,-245],[-126,-308],[-257,-155],[-336,-241],[-535,-277],[-440,-77],[-410,-44],[-194,-138],[-354,-289],[-292,-201],[-442,-247],[-190,-360],[-172,-756],[-159,-604],[-58,-491],[-44,-167],[-168,-44],[-252,6],[-109,61],[-116,131]],[[50373,66209],[54,-161],[65,-351],[164,-219],[188,-102],[290,-341],[226,-193],[206,-196],[126,-183],[91,-231],[80,-208],[21,-270],[-123,-339],[-116,-369]],[[51645,63046],[114,19],[104,33],[179,97],[372,195],[246,191],[427,234],[287,270],[161,123],[393,411],[215,275],[128,121],[105,75],[242,151],[194,233],[154,369],[100,189],[135,101],[98,-14],[109,-91],[81,-104],[180,-119],[234,-69],[237,-159],[328,-11],[292,82],[177,123],[122,63]],[[48050,59420],[197,-91],[439,-108],[340,-84],[332,-82],[89,-436],[57,-283],[69,-703]],[[49573,57633],[729,-270],[760,-594],[1123,-607],[309,-434],[116,-350]],[[52610,55378],[237,108],[475,306],[433,368],[802,715],[607,744],[462,654],[466,969],[191,340]],[[56283,59582],[53,82],[43,68],[85,218]],[[56464,59950],[-122,10],[-194,38],[-185,77],[-148,85],[-122,119],[-102,155],[-139,206],[-161,304],[-103,234],[-109,305],[-61,266],[-48,147],[35,93],[53,58],[116,-62],[96,-69],[125,-20],[174,375],[225,-205],[159,332]],[[55953,62398],[82,141],[100,293],[79,332],[170,405],[218,439],[150,365],[165,383],[179,374],[233,389]],[[51645,63046],[-245,-349],[-459,-360],[-366,-240],[-297,-200],[-374,-306],[-53,-29],[-145,-79],[-2,-1],[-24,-13],[-366,-200],[-368,-400],[-437,-721],[-285,-412],[-120,-230],[-54,-86]],[[45917,59134],[-100,51],[-35,-154],[-136,-164],[-177,-75],[-537,5],[-41,0],[-22,1],[-493,48],[-265,41],[-501,-343],[-502,-124],[-964,-407]],[[42144,58013],[176,412],[56,259],[51,334],[8,67]],[[42435,59085],[14,127],[-14,260],[75,256],[304,523],[458,569]],[[43272,60820],[428,315],[542,628],[409,456],[359,458],[135,172],[720,685],[603,715],[304,485],[358,711],[370,266],[605,294],[345,126],[-27,152]],[[48050,59420],[-294,136],[-134,61],[-227,105],[-179,21],[-784,-217],[-182,-138],[-161,-77],[-172,-177]],[[69357,71678],[-138,-204],[-283,-336],[-399,-330],[-355,-350],[-358,-366],[-393,-482],[-107,-249],[29,-169],[56,-229],[52,-293],[-59,-491],[-141,-318],[-385,-487],[-554,-390],[-339,-246],[-42,-253],[29,-213],[48,-802],[23,-640],[58,-397]],[[66099,64433],[-738,-177],[-1048,-161],[-390,22],[-934,-427],[-727,-369],[-731,-314],[-591,-313],[-528,-328],[-613,-357],[-272,-167],[-106,189],[-156,85],[-124,-71],[-341,-34],[-304,-30],[-337,-40],[-301,10],[-142,109],[-85,104],[-103,137],[-180,-4],[-193,-20],[-214,-60],[-199,3],[-241,5],[-141,-39],[-164,-26],[-135,115],[-108,123]],[[71958,67276],[-4,-67],[-163,-193],[-233,-109],[-264,73],[-200,70],[-94,3],[-199,0],[-18,128],[3,66],[44,49],[171,48],[19,167],[-11,151],[-150,197],[-82,129],[-146,60],[3,125],[26,86],[107,105],[93,-36],[119,-97],[139,-26],[157,-127],[105,-121],[113,53],[78,11],[6,13],[-78,104],[16,290],[42,52],[169,-183],[57,18],[111,282],[307,-214]],[[72201,68383],[32,146],[138,160],[204,232],[211,122],[228,115],[288,90],[625,37],[276,52],[260,16],[322,16],[290,36],[448,56],[375,-20],[879,-187],[486,-100],[478,14],[522,-52],[402,58],[275,2],[755,-286],[275,-156]],[[66099,64433],[19,-119]],[[66118,64314],[15,-660],[-30,-563],[-40,-602],[11,-532],[7,-335]],[[66081,61622],[100,-1234],[414,-630],[433,-72],[1076,286],[1162,355],[846,295],[880,339],[674,475],[173,93]],[[71839,61529],[240,246],[245,234]],[[72324,62009],[-604,582],[513,1411],[226,970],[114,742],[38,390],[-63,131],[-26,187],[-67,190],[-3,233],[1,72],[-274,181],[-52,65],[-169,113]],[[72201,68383],[-125,-456],[40,-33],[175,-131],[-92,-122],[-211,80],[-9,-152],[56,-92],[-77,-201]],[[81530,66263],[-167,-40],[-452,-157],[-407,-112],[-691,-170],[-899,-157],[-628,-84],[-682,-370],[-705,-226],[-836,-274],[-275,-88],[-199,108],[-177,-76],[-176,-101],[-7,-283],[-142,29],[-275,122],[-262,-306],[-2041,-1823],[-185,-246]],[[83240,58471],[-93,-11],[-129,21],[-161,84],[-202,-12],[-286,-111],[-233,-84],[-176,-59],[-215,-51],[-216,-36],[-74,166],[-85,212],[-52,111],[-231,12],[-248,22],[-223,57],[-252,42],[-74,24],[-85,-22],[-131,42],[-172,55],[-152,30],[-85,77],[-139,50],[-149,18],[-122,-12],[-1,91],[-41,98],[-75,-27]],[[79138,59258],[-118,26],[-185,44],[-196,67],[-148,73],[-202,68],[-210,63],[-172,87],[-180,64],[-344,-14],[-172,81],[-76,-6],[-18,-85],[178,-147],[-50,-174],[-102,-77],[-93,29],[-79,16],[-120,-6],[-194,30],[-141,-34],[-43,-93],[-135,-28],[-59,102],[-34,99],[44,11],[24,29],[20,17],[18,42],[-18,24],[-9,4],[-5,11],[1,24],[-8,64],[27,47],[58,30],[78,30],[69,80],[64,45],[48,86],[-25,55],[25,47],[37,30],[36,50],[3,60],[-32,83],[5,84],[-17,9],[-44,-25],[-9,13],[8,45],[36,72],[21,18],[15,21],[-5,10],[-12,8],[-15,3],[-22,10],[-18,25],[-38,42],[-16,32],[-16,30],[-36,34],[-52,32],[-15,8],[-15,7],[-15,8],[-19,9],[-15,8],[-15,7],[-16,6],[-18,7],[-15,12],[-15,8],[-17,13],[-14,12],[-26,46],[-11,15],[-12,18],[-13,16],[-14,15],[-15,18],[-17,18],[-20,21],[-14,12],[-13,16],[-10,16],[-12,14],[-18,7],[-16,7],[-17,8],[-25,10],[-17,9],[-24,10],[-20,10],[-17,8],[-16,11],[-14,11],[-13,11],[-14,10],[-16,8],[-16,8],[-15,8],[-16,2],[-16,4],[-16,3],[-16,3],[-16,2],[-16,0],[-16,-3],[-16,-1],[-16,4],[-17,6],[-27,4],[-17,0],[-17,0],[-17,0],[-17,-3],[-18,-5],[-16,-6],[-17,-5],[-17,0],[-16,-3],[-17,-2],[-16,-6],[-16,-7],[-16,-7],[-15,-8],[-17,-6],[-16,-5],[-16,2],[-16,3],[-16,4],[-16,4],[-16,3],[-16,5],[-18,2],[-17,-2],[-16,-2],[-17,-6],[-14,-10],[-16,-11],[-24,-29],[-10,-16],[-11,-14],[-11,-16],[-11,-15],[-10,-15],[-15,-9],[-19,0],[-16,-4],[-13,-10],[-11,-15],[-13,-11],[-13,-12],[-16,-5],[-16,-3],[-16,0],[-16,0],[-16,4],[-41,9],[-14,11],[-14,10],[-14,12],[-13,11],[-16,10],[-14,10],[-15,8],[-16,6],[-16,8],[-17,8],[-18,9],[-14,10],[-13,13],[-7,16],[-1,19],[1,19],[0,19],[4,19],[4,19],[4,18],[-5,18],[-13,11],[-13,11],[-15,8],[-14,12],[-8,18],[0,18],[-1,19],[-6,19],[-8,16],[-12,13],[-15,7],[-16,3],[-17,0],[-19,0],[-16,1],[-16,5],[-16,6],[-17,-2],[-16,-3],[-16,-5],[-16,-4],[-16,-2],[-16,-5],[-66,-42],[-169,62],[-64,-9],[-107,-54],[-198,-55],[-246,-51],[-229,-64],[-342,-157],[-407,-185]],[[72592,60897],[-186,200],[-308,194],[-259,238]],[[54645,27264],[383,241],[363,251],[372,417],[429,457],[500,595],[536,467],[446,508],[366,521],[411,556],[563,575],[539,676],[343,330]],[[59896,32858],[556,405],[596,632],[624,423],[636,453],[621,552],[851,1307],[695,740],[1257,1062],[22,1117],[-60,890],[-51,1265],[-117,1603],[28,449],[734,966],[742,1174],[999,947],[334,476]],[[68363,47319],[185,-316],[192,-382],[126,-450],[84,-523],[42,-438],[36,-496],[119,-288],[322,-166],[337,-37],[362,41],[411,114]],[[70579,44378],[-47,-307],[-17,-197],[-27,-481],[-41,-591],[2,-309],[-78,-672],[-52,-527],[-96,-843],[-27,-531],[-82,-742],[-33,-598],[-63,-747],[15,-183],[346,-739],[453,-686],[333,-733],[392,-759],[419,-681],[429,-695],[337,-377],[283,-442],[421,-698],[396,-748],[363,-637],[473,-763],[152,-276]],[[74830,29416],[-372,-153],[-718,-408],[-1915,-2066],[-181,-205],[-1314,-1852],[-1552,-1532],[-566,-658],[-457,-284],[-875,-472],[-1119,-620],[-1017,-581],[-1060,-584],[-526,-300],[-1111,-614],[-656,-354],[-507,-280],[-220,-121],[-293,-257],[-484,-448],[-561,-533],[-549,-516],[-458,-430],[-444,-437],[-473,-445],[-326,-308],[-246,-242],[-204,-179],[-129,-79]],[[56497,14458],[1925,7313],[-902,4418],[-2875,1075]],[[70579,44378],[85,24],[501,168],[345,27],[503,26],[492,0],[242,65],[812,12],[594,132],[592,160],[795,-12],[577,75],[471,35],[642,40],[542,96],[559,97],[247,95],[188,47],[124,49],[287,12],[168,95],[144,236],[115,170],[268,349],[159,168],[395,430],[198,168],[185,-275],[143,-205],[303,-377],[187,-323],[318,-538],[394,-407],[231,-128],[344,-35],[170,-34],[121,71],[210,160],[281,47],[307,14],[339,28],[358,21],[352,63],[299,46],[283,23],[108,22],[78,10]],[[85635,45325],[4,-52],[1,-111],[11,-111],[-12,-111],[50,-87],[56,87],[-18,114],[-18,110],[-6,112],[42,100],[83,64],[95,37],[84,62],[100,32],[54,-78],[65,12],[95,41],[96,-32],[64,-87],[36,-106],[58,-80],[73,60],[29,108],[5,112],[80,69],[29,98],[4,114],[-42,94],[-92,46],[-83,62],[-3,97],[106,11],[103,-21],[79,42],[43,102],[99,25],[74,70],[36,-38],[26,-109],[4,-111],[-16,-110],[4,-119],[55,3],[-39,99],[38,99],[-3,111],[19,108],[-32,106],[-60,90],[-72,79],[-32,105],[59,91],[75,56],[73,34],[47,104],[53,-64],[-13,-107],[33,-107],[17,-121],[22,63],[54,86],[97,-24],[92,-28],[101,3],[45,-100],[43,-101],[45,-99],[69,-85],[13,-103],[-24,-109],[-10,-111],[-18,-110],[1,-111],[31,-107],[31,-105],[7,-113],[-46,-95],[-48,-98],[-39,-103],[18,-110],[31,-106],[-2,-111],[-54,-92],[-57,-91],[-6,-113],[73,-69],[98,22],[94,-41],[100,-24],[99,-11],[102,9],[99,-16],[103,4],[24,98],[-101,-6],[-88,64],[-86,-51],[-97,15],[-85,36],[-54,74],[19,115],[77,-57],[-21,79],[-50,97],[14,104],[85,-15],[66,-87],[9,-112],[79,5],[-17,106],[66,-24],[51,-102],[90,-26],[72,7],[60,90],[44,79],[-62,96],[-46,97],[-56,94],[-5,106],[7,111],[-13,111],[2,112],[-1,113],[-43,87],[-106,29],[52,72],[85,60],[89,-2],[52,75],[-48,95],[2,112],[-5,109],[-44,103],[11,184],[17,110],[60,62],[7,-121],[-4,-112],[8,-111],[8,-111],[18,-110],[21,-109],[29,-108],[6,-104],[-65,-90],[-3,-100],[-6,-111],[-21,-109],[2,-111],[4,-113],[40,-95],[86,-62],[71,-73],[39,107],[38,103],[72,73],[66,81],[80,-3],[17,-108],[-9,-111],[-26,-107],[-7,-112],[-10,-120],[67,-12],[80,67],[49,-98],[68,-61],[-55,-104],[-5,-98],[35,-106],[16,-111],[-1,-111],[59,-76],[104,13],[95,42],[48,-36],[-27,-107],[1,-112],[27,-108],[-13,-112],[90,-5],[52,-100],[24,-115],[80,-4],[77,-68],[51,-101],[20,-30],[33,51],[26,83],[-20,103],[103,40],[47,-63],[33,-92],[95,51],[20,107],[-47,98],[-19,108],[66,-23],[20,50],[17,54],[78,-87],[11,98],[81,-68],[-17,-98],[-22,-92],[10,-112],[-44,-100],[-9,-111],[-54,-72],[92,-14],[30,-108],[19,-116],[38,58],[12,114],[88,19],[3,-103],[-8,-111],[6,-112],[1,-111],[13,-114],[68,-41],[39,-96],[-26,-103],[-10,-110],[30,-105],[-62,-84],[-42,-98],[38,-102],[20,-108],[-43,-102],[-42,-97],[54,-92],[47,-101],[-79,-36],[-87,-52],[0,-109],[-64,-88],[71,8],[91,-28],[8,-112],[5,-99],[-95,-46],[-100,-18],[-94,-41],[-72,-81],[40,-99],[67,-83],[-4,-85],[-91,67],[-39,-27],[14,-113],[25,-108],[-66,-81],[-101,-8],[-82,60],[-63,95],[-88,-16],[-39,-101],[20,-110],[16,-109],[-65,-68],[-106,27],[-69,-48],[18,-109],[57,-92],[5,-107],[-72,-81],[-57,-92],[-51,-97],[-50,-100],[-90,-42],[-66,79],[-84,-30],[9,-117],[-20,-104],[-15,-101],[-9,-115],[-90,2],[-73,-46],[16,-114],[-31,-99],[-25,-109],[-85,-56],[-97,27],[8,111],[-71,10],[-55,87],[-81,71],[-60,24],[41,-104],[32,-106],[-80,-67],[-39,-97],[-9,-107],[-82,-62],[-336,-112],[-6,-15],[-2,-20],[66,-51],[15,-12],[-9,-24],[16,-59],[59,-80],[18,-90],[-11,-108],[10,-82],[4,-112],[-6,-97],[-15,-48],[3,-62],[-1,-57],[3,-54],[0,-54],[4,-45],[5,-33],[9,-61],[-4,-74],[9,-33],[-1,-50],[8,-45],[3,-53],[2,-48],[12,-80],[18,-68],[21,-121],[13,-93],[11,-95],[13,-96],[21,-160],[4,-103],[0,-46],[70,-20],[127,-66],[-4,-34],[28,-128],[34,-184],[21,-61],[31,-100],[17,-41],[-28,-55],[-25,-34],[12,-266],[-6,-84],[-27,-70],[-2,-29],[-71,-63],[-1,-139],[3,-61],[-65,-117],[-15,-80],[-3,-67],[-49,-59],[-83,-46],[2,-52],[-28,-28],[11,-38],[49,-209],[-37,-66],[-45,-143],[-43,-103],[-74,-123],[-58,-65],[-96,-52],[-57,-15],[-122,-141],[-49,-20],[-175,80],[-19,16],[-17,9],[-10,-1],[-19,-12],[-45,-50],[-21,-18],[-13,-5],[-10,1],[-10,-14],[-11,-6],[-6,-12],[-20,-14],[-23,-16],[-21,-18],[-16,-14],[-17,-8],[-23,-4],[-14,-13],[-22,0],[-14,-13],[-45,-18],[-17,-13],[-16,-9],[-24,-26],[-15,-6],[-3,-8],[-52,-17],[-32,-19],[-45,-15],[-21,-2],[-16,-8],[-33,-36],[-91,-105],[-15,-19],[-21,-2],[-22,1],[-22,-15],[-13,-5],[-10,4],[-4,13],[-17,-3],[-3,-7],[9,-11],[-4,-9],[10,-8],[-3,-15],[-7,-17],[10,-15],[-29,-27],[-130,-49],[-123,-50],[-121,-45],[-56,-19],[-10,1],[-2,6],[-13,10],[-9,-9],[-11,-6],[-9,-6],[-8,-43],[-11,-10],[-8,-10],[-2,-13],[4,-13],[-59,-37],[-34,-19],[-33,-8],[-42,-39],[-15,-9],[-140,-85],[-3,7],[-9,2],[-18,-13],[-12,-10],[-23,-15],[-1,-25],[-16,4],[-9,-2],[-12,4],[-10,-2],[-10,5],[-32,-15],[-9,-5],[-5,-14],[-37,-104],[-84,-212],[-14,-32],[-12,6],[-6,-3],[-2,-12],[-7,-19],[-12,-15],[-13,-14],[-11,-4],[-6,-12],[-10,-6],[-24,8],[-12,7],[-9,2],[-11,-2],[-11,-4],[-8,-7],[-7,-12],[1,-15],[-26,-10],[-11,19],[-23,5],[-2,-13],[-17,-21],[-9,2],[-12,0],[-6,-10],[-13,-1],[-2,-7],[-23,-6],[-34,-10],[-37,-4],[-35,-25],[-25,-16],[-21,-32],[4,-11],[-114,-63],[-42,-32],[-55,-40],[-28,-49],[-82,-70],[-41,-19],[-42,-37],[-31,-30],[-15,-36],[-12,-9],[-57,-10],[-43,5],[-54,23],[-26,31],[-46,17],[-89,56],[-52,36],[-92,-14],[-55,-16],[-80,12],[-58,-2],[-54,21],[-25,29],[-31,16],[-28,7],[-18,19],[-24,12],[-30,36],[-29,12],[-15,17],[-26,7],[-46,34],[-46,42],[-27,20],[-45,11],[-32,2],[-23,12],[-32,1],[-35,16],[-95,36],[-189,74],[-48,-8],[-57,-26],[-50,-41],[-130,-91],[-94,-68],[-97,-25],[-33,26],[-79,-18],[-64,-59],[-69,-10],[-151,130],[-913,-146],[-434,-125],[-137,-31],[-96,14],[-24,-7],[14,-8],[-372,-25],[-367,-28],[-375,-29],[-337,-14],[-363,-24],[-340,-30],[-364,-22],[-408,-14],[-252,-27],[-451,-211],[-663,-261],[-657,-273],[-584,-241],[-462,-209]],[[72862,51215],[-12,-101],[-90,-241],[-130,-249],[-167,-328],[-98,-286],[-67,-196],[-105,-345],[-47,-204],[50,-167],[58,-283],[80,-233],[147,-304],[259,-239],[163,-118],[100,-93],[258,-18],[291,2],[266,8],[205,-31],[170,-20],[-63,-146],[-136,-150],[-67,-229],[37,-221],[157,-272],[148,-99],[270,-41],[324,-30],[362,-12],[243,-4],[126,-134],[332,-124],[213,-128],[131,-71],[124,-71],[185,-69],[183,39],[196,34],[84,-19]],[[77042,46022],[8,80],[10,177],[-19,399],[22,396],[-27,358],[-132,325],[-225,320],[-217,338],[-170,-14],[-217,-20],[-206,-47],[-150,41],[-252,97],[-53,21],[-192,119],[-189,138],[-23,111],[103,73],[183,59],[140,-14],[170,-91],[128,-106],[124,-105],[64,34],[2,134],[-124,170],[-271,146],[-116,45],[-432,6],[-163,8],[-223,0],[-117,77],[-72,120],[-240,-19],[-135,87],[-60,61],[-113,99],[-29,69],[20,99],[128,73],[76,9],[129,-37],[119,-59],[116,-2],[22,43],[26,46],[56,201],[-26,134],[-91,199]],[[74404,50420],[-92,-41],[-56,-19],[-98,15],[-132,147],[-115,67],[-156,192],[-177,106],[-145,93],[-150,128],[-198,87],[-223,20]],[[77042,46022],[130,-78],[206,-67],[224,29],[88,52],[198,-47],[181,-6],[-30,179],[-57,294],[24,284],[124,257],[85,438],[106,221],[5,217],[-120,242],[-111,245],[-77,172],[-226,314],[-135,229],[-105,223],[-147,103],[-262,179],[-339,269],[-112,197],[-117,111],[-102,154],[-114,146],[-187,123],[-244,158],[-324,63],[-205,-6]],[[75399,50717],[-162,-43],[-188,-56],[-163,16],[-255,-29],[-130,-105],[-97,-80]],[[74824,49530],[-42,99],[70,93],[45,104],[12,117],[-1,83],[172,83],[140,-6],[77,-16],[97,-69],[37,-87],[-6,-124],[-4,-125],[-24,-59],[-37,-79],[-142,31],[-9,-106],[-121,0],[-79,0],[-105,14],[-80,47]],[[74098,51925],[-61,-28],[-105,-55],[-116,-89],[-172,-129],[-376,-219],[-114,-63],[-292,-127]],[[75399,50717],[-4,121],[56,199],[59,182],[-211,36],[-22,320],[29,227]],[[75306,51802],[-202,-18],[-169,-10],[-144,-4],[-228,0],[-118,-13],[-178,0],[-146,95],[-23,73]],[[79138,59258],[-28,-63],[-1,-95],[-39,-161],[-95,-113],[-177,-61],[-293,-139],[-432,-196],[-351,-626],[-256,-414],[-166,-285],[-353,-305],[-181,-165],[-150,16],[-78,14],[-182,-131],[-208,75],[-429,204],[-383,171],[-386,322],[-352,310],[-408,443],[-162,232]],[[74028,58291],[154,305],[55,187],[56,303],[-35,339],[76,251],[18,147],[13,93],[35,106],[-60,124],[-346,-27],[-89,101],[-139,16],[-42,-92],[39,-166],[-98,-20],[-154,8],[-216,224],[-255,194],[-243,296],[-205,217]],[[74098,51925],[-28,89],[10,164],[13,294],[27,402],[24,377],[32,439],[28,242],[-17,124],[14,87],[-53,196],[-65,257],[-195,258],[-17,115],[-12,437]],[[73859,55406],[201,180],[128,119],[211,245],[264,238],[-119,309],[-222,558],[-202,535],[-88,217],[-78,191],[74,293]],[[88060,56257],[-1,-398],[2,-1460]],[[88061,54399],[-226,0],[-302,2],[-381,-113],[-473,-64],[-779,53],[-468,52],[-623,46],[-359,-24],[-434,-69],[-620,-220],[-474,-233],[-377,-152],[-408,-89],[-731,-66],[-415,-97],[-409,-73],[-294,-67],[-438,178],[-306,-144],[-465,-167],[-106,76],[-599,158],[-355,-162],[-279,-293],[-52,-251],[-108,-271],[-136,-182],[-138,-124],[-257,-99],[-285,-87],[-572,-71],[-490,6],[-396,-50]],[[75928,53870],[81,4],[58,119],[-30,222],[-18,144],[-29,121],[-60,21],[-57,-2],[-189,-5],[-46,-143],[51,-75],[-90,-111],[-6,-285],[-93,-75],[-5,-196],[109,-67],[48,0],[46,87],[141,4],[57,65],[28,71],[4,101]],[[73859,55406],[10,408],[-125,120],[-96,28],[-170,-99],[-191,-115],[-148,50],[-186,109],[-119,-34],[-204,-178],[-129,-81],[-192,-40]],[[72309,55574],[8,-85],[53,-67],[115,-111],[-96,-117],[-98,32],[-72,99],[-29,61],[-92,14]],[[72098,55400],[-107,-155],[-481,-439],[-342,-279],[-387,-350],[-278,-218],[-257,-221],[-222,-164],[-169,-134]],[[69855,53440],[-7,-161],[-145,-188],[-253,-260],[-129,-226],[-85,-236],[93,-406]],[[69329,51963],[106,22],[186,0],[131,-4],[235,-23],[83,-2],[46,-116],[194,-52],[352,-65],[146,-136],[268,-87],[412,-69],[265,-46],[292,-49],[334,-34],[154,-43],[189,-26],[140,-18]],[[72098,55400],[-61,150],[-127,208],[109,119],[155,6],[120,-58],[15,-251]],[[69855,53440],[-49,221],[-186,163],[-232,213],[-153,135],[-221,314],[-266,405],[-60,328],[-7,395],[37,348],[7,255],[-170,383],[-314,619],[-230,311],[-503,210],[-872,456],[-704,348],[-458,-149],[-425,-77],[-448,-4],[-447,56],[-338,80]],[[63816,58450],[239,299],[669,1062],[514,674],[843,1137]],[[66118,64314],[-137,-149],[-392,-70],[-676,-582],[-713,-168],[-239,98],[-1402,-735],[-715,-369],[-784,-437],[-123,-254],[-41,-24],[-203,31],[-247,-368]],[[60446,61287],[163,-52],[182,-143],[134,-95],[-11,-97],[-137,-38],[-70,-8],[-120,30],[-132,-28],[-162,-25],[-107,-108],[-65,-120],[-59,-18],[-79,15]],[[59983,60600],[-30,-160],[-49,-169],[-64,-132],[-27,-159]],[[59813,59980],[468,4],[477,-1],[623,-132],[927,-589],[940,-700],[568,-112]],[[60446,61287],[-253,61],[-74,-109],[-46,-95],[-69,-105],[-81,-34],[-57,-151],[-2,-8],[-13,-51],[47,-113],[85,-82]],[[59813,59980],[-156,26],[-381,59],[-344,-34],[-347,14],[-274,44],[-455,65],[-161,74],[-129,253],[-137,147],[-152,30],[-96,-95],[-44,-139],[-65,-206],[-155,-82],[-215,-111],[-238,-75]],[[69329,51963],[-455,-161],[-229,-155],[-190,-286],[28,-341]],[[68483,51020],[-345,-18],[-267,-4],[-198,-273],[-181,-152],[-316,77],[-418,109],[-137,65],[-155,-89],[-185,-105],[-206,73],[-447,123],[-314,148],[-359,61],[-306,107],[-347,55],[-242,0],[-220,10],[-381,12],[-220,-77],[-262,-8],[-355,-97],[-184,-33],[-599,-113],[-162,-18],[-235,-8],[-272,-33],[-257,-71]],[[60913,50761],[-165,-30],[-176,-54],[-225,-61],[-377,-132]],[[59970,50484],[-45,290],[0,623],[47,285],[-21,448],[-10,431],[8,483],[82,587],[119,562],[99,500],[121,394],[99,734],[23,182]],[[60492,56003],[94,201],[216,374],[96,247],[-46,167],[-91,59],[-159,143],[-135,109],[-40,283],[86,279],[249,480],[223,311],[-200,222],[-438,535],[-240,319],[-294,248]],[[58781,56374],[72,-83],[18,-133],[-96,-186],[-198,-127],[-105,-65],[-70,67],[-50,34],[-6,73],[-27,101],[-13,56],[14,75],[-42,45]],[[58278,56231],[87,22],[121,50],[72,51],[125,8],[98,12]],[[52610,55378],[750,-238],[1369,3],[137,-198],[227,-212],[137,-150],[-7,-168],[-87,-213],[-62,-201]],[[55074,54001],[448,337],[-166,-1690],[-526,-1318],[-429,-820],[-63,-769],[-99,-276],[-42,-117]],[[54197,49348],[76,-30],[73,-26],[137,8],[150,-8],[217,-10],[362,-80],[485,-148],[354,-118],[257,-65],[246,6],[354,90],[579,201],[508,214],[564,318],[564,304],[320,206],[527,274]],[[60492,56003],[-297,115],[-434,109],[-246,121],[-178,95],[-160,87],[-148,91],[-93,-75],[-90,-101],[-65,-71]],[[58278,56231],[-93,-14],[-105,-29],[-49,-46],[-99,-77],[-63,83],[-29,111],[-85,178],[-124,246],[-198,311],[-124,237],[-111,549],[-19,236],[-79,384],[-139,190],[-273,404],[-405,588]],[[58878,39622],[-367,262],[-455,366],[-582,355],[-754,561],[-643,267],[-722,54],[-1306,28],[-649,84],[-309,93]],[[53091,41692],[-387,132],[-383,383],[-553,538]],[[51768,42745],[112,985],[-776,2017]],[[51104,45747],[1077,852],[821,599],[511,543],[392,660],[129,213],[-40,168],[28,80],[44,120],[74,207],[57,159]],[[60913,50761],[4,-220],[65,-185],[53,-307],[31,-416],[-54,-364],[-86,-541],[-88,-419],[-20,-459],[-3,-375],[-26,-168],[48,-359],[37,-402],[22,-474],[235,-516],[243,-628],[94,-302],[-293,33],[-263,-58],[-491,-195],[-337,-187],[-308,-177],[-464,-72],[-265,-157],[-241,-343],[-110,-335],[-92,-463],[-67,-541],[-50,-678],[77,-596],[104,-548],[210,-687]],[[58878,39622],[108,-548],[197,-591],[177,-654],[64,-637],[115,-761],[118,-1049],[148,-1267],[66,-910],[25,-347]],[[54645,27264],[-452,453],[-137,1788],[559,1100],[543,771],[100,579],[-26,479],[-1125,562],[-1156,482],[-804,633],[29,698],[369,273],[819,338],[-1182,1188],[-536,-501]],[[51646,36107],[-352,823]],[[51294,36930],[253,1145],[222,894],[-531,185],[110,337],[1041,189],[-8,923],[383,771],[327,318]],[[68483,51020],[385,-32],[538,-30],[-18,-322],[-115,-316],[-170,-342],[-135,-395],[-91,-343],[-24,-279],[-11,-239],[35,-280],[-33,-511],[-244,-421],[-237,-191]],[[88061,54399],[2,-1246],[46,-91],[103,-20],[99,-11],[107,-1],[30,-85],[-58,-93],[-50,-97],[-60,-89],[-71,-78],[-61,-84],[-93,24],[-36,104],[-45,103],[-82,-33],[0,-115],[-18,-110],[-51,-96],[-74,-78],[-96,-29],[-100,-17],[-76,-75],[-65,-80],[-96,23],[-87,49],[-81,-62],[-93,-48],[-1,-110],[-23,-108],[-8,-113],[-40,-87],[-94,-51],[-69,-81],[-95,-36],[-99,20],[-86,58],[-49,99],[-21,108],[-3,114],[-48,92],[-79,73],[-97,-7],[-43,-102],[-29,-107],[-61,-89],[-53,-95],[7,-110],[75,-78],[-51,-86],[-102,-20],[-73,-57],[28,-111],[46,-99],[17,-110],[-8,-111],[-6,-111],[-34,-105],[-85,-59],[-94,-29],[-86,-59],[-62,-74],[-34,-107],[-75,-74],[-58,-91],[3,-111],[72,-61],[79,69],[81,73],[23,-84],[10,-113],[-2,-109],[79,-68],[104,-2],[85,47],[87,67],[50,-84],[-21,-109],[-41,-101],[-15,-111],[-17,-113],[-65,-67],[-101,-26],[-85,-59],[-75,-76],[-56,-92],[-91,-45],[-53,-37],[67,-91],[9,-99],[-95,-32],[-56,-89],[-86,-38],[48,-102],[58,-92],[45,-100],[21,-110],[81,-39],[75,91],[68,-13],[4,-114],[-27,-108],[-2,-111],[71,-79],[33,-106],[21,-109],[9,-111],[25,-108],[-15,-109],[1,-111],[83,-65],[77,-57],[-4,-114],[-38,-103],[-52,-96],[-40,-102],[-42,-102],[-65,-85],[-70,-79],[-38,-104],[-28,-107],[-13,-111],[21,-108],[27,-107],[-15,-110],[-5,-111],[-36,-105],[1,-110],[4,-58]],[[46055,29819],[503,279],[438,528],[527,367],[607,635],[18,355],[54,585],[122,302],[177,489],[69,287],[-4,404],[-24,271],[-124,410],[-44,297],[92,305],[536,188],[894,446],[451,207],[604,446],[343,310]],[[51768,42745],[-81,-61],[-229,-32],[-429,12],[-632,32],[-272,-42],[-464,-5],[-949,-115],[-423,-19],[-609,153],[-386,99],[-242,-20],[-527,-163],[-629,-158],[-707,132],[-255,83],[-778,293],[-633,335],[-470,323]],[[43053,43592],[71,-335],[24,-242],[176,-284],[159,-244],[196,-179],[14,-160],[-138,-248],[-150,-346],[-113,-122],[-153,-166],[-315,-209],[-162,-47],[15,-94]],[[42677,40916],[137,-550],[-7,-204],[3,-209],[37,-301],[3,-291],[279,-441],[233,-322],[258,-376],[116,-177],[31,-226],[367,-61],[-2,-328],[-548,-565],[-872,-1083],[-357,-760],[-220,-365],[48,-252],[209,-170],[314,45],[459,49],[338,2],[246,-87],[183,-414],[52,-330],[-193,-579]],[[43791,32921],[642,-649],[571,-503]],[[45004,31769],[178,-157],[398,-689],[453,-801],[22,-303]],[[46162,25899],[-78,-415],[-166,-832]],[[45918,24652],[633,-304],[639,-285],[598,-365]],[[47788,23698],[308,148],[205,138],[276,136],[234,140],[354,257],[410,72],[170,2],[151,134],[471,159],[431,100],[897,-161],[216,-7],[288,100],[228,247],[135,172],[66,87],[92,99],[62,83],[114,-117],[130,24],[152,388],[111,212],[118,237],[81,209],[148,159],[152,88],[361,204],[225,145],[271,111]],[[51646,36107],[-436,-378],[-384,-575],[-370,-648],[-120,-1107],[14,-658],[60,-967],[50,-1137],[159,-608],[40,-1037],[26,-972],[-196,-421],[-388,-466],[-152,-188],[-455,-564],[-562,-20],[-281,-188],[-540,-8],[-621,122],[-559,-151],[-702,-229],[-67,-8]],[[46162,25899],[106,991],[-132,411],[34,547],[11,829],[-95,713],[-31,429]],[[47788,23698],[-144,-168],[-156,-213],[-156,-136]],[[47332,23181],[399,-20],[484,90],[423,-236],[277,-186],[108,-232],[22,-176],[45,-462],[-279,-304],[-199,-265],[-411,-324],[-467,-212],[-49,-303],[-141,-448],[-62,-294],[86,-119],[207,-159],[240,-140],[337,-393],[44,-312],[-256,-300],[-155,-159]],[[47985,18227],[270,-238],[248,-237],[170,-275],[-33,-156],[-92,-49],[-141,-152],[-26,-316],[-70,-205],[-104,-180],[-148,-513],[-81,-357],[-34,-404],[55,-546],[116,-343],[-100,-296],[-133,-525],[-8,-316],[37,-161],[15,-176],[52,-440],[59,-287],[525,-358],[858,-855],[662,-653],[826,-655],[991,-671],[498,-284]],[[52397,8579],[56,50],[15,155],[-29,125],[25,107],[-51,134],[-83,193],[14,107],[123,149],[143,255],[180,265],[102,211],[66,487],[117,354],[144,117],[60,180],[86,164],[101,195],[196,147],[264,146],[24,174],[191,306],[174,179],[240,200],[269,156],[201,161],[312,283],[284,239],[327,257],[255,180],[163,116],[72,56],[59,31]],[[52397,8579],[-37,-77],[-25,-83],[1,-112],[-73,-113],[-51,-117],[-116,-88],[-84,-179],[-132,-234],[-117,-193],[-250,-328]],[[51513,7055],[-571,282],[-1263,771],[-1028,913],[-429,485],[-573,917],[-292,370],[-462,177],[-56,267],[-187,270],[-253,371],[-791,756],[-777,1175],[-709,1624],[-1054,349],[-785,-922],[-566,-50],[-640,-817],[-835,-621],[-892,-493],[-636,-672],[-403,-59],[-1106,525],[-1001,265],[-484,-219],[-576,-32],[-840,-41],[-1074,102],[-1629,529],[-317,-150],[-200,275],[-1066,409],[-566,-209],[-520,-11],[-241,-132],[-239,248]],[[28452,13707],[674,732],[935,341],[74,523],[-251,238],[-486,11],[-218,187]],[[29180,15739],[402,100],[452,78],[651,50],[713,-106],[373,-94],[622,-210],[1040,681],[895,755],[837,735]],[[35165,17728],[194,171],[1058,906],[525,159],[534,47]],[[37476,19011],[750,81],[846,-143],[740,-177],[969,-323],[710,-255],[666,-221],[333,-275],[214,189],[500,65],[190,249]],[[43394,18201],[324,-138],[403,-53],[466,-66],[296,-78],[399,-73],[322,-95],[328,159],[323,51],[431,43],[293,190],[221,200],[292,82],[246,-20],[247,-176]],[[51513,7055],[-166,-332],[-119,-219],[-1516,-2170],[-1171,-1922],[-15,-26],[-94,-137],[-91,-140],[-91,-140],[-91,-139],[-87,-143],[-85,-145],[-89,-140],[-94,-138],[-79,-149],[-106,-132],[-107,-324],[-86,-153],[-49,-153],[-6,-175],[-102,-120],[-154,-58],[-105,103],[-33,172],[-131,83],[-153,27],[-153,-5],[-145,-58],[-152,17],[-148,53],[-141,58],[-103,130],[-119,107],[-150,36],[-150,37],[-155,12],[-128,93],[-65,42],[-57,58],[-54,166],[-82,126],[-69,48],[-107,24],[-34,87],[7,83],[-103,131],[-40,82],[2,41],[-25,31],[-40,-15],[-23,-31],[-31,-39],[-32,-23],[-17,-82],[-91,-104],[-139,-94],[-112,-119],[-133,-83],[-155,-19],[-152,-21],[-151,-41],[-154,-31],[-136,69],[-54,160],[22,171],[55,161],[46,165],[41,167],[56,161],[87,143],[101,130],[95,137],[87,143],[43,164],[-19,174],[-91,133],[-130,29],[-188,41],[-176,-3],[-256,-3],[-81,21],[-72,43],[-122,96],[-142,69],[-101,58],[-88,47],[-108,30],[-142,31],[-104,7],[-147,-5],[-182,-19],[-148,-26],[-134,-20],[-144,-25],[-130,-26],[-143,-36],[-146,-36],[-55,-36],[-40,-60],[-55,-101],[-39,-47],[-49,-31],[-87,-16],[-100,7],[-126,21],[-123,38],[-196,29],[-164,4],[-141,-5],[-150,17],[-133,-5],[-157,-24],[-147,-39],[-152,-29],[-152,-43],[-148,-32],[-144,-64],[-148,-45],[-150,-42],[-145,-59],[-145,-58],[-154,-18],[-132,-65],[-120,-79],[-80,-86],[-45,-67],[-91,-67],[-44,-13],[-114,0],[-141,45],[-174,-4],[-152,-29],[-146,-56],[-153,-12],[-147,49],[-150,40],[-154,12],[-144,61],[-138,65],[-155,-24],[-153,0],[-151,40],[-137,75],[-139,77],[-153,15],[-149,40],[-135,85],[-152,22],[-151,-36],[-136,-80],[-150,-34],[-154,6],[-153,17],[-144,-19],[-148,-31],[-66,-38],[-95,-44],[-148,-24],[-147,-44],[-132,-92],[-145,-47],[-153,25],[-151,41],[-153,-5],[-153,4],[-147,50],[-153,24],[-149,-40],[-146,-58],[-150,37],[-147,48],[-153,-24],[-152,-30],[-153,-18],[-152,-20],[-162,42],[-251,19],[-199,-19],[-140,-60],[-137,-117],[-28,-144],[33,-106],[-11,-28],[-71,-52],[-74,44],[-57,75],[-30,72],[-58,136],[-187,39],[-193,34],[-221,6],[-253,45],[-181,-14],[215,594],[232,630],[156,506],[324,513],[-11,445],[-341,488],[-67,511],[263,684],[484,586],[-154,533],[-140,722],[16,428],[-66,598],[-4,566],[-164,676],[-39,314],[-23,175],[-88,331],[33,536],[-63,643],[-163,374],[8,164],[-47,231]],[[28554,25559],[-118,154],[-155,151],[-193,350],[-249,367],[-368,538],[-261,196],[-333,78],[-355,49],[-314,40],[-605,74],[-340,31],[-216,63],[-176,18],[-152,-57],[-231,-204],[-148,-202],[-87,-186],[-72,-111],[-105,-186],[-91,-145]],[[23985,26577],[-108,-325],[127,-325],[517,-53],[828,-1085],[586,-896],[783,-716],[32,-698],[-997,-864],[-704,-830],[1873,-2227],[312,-561],[-421,-1470],[618,-1355],[1749,567]],[[35165,17728],[-98,1299],[-55,1465],[81,1365],[36,292]],[[35129,22149],[-217,-112],[-279,-175],[-363,-105],[-399,-100],[-148,-14],[-226,-32],[-333,-22],[-199,-131],[-363,-107],[-333,-41],[-283,-174],[-373,-129],[-290,-116],[-122,-168],[-235,-121],[-174,-166],[-146,33],[-102,170],[20,125],[82,264],[61,190],[103,377],[-138,274],[-196,242],[-124,186],[-43,90],[-59,33],[-118,-150],[-85,-149],[-84,115],[-103,151],[-128,-4],[-96,90],[9,147],[-122,215],[-16,182],[-6,121],[91,114],[105,235],[126,137],[30,324],[-95,326],[-76,122],[-88,178],[-52,141],[26,105],[16,88],[-9,100],[-68,68],[-132,59],[-151,48],[-104,40],[-129,89],[-189,91],[-248,156]],[[28660,25775],[-106,-216]],[[23985,26577],[-67,61],[-144,237],[-182,325],[-298,-16],[-392,-374],[-977,-300],[-982,-210],[-660,-158],[-465,1023],[-619,-82]],[[19199,27083],[-305,-173],[-177,432],[-176,369],[-2,431],[-309,1029],[-1577,977],[541,692],[339,462]],[[17533,31302],[7,10],[96,291],[-261,400],[-242,289],[-184,287],[-226,353],[-43,443],[226,427],[668,584],[334,277],[276,411],[511,642],[717,603],[718,611],[704,1044],[919,979],[72,25]],[[21825,38978],[398,23],[825,-53],[610,-492],[447,-492],[137,-973]],[[24242,36991],[242,-234],[226,-211],[146,-133],[366,-371],[178,-85],[244,-208],[233,-106],[177,-49],[126,0],[56,-350],[107,-171],[83,104],[242,6],[244,-208],[254,-149],[246,-254],[101,-190],[82,-280]],[[27595,34102],[-156,-24],[-262,-24],[-207,120],[-23,149],[-38,61],[-104,-157],[-70,-263],[-30,-169],[52,-169],[174,-37],[296,17],[179,-27],[118,-65],[37,-194],[50,-96],[63,39],[109,127],[91,53],[133,4],[246,57],[155,121]],[[28408,33625],[55,-88],[65,-110],[29,-108],[13,-171],[30,-59],[437,-182],[388,32],[145,0],[288,123],[189,77],[318,20],[222,-142],[197,67],[111,139],[93,142],[76,202]],[[31064,33567],[223,-154],[-56,-255],[-34,-92],[-204,-265],[-129,-229],[-403,-179],[-1807,-333],[-395,-509]],[[28259,31551],[-426,-274],[-144,-216],[-55,-208],[11,-151],[262,-371],[296,-298],[-30,-258],[84,-234],[13,-308],[63,-299],[-60,-249],[-129,-253],[-81,-180],[22,-310],[192,-531],[56,-519],[110,-388],[145,-450],[59,-134],[13,-145]],[[28460,33787],[-50,43],[-76,33],[-24,89],[17,61],[-50,8],[-41,7],[-46,4],[-246,22],[-111,45],[-238,3]],[[28408,33625],[52,162]],[[31064,33567],[-96,136],[-329,59],[-13,-6],[-6,4],[-431,-71],[-346,-32],[-338,148],[-498,-1],[-250,46]],[[28757,33850],[-297,-63]],[[24242,36991],[844,1042],[1878,915],[1002,334],[67,25]],[[28033,39307],[907,347],[200,86]],[[29140,39740],[89,-413],[74,-320],[28,-482],[24,-405],[-18,-340],[11,-405],[22,-567],[24,-385],[-24,-342],[-154,-367],[-157,-497],[-157,-464],[-92,-237],[-50,-385],[-3,-281]],[[31887,30701],[-624,45],[-604,140],[-1250,244],[-546,135],[-604,286]],[[29140,39740],[587,254],[1187,520],[389,132],[411,90],[599,158]],[[32313,40894],[439,116],[769,512],[881,638],[854,632]],[[35256,42792],[-82,-409],[-51,-564],[70,-281],[-33,-337],[-137,-996],[-96,-622],[-97,-614],[-40,-489],[-224,-673],[-214,-484],[-294,-601],[-526,-782],[-333,-680],[-192,-855],[-211,-673],[-136,-461],[-415,-1211],[-358,-1359]],[[37503,31778],[-1172,-251],[-914,-63],[-579,-57],[-688,-344],[-533,-238],[-447,-49],[-645,-142],[-638,67]],[[35256,42792],[257,66],[209,-15],[355,-516],[455,-354],[192,-195],[152,85],[222,147],[196,8],[292,-73],[122,-187],[-174,-394],[-126,-452],[-85,-386],[45,-508],[-137,-561],[-130,-570],[-7,-419],[296,-309],[242,-177],[405,-283],[203,-142],[95,-173],[-34,-212],[-124,-153],[-81,-96],[-140,-164],[181,-110],[288,-69],[200,-29],[76,-116],[-80,-110],[-366,-442],[-127,-451]],[[38128,35432],[-13,-82],[-152,-281],[-307,-632],[-22,-346],[-56,-820],[-59,-978],[-8,-273],[-8,-242]],[[38128,35432],[453,-17],[578,-67],[34,-249],[59,-509],[153,-548],[189,-102],[355,12],[33,-110],[-127,-87],[-298,-11],[-19,-195],[19,-151],[111,-110],[299,142],[459,21],[348,-78],[247,-216],[89,-216],[740,70],[765,53],[474,-37],[702,-106]],[[45004,31769],[-329,-414],[-684,-722],[-518,-396],[-207,-115]],[[43266,30122],[-377,-208],[-636,-555],[-610,-216],[-825,-66],[-1030,211],[-636,45],[-586,120],[-218,285]],[[38348,29738],[-452,21],[-419,10]],[[37477,29769],[-21,349],[26,527],[11,457],[10,676]],[[38409,44375],[345,-347],[498,-542],[148,-152],[566,-431],[166,-402],[-192,-413],[111,-206],[-152,-155],[233,-244],[-48,-279],[116,-117],[-48,-313],[-188,-520],[-145,-407],[233,-695],[97,-411],[88,-342],[100,-391],[85,-118],[858,-81],[544,8],[44,582],[0,419],[-55,423],[266,179],[159,244],[110,220],[134,288],[112,551],[83,193]],[[35256,42792],[116,85],[647,402],[394,406],[314,315],[478,334]],[[37205,44334],[74,51],[395,364],[337,-108],[398,-266]],[[43053,43592],[-168,115],[-610,549],[-555,653],[-536,716],[-231,539],[-101,18]],[[40852,46182],[-328,58],[-612,-272],[-461,-507],[-534,-254],[-172,-172],[-170,-438],[-36,-48]],[[38539,44549],[-130,-174]],[[28660,25775],[285,134],[1107,-275],[427,-345],[413,197],[706,1001],[100,466],[329,270],[747,102],[688,94],[174,311],[266,412],[318,315],[440,253],[403,159],[600,368]],[[35663,29237],[48,85],[136,323],[163,310],[133,220],[189,245],[141,-187],[429,-339],[347,-131],[228,6]],[[35129,22149],[75,514],[719,-9],[239,134],[94,203],[35,311],[-325,294],[56,538],[1085,467],[305,509],[401,382],[536,830],[289,689]],[[38638,27011],[-137,35],[-179,-288],[-133,-1],[-172,151],[-275,88],[-273,333],[-14,248],[-106,162],[-347,-7],[-163,74],[-148,-72],[-187,-74],[-85,94],[-124,351],[-224,39],[-35,332],[78,306],[-129,165],[-165,15],[-124,103],[-33,172]],[[41364,25509],[62,63],[193,211],[195,137],[175,130],[162,112],[157,135],[268,248],[402,385],[290,804],[78,419],[22,752],[-13,866],[-89,351]],[[38348,29738],[-222,-350],[-39,-492],[216,-578],[207,-572],[34,-445],[94,-290]],[[38638,27011],[489,-59],[173,-290],[380,-487],[265,-52],[333,19],[203,-178]],[[40481,25964],[24,-14],[110,-91],[193,-6],[300,-61],[120,-81],[92,-125],[44,-77]],[[40481,25964],[192,-261],[59,-80],[368,-380],[65,-67],[-11,-21],[-378,-754],[18,-326],[227,-354],[-136,-7],[-38,-41],[-75,-120],[-51,-191],[110,-118],[28,-194],[54,-208],[105,-494],[505,185]],[[41523,22533],[89,229],[56,112],[47,96],[63,113]],[[41778,23083],[20,213],[-56,192],[-30,96],[4,186],[1,12],[-29,290],[93,181],[-55,187],[-86,57],[43,50],[4,143],[6,317],[-34,165],[-83,93],[-212,244]],[[45918,24652],[-772,358],[-504,-201],[-644,-369],[-406,-191],[-405,-272],[-352,-227],[-273,-119],[-240,-147],[-258,-113],[-170,-155],[-116,-133]],[[41523,22533],[-54,-258],[-97,-221],[-157,-511],[-1021,-97],[-402,-105],[-416,-246],[-756,-445],[-475,-215],[-840,-322],[171,-1102]],[[43394,18201],[142,121],[777,200],[455,500],[44,341],[85,553],[71,348],[276,265],[504,259],[325,213],[359,418],[167,303],[58,386],[308,442],[306,578],[61,53]],[[39464,64741],[213,-411],[161,-330],[198,-389],[405,-632],[292,-404],[316,-326],[333,-347],[259,-218],[303,-145],[550,-282],[445,-222],[333,-215]],[[41656,66790],[34,-1042],[-821,-505],[-839,-199],[-566,-303]],[[42435,59085],[-267,253],[-229,226],[-625,85],[-404,79],[-249,-188],[-198,-4],[-272,164],[-216,179],[-512,34],[-173,-145],[-325,111],[-216,269],[-686,351],[76,445],[-296,466],[-100,147],[-37,154],[-30,248],[27,270]],[[37703,62229],[481,271],[299,308],[316,536],[162,440],[269,537],[148,313],[86,107]],[[35210,61183],[1245,371],[634,292],[283,109],[331,274]],[[42144,58013],[-145,-67],[-131,-77],[-190,-47],[-266,-35],[-304,-59],[-349,-79],[-237,10],[-423,48],[-243,14],[-184,7],[-400,-19],[-331,-50],[-76,52],[-175,-109],[-276,-155],[-179,-91],[-279,-22],[-295,93],[-443,206],[-422,198],[-212,143],[-185,208],[-207,261],[-312,82],[-287,110],[-448,-37]],[[35145,58598],[-10,233],[-11,334],[-15,431],[-22,418],[-31,384],[26,296],[26,333],[102,156]],[[40437,54557],[-102,77],[-186,129],[-237,69],[-138,19],[-135,-58],[-154,-82],[-27,-17],[-178,-113],[-239,-182],[-205,-198],[-191,-115],[-375,-81],[-324,-55],[-168,148],[-45,30],[-9,7],[-170,121],[-168,28],[-98,6],[-301,-83],[-410,-124],[-339,-167],[-220,-214]],[[36018,53702],[-186,72],[-44,71],[-18,282],[-11,448],[39,411],[76,688],[-34,311],[-26,242],[-54,131],[-26,156],[90,87],[207,163],[158,147],[67,108],[-16,119],[-47,136],[-17,16],[-104,93],[-324,118],[-180,84],[-175,47],[-242,73],[-7,521],[1,372]],[[42144,58013],[-109,-188],[-22,-23],[-440,-464],[-391,-633],[-302,-610],[223,-629],[-412,-546],[-254,-363]],[[34896,52223],[366,-27],[262,54],[381,114],[320,79],[378,139],[269,141],[182,7],[138,-63],[325,45],[341,177]],[[37858,52889],[200,53],[471,-295],[261,160],[434,59],[551,71],[130,-233],[127,-303],[123,-240],[120,-164],[-75,-80],[-44,-85],[-131,-90],[-482,-216],[-511,-282],[-407,-254]],[[38625,50990],[80,-512],[183,-529],[75,-498],[71,-553],[48,-252],[337,-452],[166,-374],[279,-402],[213,-298],[164,-184],[291,-303],[164,-145]],[[40696,46488],[344,263],[172,310],[166,379],[67,321],[50,267],[13,229]],[[41508,48257],[-148,167],[-194,229],[-187,321],[-73,194],[-58,153],[-26,415],[-48,545],[-89,697],[-59,611],[19,323],[-30,313],[-42,216],[-178,619],[-97,225],[40,297],[86,468],[56,328],[-43,179]],[[36018,53702],[-17,-16],[-316,-136],[-183,-185],[-164,-192],[-134,-197],[-62,-142],[-11,-25],[-6,-13],[-12,-28],[-64,-146],[-39,-90],[-68,-184],[-46,-125]],[[35210,61183],[-97,-29],[-336,-174],[-563,-293],[-1004,-476],[-1087,-576],[-1131,-447],[-909,-468],[-871,-329],[-581,-341],[-106,-125],[-20,-25],[-40,-47],[-17,-20],[-31,-37],[-165,-262],[-30,-55],[-102,-188]],[[28120,57291],[44,-70],[435,-638],[159,-292],[-142,-607],[-43,-288],[158,-367],[46,-75],[303,-492],[194,-230],[220,-205],[242,-232]],[[29736,53795],[65,-68],[373,-573],[96,-164],[40,-67],[1,-2],[2,-3],[2,-3],[3,-5],[3,-6],[21,-35],[156,-265],[5,-9],[43,-73],[488,-791],[492,-607],[281,-393],[130,-171]],[[31937,50560],[70,74],[118,314],[152,352],[103,204],[193,213],[235,241],[237,161],[280,169],[167,78],[114,0],[133,39],[91,113],[86,-9],[50,-14],[104,-60],[95,-92],[104,-101],[229,14],[229,33],[169,-66]],[[37858,52889],[-685,-1017],[318,-677],[362,-40],[40,-5],[307,21],[258,50],[65,0],[102,-231]],[[40852,46182],[-156,306]],[[34896,52223],[88,-581],[72,-405],[-94,-273],[0,-600],[-43,-690],[-7,-288],[-29,-127],[-22,-94]],[[34861,49165],[114,-117]],[[34975,49048],[399,253],[322,74],[222,51],[240,-34],[173,-101],[119,-36],[289,-487],[150,-310],[168,-134],[144,-200],[146,-260],[115,-346],[357,-429],[183,-534],[106,-499],[118,-486],[181,-430],[100,-188],[32,-403]],[[43052,49753],[50,326],[111,553],[105,490],[54,291],[-59,284],[-253,653],[-87,313],[107,592],[109,881],[88,714],[73,526],[-115,420],[-144,259],[-280,560],[-315,470],[-162,507],[-190,421]],[[41508,48257],[118,132],[134,211],[129,203],[172,245],[120,140],[436,307],[435,258]],[[51104,45747],[-271,732],[-399,763],[-119,324],[-10,117],[0,2],[-1,17],[-1,3],[-1,15],[0,4],[-1,8],[0,3],[-1,7],[0,6],[-1,4],[0,5],[-1,6],[0,6],[-1,12],[-1,6],[-1,12],[0,6],[-2,15],[-1,15],[-2,26],[-1,9],[-1,16],[-1,8],[-1,12],[-2,21],[-1,19],[-1,4],[-1,15],[-1,7],[0,5],[0,5],[-1,3],[-1,14],[0,2],[0,2],[0,2],[-1,2],[0,3],[0,3],[0,3],[-1,3],[0,2],[0,2],[0,2],[0,2],[-1,2],[0,3],[0,1],[0,3],[0,2],[0,3],[-1,1],[0,3],[0,1],[0,3],[0,3],[-1,1],[0,2],[0,2],[0,4],[0,1],[-1,3],[0,2],[0,1],[0,2],[0,1],[0,2],[0,2],[-1,2],[0,3],[0,2],[0,2],[0,3],[-1,2],[0,2],[0,2],[0,3],[0,1],[-1,4],[0,2],[0,3],[0,2],[0,2],[-1,2],[0,2],[0,3],[0,2],[0,3],[-1,2],[0,2],[0,2],[0,2],[0,2],[-1,4],[0,1],[0,3],[0,1],[0,1],[0,2],[-6,67],[-1,15],[-7,77],[-13,159],[-13,161],[-1,8],[0,9],[-1,9],[-1,12],[-28,60],[-3,7],[-105,227],[-7,15],[-9,19],[-12,26],[-12,26],[-6,14],[-7,13],[-8,18],[-5,12],[-9,19],[-8,16],[-6,14],[-8,17],[-8,19],[-7,13],[-6,14],[-3,5],[-1,4],[-5,9],[-1,3],[-2,3],[-6,6],[-4,5],[-5,6],[-6,6],[-6,6],[-6,8],[-4,4],[-6,7],[-6,7],[-7,7],[-5,6],[-6,6],[-6,7],[-5,6],[-6,6],[-5,6],[-6,6],[-6,7],[-236,263],[-251,279],[-349,824],[-92,207],[-153,288],[-248,417],[-231,346],[-50,121]],[[48246,52091],[-421,-194],[-792,-285],[-856,-412],[-570,-165],[-474,-236],[-607,-337],[-413,-201],[-469,-194],[-592,-314]],[[55074,54001],[-117,-113],[-369,-241],[-289,-168],[-504,-196],[-393,-121],[-391,-10],[-344,-126],[-672,-99],[-590,-135],[-672,-81],[-490,-71],[-420,-95],[-156,-55],[-470,-178],[-417,-81],[-339,-77],[-195,-63]],[[48247,54122],[-265,97],[-144,121],[-158,233],[-118,120],[-24,313],[-6,111]],[[47532,55117],[-106,226],[-132,225],[-197,76],[-324,271],[-322,-20],[-47,311],[-34,151],[-121,58]],[[46249,56415],[-139,-87],[-153,-156],[-74,-4],[-111,79],[-168,166],[-166,290],[-175,269],[-110,315],[59,284],[176,220],[309,439],[238,325],[180,242],[-141,217],[-57,120]],[[48246,52091],[-181,461],[-139,421],[9,348],[106,385],[48,285],[158,131]],[[49293,57603],[50,3],[230,27]],[[46249,56415],[293,213],[393,183],[184,126],[334,230],[224,102],[146,139],[223,85],[339,35],[654,60],[254,15]],[[49293,57603],[50,-322],[11,-507],[22,-418],[36,-451],[122,-334]],[[49534,55571],[-369,-130],[-139,-62],[-469,-205],[-165,66],[-860,-123]],[[48247,54122],[135,-49],[417,78],[708,36],[587,127],[7,259],[37,157],[-46,97],[-103,61],[5,236],[-53,152],[-147,118],[-112,78],[-148,99]],[[34754,47941],[100,62],[129,12],[151,50],[174,54],[159,132],[61,113],[-15,128],[11,114],[-11,185],[-158,100],[-113,180],[-267,-23]],[[34861,49165],[-3,-49],[-20,-343],[-124,-320],[-25,-64],[-218,-245]],[[34471,48144],[25,2],[63,13],[85,-21],[26,-39],[44,-65],[40,-93]],[[34471,48144],[-823,-74],[-119,-20],[-281,-47],[-270,-63],[-340,-93],[-285,-59],[-305,-79],[-167,-42]],[[31881,47667],[-13,278],[-233,118],[-96,455],[57,347],[-111,520],[-24,344],[129,401],[32,101],[315,329]],[[31885,47586],[22,-103],[2,-478],[13,-469],[5,-434],[2,-438],[32,-864],[13,-443],[11,-73],[116,-713],[137,-936],[-6,-719],[32,-687],[49,-335]],[[37205,44334],[-301,481],[-263,437],[-183,359],[-126,363],[-183,359],[-148,278],[-224,211],[24,181],[-284,190],[-282,205],[-134,-19],[-231,-120],[-163,-31],[-73,103],[-25,144],[46,271],[99,195]],[[31881,47667],[4,-81]],[[31885,47586],[-279,-18],[-174,-18],[-582,-80],[-600,-92],[-375,-37],[-458,-45],[-535,-68],[-481,10],[-525,-31],[-488,-13],[-592,-2],[-523,7],[-722,51],[-532,8],[-288,-45],[-774,-137],[-214,-66],[-375,-76],[-377,-58],[-101,17],[-110,105],[-111,165]],[[22669,47163],[98,109],[69,50],[149,104],[24,81],[156,83],[166,-10],[131,93],[29,134],[-1,161],[2,244],[-11,270],[-13,375],[-104,-34],[-119,44],[-75,96],[42,101],[86,107],[28,42],[13,52],[-113,21],[-281,45],[-352,69],[-275,2],[-263,164],[-29,89],[80,114],[167,123],[55,106],[3,117],[-21,108],[-54,60],[-126,39],[-213,-23],[-110,47],[-20,139],[98,238],[30,212],[38,273],[-72,230],[-153,265]],[[21728,51703],[233,-4],[308,246],[125,497],[83,563],[124,614],[50,1412]],[[22651,55031],[147,-306],[274,-441],[210,-390],[54,-302],[69,-394],[127,-431],[54,-384],[207,-395],[144,-405],[137,-237],[-2,-216],[146,-278],[17,-307],[-24,-185],[-46,-184],[-243,-67],[-273,50],[-211,180],[-117,40],[-232,11],[-136,-64],[-51,-99],[-26,-227],[255,-11],[516,-52],[392,-93],[368,-130],[643,189],[590,-137],[294,-115],[198,-91],[196,0],[264,108],[437,-47],[390,-101],[329,-39],[152,81],[111,166],[71,530],[66,450],[83,488],[225,308],[238,200],[13,34],[114,278],[8,26],[100,348],[194,378],[315,614],[298,413]],[[28120,57291],[-55,-102],[-144,-43],[-404,78],[-121,183],[-67,-334],[-242,-210],[-310,-97],[-476,-243],[-496,-313],[-188,-119],[-1499,-1281],[-630,5],[-837,216]],[[28033,39307],[-4,325],[-118,294],[-144,159],[-472,236],[-367,290],[-509,421],[-261,496],[-259,354],[-16,206],[53,438],[-7,233],[-61,179],[-485,67],[-439,-15],[-489,-74],[-416,-74],[-686,27],[-511,16],[-511,16],[-336,-286]],[[21995,42615],[148,640],[85,674],[21,406],[20,680],[17,537],[35,471],[37,551],[42,366],[93,98],[176,125]],[[21825,38978],[193,200],[66,161],[158,297],[160,309],[148,226],[110,238],[39,238],[21,192],[-27,177],[-20,104],[-166,126],[-63,18]],[[22444,41264],[-92,91],[-192,177],[-104,110],[-181,199],[-90,162],[7,86],[13,148],[63,152],[76,126],[51,100]],[[22444,41264],[-144,-112],[-283,-83],[-113,61],[-104,83],[-112,161],[-212,12],[-440,24],[-274,-14],[-244,-45],[-207,-150],[-231,83],[-336,136],[-299,59],[-488,181],[-366,155],[-117,632],[-37,167],[18,355],[21,609],[-18,178],[-273,416],[-240,32],[-233,3],[-292,-10],[-285,46],[-338,260],[-451,272]],[[16346,44775],[23,230],[-11,345],[-130,310],[-243,521],[-260,112],[-353,158]],[[15372,46451],[251,328],[200,299],[63,346],[-78,515],[-7,282],[-9,375],[334,492],[744,557],[14,497],[-14,536],[-13,353],[-95,292],[-50,216],[-32,213]],[[16680,51752],[120,12],[1052,-170],[2468,-46],[500,45],[580,22],[328,88]],[[15372,46451],[-198,-217],[-407,-32],[-301,2],[-475,76],[-459,37],[-291,85],[-474,158],[-285,341],[-199,267],[-107,199],[-234,102],[-199,-9],[-293,-97],[-167,-97],[-239,-223],[-230,-353],[-99,-207],[-20,-409]],[[10695,46074],[-207,198],[-484,349],[-317,389],[-286,329],[-403,369],[-370,414],[-5,20],[-58,227],[-129,409],[-181,344],[-78,191],[115,210],[0,268],[-162,102],[-247,90]],[[7883,49983],[158,44],[200,65],[143,56],[108,59],[140,21],[122,77],[167,105],[196,123],[176,111],[177,111],[156,98],[1136,848],[408,713],[-114,497],[460,584],[88,53],[450,267],[180,97],[137,-218],[96,-115],[206,128],[106,154],[77,33],[108,-322],[69,-222],[92,-327],[96,-442],[256,-394],[100,49],[143,1],[282,-93],[421,52],[477,98],[178,174],[159,271],[129,105],[104,-85],[181,-482],[365,-849],[281,284],[383,40]],[[10695,46074],[233,-512],[259,-491],[381,-470]],[[11568,44601],[-229,20],[-344,85],[-262,-69],[-316,-71],[-29,-6],[-387,-240],[-201,29],[-203,77],[-326,146],[-251,77],[-359,146],[-84,231],[-113,93],[-242,15],[-203,-144],[-78,-160],[-70,-259],[-89,-89],[-122,-14],[-80,49],[-68,164]],[[7512,44681],[-7,15],[-120,164],[-266,116],[-399,43],[-355,213],[-317,-42],[-308,51],[-372,167],[-350,139],[-632,552],[-258,119],[-82,38],[-351,215],[-189,248],[-416,1015]],[[3090,47734],[86,45],[76,31],[50,29],[34,64],[55,107],[41,126],[68,108],[56,157],[27,122],[0,109],[28,103],[15,101],[1540,129],[298,26],[209,231],[112,132],[131,180],[83,14],[85,14],[124,31],[367,127],[239,195],[6,195],[528,-77],[314,-60],[221,10]],[[3090,47734],[-344,-177],[-543,-206],[-267,-370],[-348,-112],[-392,-311],[-75,-521],[-255,-344],[-422,92],[-21,-27],[-160,-96],[-83,-83],[-49,-137],[-50,-126],[-30,-153],[-51,-188],[25,-161],[121,-252],[149,-315],[248,-352],[-68,-281],[343,-498]],[[818,43116],[289,-223],[96,-67],[178,-150],[422,-81],[351,-21],[207,86],[472,203],[580,251],[389,72],[340,-17],[291,-129],[25,-11],[329,-199],[318,-246],[165,-121],[262,-254],[113,-132],[473,-555],[18,-16],[269,-242],[205,-137],[15,-9],[320,-358],[185,-149],[255,-185],[387,-197],[197,-101],[174,-92],[212,-206]],[[8355,39830],[262,54],[71,36],[3,256],[25,173],[15,100],[78,175],[-499,459],[-273,491],[-118,423],[-71,610],[-162,275],[-426,513],[38,400],[95,408],[97,275],[22,203]],[[8355,39830],[178,-260],[76,-153],[41,-82]],[[8650,39335],[264,-306],[295,-370],[233,-297],[156,-232],[169,-118],[207,-28],[176,-28],[53,-9],[274,-8],[581,-415],[480,-448],[174,-179],[622,-151],[200,-12]],[[12534,36734],[125,458],[93,366],[77,471],[-18,232],[107,423],[22,280],[-181,497],[-17,287],[-4,82],[154,375],[-41,484],[-25,353],[66,325],[150,390],[16,40],[13,33],[9,37],[86,346],[-7,336],[-152,431],[-466,403],[-402,466],[-268,411],[-303,341]],[[16346,44775],[-125,-215],[-230,-548],[-185,-938],[8,-512],[85,-374],[-8,-292],[-173,-565],[-188,-482],[-100,-382],[-160,-250],[-325,-150],[-141,-90],[-155,-183],[-93,-199],[-88,-321],[-123,-610],[-33,-403],[0,-216],[19,-269],[-15,-293],[-163,-252],[-177,-163],[-100,-146],[-119,-277]],[[13757,36645],[-891,69],[-332,20]],[[17123,40766],[258,-55],[235,-155],[130,-33],[77,222],[449,-291],[100,-42],[107,17],[119,-7],[4,-43],[-27,-76],[-2,-64],[14,-4],[84,-8],[3,20],[105,-8],[1,-24],[225,-30],[-5,-247],[-61,-11],[6,-47],[-215,-10],[-9,0],[4,-70],[-10,-33],[-74,-17],[-270,-59],[-11,-67],[-11,-51],[-175,48],[-271,51],[-195,28],[-202,94],[-125,52],[-79,37],[-67,117],[-22,82],[-39,78],[-67,-5],[-125,-7],[-188,13],[-65,-11],[-188,61],[-82,122],[-39,56],[35,132],[29,107],[100,-64],[281,-28],[157,289],[123,2],[-22,-61]],[[14179,33614],[134,89],[192,21],[288,-29],[300,-220],[284,-183],[560,-547],[377,-326],[387,-355],[407,-420],[122,-138],[303,-204]],[[13757,36645],[-33,-269],[11,-301],[-33,-342],[89,-416],[59,-464],[45,-305],[18,-119],[186,-361],[91,-303],[-11,-151]],[[11671,30739],[-121,-53],[-72,-108],[-70,-147],[-61,-217],[-19,-106],[23,-126],[155,-155],[233,-84],[98,-67],[117,-43],[223,-82],[161,-24],[109,71],[85,167],[-14,131],[36,71],[63,117],[50,102],[59,110],[21,51],[-28,96],[-79,190],[-163,79],[-226,23],[-172,32],[-238,17],[-170,-45]],[[12040,23787],[-114,146],[-259,125],[-484,199],[-187,166],[-241,307],[-383,394],[-499,426],[-363,332],[-183,258],[-300,223],[-185,142],[-183,117],[-239,365],[-400,280],[-309,-11],[-426,151],[-329,171],[-112,238],[-106,212],[-22,11],[-266,140],[-289,204],[-276,62],[-90,20],[-107,122],[-16,262],[-93,351],[-309,151],[-173,104]],[[5097,29455],[-38,-26],[-260,-179],[-317,-218],[-254,-32],[-271,-35],[-45,-5],[-257,-357],[-244,-339],[-39,-54],[-169,-234],[-167,-232],[-216,-86],[-80,-32],[-171,-67],[-467,-301],[-229,-148],[-76,-19],[-88,-21],[-100,-24],[-124,-116],[-63,-59],[-72,-419],[-12,-70],[-1,-4],[-48,-212],[34,-363],[26,-85],[23,-72],[4,-15],[6,-23],[9,-32],[3,-11],[8,-33],[42,-161],[43,-116],[88,-348],[113,52],[208,95],[218,92],[185,133],[192,129],[185,242],[36,-205],[26,-148],[34,-197],[331,-1904],[481,-701],[139,-265],[36,-203],[4,-207],[-4,-7],[-72,-161],[-59,-133],[46,-231],[-153,-178],[-155,-117],[-226,-135],[-390,-111],[-89,-18],[24,-128],[26,-146],[14,-142],[451,39],[271,-153],[28,-17],[11,-6],[393,86],[330,178],[415,244],[488,-449],[112,-102],[419,-214],[437,420],[855,-572],[173,-151],[1145,65],[345,-843],[471,-882],[240,-333],[405,-313],[115,263],[172,249],[-139,412],[46,300],[-61,168],[-68,294],[52,373],[40,423],[-27,550],[354,434],[357,622],[317,552],[344,645],[824,1192]],[[5097,29455],[257,104],[11,5],[125,34],[53,14],[159,119],[248,171],[230,114],[244,180],[185,129],[114,79],[286,149],[258,165],[359,147],[214,110],[355,115],[80,99],[1,1],[163,206],[171,91],[62,137],[200,33],[182,255],[143,312],[226,187],[366,159],[289,98],[203,0],[207,8],[174,-61],[300,-4],[288,139],[116,193],[199,-130],[358,-35],[292,49],[252,90],[392,41],[68,18],[335,92],[200,29],[244,36],[366,267],[107,214]],[[19199,27083],[140,-529],[-129,-1020],[107,-784],[-9,-327],[-572,-807],[-343,435],[-558,210],[-2109,-567],[-588,298],[-836,235],[-694,221],[-839,405],[-237,-176],[-190,-522],[-33,-40],[-269,-328]],[[3314,34673],[22,220],[40,176],[108,150],[251,-8],[121,8],[212,13],[419,76],[484,167],[210,192],[323,423],[155,128],[117,97],[23,13],[197,118],[128,77],[98,70],[272,194],[218,277],[122,313],[96,213],[30,68],[140,240],[81,47],[167,96],[385,195],[556,264],[106,-5],[178,-7],[-95,163],[-93,158],[39,245],[83,129],[90,95],[53,57]],[[5097,29455],[-50,27],[-95,52],[-109,258],[-170,242],[-123,232],[-298,692],[-317,1272],[278,202],[-43,856],[-21,88],[-126,529],[-2,11],[-83,459],[-25,220],[-211,28],[-388,50]],[[818,43116],[-137,-500],[9,-810],[-80,-851],[-80,-207],[-52,-342],[-31,-945],[-5,-23],[-85,-467],[46,-742],[446,-228],[43,-22],[45,-23],[613,170],[286,79],[365,36],[432,33],[-808,-662],[-20,-16],[-58,-139],[-177,-426],[252,-731],[-61,-508],[-126,-210],[-141,58],[22,-183],[-92,-188],[-226,0],[-231,-291],[-51,-66],[777,-97],[1216,-90],[405,-52]]],"bbox":[-7.7523821,29.476586,-3.110826,33.0979459],"transform":{"scale":[0.000046416025160251606,0.000036213961139611375],"translate":[-7.7523821,29.476586]},"license":"ODbL-1.0","attribution":"© OpenStreetMap contributors, opendatacommons.org/licenses/odbl/1-0/","source":"OpenStreetMap admin_level=8 relations, matched to HCP communes on ref:MA:HCP"}
