{"type":"Topology","objects":{"communes":{"type":"GeometryCollection","geometries":[{"type":"Polygon","arcs":[[0,1,2,3,4,5,6,7,8,9]],"properties":{"code":"102610311","name":"Taghjijt"}},{"type":"Polygon","arcs":[[-10,10,11,12]],"properties":{"code":"102610305","name":"Amtdi"}},{"type":"Polygon","arcs":[[8,10,13,14,15]],"properties":{"code":"102610301","name":"Aday"}},{"type":"Polygon","arcs":[[16,17,18,15,-8,19]],"properties":{"code":"102610307","name":"Ifrane Atlas Saghir"}},{"type":"Polygon","arcs":[[19,20,21,6]],"properties":{"code":"102610313","name":"Timoulay"}},{"type":"Polygon","arcs":[[22,23,24,3,25]],"properties":{"code":"102610509","name":"Fask"}},{"type":"Polygon","arcs":[[-6,26,27,28,29,21],[30]],"properties":{"code":"102610309","name":"Tagante"}},{"type":"Polygon","arcs":[[30]],"properties":{"code":"102610101","name":"Bouizakarne"}},{"type":"Polygon","arcs":[[28,31,32,33,34]],"properties":{"code":"102610303","name":"Ait Boufoulen"}},{"type":"Polygon","arcs":[[35,36,37,38,39,-26,4,26,40]],"properties":{"code":"102610701","name":"Abaynou"}},{"type":"Polygon","arcs":[[41,38,42]],"properties":{"code":"102610103","name":"Guelmim"}},{"type":"Polygon","arcs":[[43,44,45,-43,39,22,46,47]],"properties":{"code":"102610505","name":"Asrir"}},{"type":"Polygon","arcs":[[-47,23,48,49,50]],"properties":{"code":"102610521","name":"Tiglit"}},{"type":"Polygon","arcs":[[51,52,44,53,54,55,56]],"properties":{"code":"102610707","name":"Echatea El Abied"}},{"type":"Polygon","arcs":[[54,57,58,59,60]],"properties":{"code":"102610719","name":"Targa Wassay"}},{"type":"Polygon","arcs":[[59,61,62]],"properties":{"code":"102610717","name":"Taliouine Assaka"}},{"type":"Polygon","arcs":[[60,-54,45,41,-38,63,-62]],"properties":{"code":"102610713","name":"Laqsabi Tagoust"}},{"type":"Polygon","arcs":[[52,-44,64,65]],"properties":{"code":"102610711","name":"Labyar"}},{"type":"Polygon","arcs":[[64,66,67,50,47]],"properties":{"code":"102610503","name":"Aferkat"}},{"type":"Polygon","arcs":[[68,69,70,51,-66,66,71]],"properties":{"code":"102610715","name":"Rass Oumlil"}},{"type":"Polygon","arcs":[[71,72,73,74,49,-68]],"properties":{"code":"100710303","name":"Aouint Yghomane"}},{"type":"Polygon","arcs":[[63,62,-59,75,76,77,78,36]],"properties":{"code":"104730503","name":"Imi-N'fast"}},{"type":"Polygon","arcs":[[79,80,-76,-58,55]],"properties":{"code":"104730509","name":"Sbouya"}},{"type":"Polygon","arcs":[[81,82,-77,-81,83]],"properties":{"code":"104730505","name":"Mesti"}},{"type":"Polygon","arcs":[[82,77,84,85,86]],"properties":{"code":"104730515","name":"Tnine Amellou"}},{"type":"Polygon","arcs":[[87,88,86,-82,89]],"properties":{"code":"104730103","name":"Sidi Ifni"}},{"type":"Polygon","arcs":[[90,91,35,-79,84,92]],"properties":{"code":"104730511","name":"Tangarfa"}},{"type":"Polygon","arcs":[[90,93,94]],"properties":{"code":"104730501","name":"Arbaa Ait Abdellah"}},{"type":"Polygon","arcs":[[93,95,96,97,98,99,34,-28,40,-92]],"properties":{"code":"104730715","name":"Sidi M'bark"}},{"type":"Polygon","arcs":[[100,98]],"properties":{"code":"104730101","name":"Lakhsas"}},{"type":"Polygon","arcs":[[101,87,102]],"properties":{"code":"104730107","name":"Mirleft"}},{"type":"Polygon","arcs":[[-93,85,-89,102,103,-96,94]],"properties":{"code":"104730513","name":"Tioughza"}},{"type":"Polygon","arcs":[[104,105,106,107]],"properties":{"code":"104730709","name":"Sebt Ennabour"}},{"type":"Polygon","arcs":[[108,32,109,110,105]],"properties":{"code":"104730701","name":"Ait Erkha"}},{"type":"Polygon","arcs":[[-30,31,-109,106,111,-17,20]],"properties":{"code":"104730711","name":"Sidi Abdellah Ou Belaid"}},{"type":"Polygon","arcs":[[99,-34,109,112,97,-101]],"properties":{"code":"104730713","name":"Sidi H'saine Ou Ali"}},{"type":"Polygon","arcs":[[-12,13,113,114,115]],"properties":{"code":"104730703","name":"Anfeg"}},{"type":"Polygon","arcs":[[116,117,-115,118]],"properties":{"code":"104730707","name":"Ibdar"}},{"type":"Polygon","arcs":[[116,119,-108,111,17,120]],"properties":{"code":"104730717","name":"Tighirt"}},{"type":"Polygon","arcs":[[18,-15,113,118,-121]],"properties":{"code":"104730705","name":"Boutrouch"}},{"type":"Polygon","arcs":[[121,122,123,124,125,126,127]],"properties":{"code":"105210505","name":"Chbika"}},{"type":"Polygon","arcs":[[128,-70,129,130,121,131]],"properties":{"code":"105210503","name":"Ben Khlil"}},{"type":"Polygon","arcs":[[-125,132,133]],"properties":{"code":"105210501","name":"Abteh"}},{"type":"Polygon","arcs":[[-132,122,134]],"properties":{"code":"105210103","name":"El Ouatia"}},{"type":"Polygon","arcs":[[135,133,125,136,137]],"properties":{"code":"105210301","name":"Msied"}},{"type":"Polygon","arcs":[[127,-131,138]],"properties":{"code":"105210101","name":"Tan-Tan"}},{"type":"Polygon","arcs":[[136,139,-73,68,129,138,-127]],"properties":{"code":"105210303","name":"Tilemzoun"}},{"type":"Polygon","arcs":[[-25,48,-75,140,141,2]],"properties":{"code":"100710301","name":"Aouint Lahna"}},{"type":"Polygon","arcs":[[142]],"properties":{"code":"100710101","name":"Assa"}},{"type":"Polygon","arcs":[[1,-142,143,144,145],[142]],"properties":{"code":"100710305","name":"Touizgui"}},{"type":"Polygon","arcs":[[146,-145,147,148]],"properties":{"code":"100710103","name":"Zag"}},{"type":"Polygon","arcs":[[149,150,148]],"properties":{"code":"100710501","name":"Al Mahbass"}},{"type":"Polygon","arcs":[[-140,137,151,150,-148,-144,-141,-74]],"properties":{"code":"100710503","name":"Labouirat"}}]}},"arcs":[[[81432,77557],[365,-1147],[11,-609],[-286,-889],[-203,-762],[292,-121],[511,-212],[9,-164],[36,-672],[-56,-75],[-421,-562],[91,-545],[270,-1270],[351,-1427],[1106,-235],[-674,-446],[-124,-1901],[840,-629],[842,-1235],[615,-887],[2198,-373],[2080,-140],[899,-1140],[172,-951],[-87,-677]],[[90269,60488],[-185,-31],[-601,-9],[-1540,670],[-1060,264],[-1411,442],[-1645,617],[-780,763],[-1243,1521],[-1124,1131],[-767,555],[-289,259],[-298,223],[-479,365],[-336,-784],[-286,-371],[-268,-473],[-600,-673],[-1092,-585],[-680,-380],[-919,-272]],[[74666,63720],[-405,-102],[-890,-236],[-961,-205],[-962,-489],[-899,-205],[-653,-181],[-774,-323],[-540,-408],[-761,-447],[-659,-365],[-238,-124]],[[66924,60635],[133,308],[320,610],[295,519],[295,652],[77,474],[-231,222],[-100,463],[-30,687],[179,484],[-19,274],[-309,275],[-537,215],[-529,141],[-659,357],[-231,280],[-11,184],[121,469],[209,479],[39,555],[-298,341],[-507,391],[-490,564],[-323,395],[-19,373],[80,518],[168,308],[399,229],[416,653],[213,370],[-20,494],[-33,231],[-482,374],[-383,283],[356,1082],[-31,725],[31,638],[99,543],[-77,191],[-221,71],[-149,-66],[-71,-121],[-66,-61]],[[64528,76809],[52,164],[56,295]],[[64636,77268],[201,-5],[114,23],[257,138],[304,686],[148,505],[171,703],[309,596],[209,288],[243,24],[397,-126],[408,-168],[281,-145],[234,-129],[520,103],[119,387],[248,255]],[[68799,80403],[237,54],[243,33],[140,-135],[-11,-255],[22,-361],[-140,-493],[-152,-364],[-187,-252],[-320,-613],[-331,-455],[-292,-427],[-245,-423],[-435,-22],[-398,-789],[-156,-255],[-415,-336],[-316,-214],[-163,-45],[-152,-88],[-93,-335],[234,-40],[115,-380],[98,-220],[132,-134],[268,-272],[369,-374],[410,-346],[320,-184],[411,-195],[424,779],[438,867],[259,181],[304,442],[305,374],[20,352],[58,758],[413,469],[446,593],[383,818],[546,1004],[386,703],[333,577]],[[72307,80400],[130,340],[364,586],[250,324],[224,-330],[201,-520],[-28,-547],[-96,-370],[-133,-216],[-33,-138],[97,-118],[251,-69],[278,157],[331,99],[201,183],[325,111],[444,118],[496,306],[512,331],[469,294]],[[76590,80941],[248,163],[364,210],[424,168],[521,117],[314,-105],[248,-195],[185,-304],[41,-282],[-127,-322],[-220,-381],[83,-157],[170,-255],[428,-511],[192,-499],[42,-382],[240,-45],[369,-109],[383,-264],[309,165],[336,166]],[[81140,78119],[292,-562]],[[81140,78119],[780,460],[380,195],[309,205],[91,180],[107,201],[-110,139],[206,210],[191,652],[80,331],[231,381],[36,214],[-295,-222],[-297,-97],[-202,-66],[-375,-57],[-413,-120],[-389,54],[-292,180],[-121,235],[-5,162],[68,234],[105,192],[130,142],[-20,189],[-74,493],[8,645],[146,628],[-93,288],[-268,412],[-446,639],[-221,243],[-463,69],[-570,222],[-72,291],[42,135],[135,295],[143,252],[185,327],[204,456],[170,354],[109,136]],[[80270,87998],[1763,1468],[186,-291],[208,-259],[189,-210],[185,-164],[497,-1],[579,595]],[[83877,89136],[441,-1759],[176,-751],[177,-423],[171,-771],[308,-374],[309,-370],[292,-192],[33,-308],[370,-568],[93,-143],[328,-1344],[17,-484],[-17,-434],[-184,-274],[-1208,-1045],[-995,-708],[-39,-309],[730,-865],[-248,-430],[-829,-770],[-752,-578],[-342,156],[-99,435],[1069,1528],[-2246,-798]],[[80270,87998],[-591,245]],[[79679,88243],[-1369,-2071],[-23,-34],[-974,-652],[-875,-85]],[[76438,85401],[-3,-405],[-44,-330],[-121,-360],[-99,-361],[-113,-237],[-215,-565],[-61,-333],[-13,-457],[170,-258],[215,-399],[301,-623],[135,-132]],[[69630,83844],[1169,286],[397,98],[1220,594],[333,1602],[-150,1030]],[[72599,87454],[1037,-140],[226,-30],[581,176],[27,8],[520,-440]],[[74990,87028],[-66,-308],[478,-311],[332,-439],[704,-569]],[[72307,80400],[-248,118],[-319,603],[-6,391],[-33,349],[-276,273],[-93,222],[-434,343],[-151,420],[-336,232],[-781,493]],[[69630,83844],[-1269,227]],[[68361,84071],[-160,-258],[-157,-297],[-91,-397],[-74,-378],[-144,-469],[-66,-348],[8,-150],[103,-151],[198,-54],[328,-63],[485,-72],[69,-93],[8,-117],[-58,-178],[-5,-270],[-47,-186],[41,-187]],[[60405,75613],[-154,-307],[2,-403],[182,-563],[510,-713],[149,-566],[55,-511],[-19,-766],[49,-1416],[-74,-601],[-419,-970],[-678,-1417],[-1176,-1014],[-1707,-2038],[-1058,-701],[-953,-675],[-291,-226],[-398,-311],[-466,-285],[-234,-144],[-237,-107]],[[53488,61879],[135,-187],[37,-251],[10,-63],[443,-243],[116,-290],[168,-291],[-64,-359],[-27,-149],[-24,-95],[-22,-86],[-127,-504],[-160,-373],[-193,-455],[-66,-293],[110,-169],[143,-124],[86,-145],[-6,-206],[-99,-346],[-44,-240],[209,24],[419,141],[-69,-358],[6,-251],[102,-216],[173,-138],[213,-145],[33,-136],[-4,-96],[-5,-119],[273,-184],[234,-142],[243,-157],[133,-113]],[[55864,55120],[220,34],[1234,393],[1310,148],[865,475],[761,393],[964,429],[769,447],[788,466],[695,408],[642,407],[568,203],[655,528],[805,632],[507,407],[277,145]],[[64528,76809],[-268,-243],[-432,-174],[-521,-168],[-590,-244],[-449,-202],[-656,-111],[-637,-90],[-570,36]],[[64636,77268],[-166,66],[-226,75],[-408,190],[-218,123],[-140,213],[-122,202],[-253,388],[-218,339],[-263,392]],[[62622,79256],[26,2123],[381,122],[273,-7],[448,-160],[471,-104]],[[64221,81230],[373,-182],[416,242],[157,210],[118,279],[44,340],[53,351],[38,328],[25,309],[348,338],[620,655],[275,346],[358,313],[498,396]],[[67544,85155],[151,-323],[73,-157],[176,-212],[417,-392]],[[66153,82086],[-87,-287],[35,-266],[55,-261],[403,-45],[204,209],[96,175],[72,330],[-33,312],[-221,3],[-190,-33],[-184,-84],[-150,-53]],[[67544,85155],[-118,222],[-122,347],[-121,292]],[[67183,86016],[-170,461],[-46,383],[0,546]],[[66967,87406],[-474,-47],[-160,-16],[-185,-264],[-394,-334],[-413,60],[-344,96],[-179,-278],[183,-409],[-174,-481],[-188,-419],[-236,-380],[-583,-312],[-306,-504]],[[63514,84118],[31,-143],[133,-620],[164,-841],[68,-423],[42,-225],[72,-292],[197,-344]],[[59079,81359],[-151,48],[-207,93],[-105,47],[-76,-234],[-90,-281],[-53,-163],[-49,-153],[-662,-291],[-146,-34]],[[57540,80391],[-363,-87],[-626,-72],[-73,-9],[-18,-2],[-2413,-2576],[157,-579],[186,-493]],[[54390,76573],[24,-161],[165,-492],[44,-262],[74,-269]],[[54697,75389],[254,466],[1107,526],[361,-565],[-208,-380],[-89,-613],[22,-186]],[[56144,74637],[298,103],[226,96],[300,235],[171,81],[190,-108],[568,208],[325,51],[629,-6],[581,102],[562,96],[411,118]],[[62622,79256],[-2314,1534],[-688,308],[-226,101],[-41,59],[-166,67],[-108,34]],[[53656,73590],[-72,172],[-16,241],[151,81],[378,211],[121,216],[33,285],[-19,283],[-36,183],[229,58],[272,69]],[[56144,74637],[22,-199],[28,-232],[72,-254],[-20,-193],[-49,-233],[-53,-86],[-58,-96],[14,-178],[17,-310],[-416,-65],[-309,-101],[-278,15],[-461,44],[-256,125],[-287,149],[-217,206],[-53,80],[-184,281]],[[46700,67371],[-36,240],[14,340],[-96,703],[-6,494],[69,416],[-143,297],[-188,188],[-237,264]],[[46077,70313],[-41,247]],[[46036,70560],[380,-15],[383,49],[392,-42],[518,-96],[713,-190],[667,-91],[466,47],[477,134],[399,163],[403,313],[667,554],[-47,199],[-328,-15],[69,500],[237,200],[206,300],[182,336],[430,152],[571,209],[562,232],[273,91]],[[53488,61879],[-163,-238],[-245,-267],[-334,-358],[-245,-264],[-468,-543],[-270,-317],[-381,-373],[-603,-213],[-535,-247],[-486,114],[-13,4]],[[49745,59177],[11,265],[104,576],[-34,0],[-16,13],[-1,21],[23,28],[14,22],[3,29],[-6,39],[3,52],[8,33],[4,65],[-2,46],[-1,10],[-23,72],[-17,77],[0,79],[4,68],[21,84],[6,41],[-10,54],[-18,44],[-19,18],[-33,11],[-19,12],[-16,25],[2,47],[8,41],[16,21],[42,23],[15,15],[10,33],[-3,32],[-11,54],[-24,73],[0,54],[12,23],[27,44],[10,43],[33,42],[49,53],[18,49],[7,84],[0,61],[2,55],[45,101],[30,56],[40,39],[53,32],[44,46],[37,81],[30,115],[3,30],[11,45],[35,69],[17,82],[-1,92],[56,111],[35,86],[1,156],[2,120],[-8,61],[-17,40],[-25,19],[-37,9],[-30,-4],[-80,-38],[-62,-56],[-29,-17],[-37,-3],[-29,13],[-24,34],[-7,32],[2,32],[33,110],[34,89],[37,65],[72,54],[58,33],[11,55],[-11,48],[-42,45],[-77,61],[-93,5],[-31,10],[-30,39],[-16,35],[-13,9],[-35,28],[-7,21],[3,8],[24,34],[59,32],[62,18],[30,5],[41,-4],[17,0],[36,15],[42,62],[-1,12],[-4,16],[-29,63],[-22,30],[-28,1],[-95,-4],[-49,-10],[-18,6],[-11,28],[-3,18],[13,46],[24,93],[4,30],[-21,17],[-86,36],[-55,-3],[-114,-46],[-69,-37],[-49,-62],[-17,-28],[-36,-30],[-36,-22],[-28,-12],[-59,-9],[-84,-22],[-56,6],[-25,27],[-15,44],[-2,74],[-30,27],[-8,21],[-47,18],[-66,15],[-33,21],[-20,46],[-27,57],[-44,60],[-36,30],[-33,1],[-36,-16],[-44,-21],[-47,6],[-41,24],[-47,30],[-74,4],[-94,54],[-91,99],[-75,88],[-85,66],[-33,51],[-25,100],[-52,151],[-58,109],[-77,69],[-110,72],[-141,112],[-105,103],[-140,202],[-97,139],[-214,421],[66,370],[74,589],[-479,-51],[-163,-26]],[[55864,55120],[-915,-143],[-175,-56]],[[54774,54921],[-1247,-408],[-554,-229],[-720,-298],[-1780,-825],[-1301,-33],[-1304,-85],[-1201,-57],[-741,-15],[-623,-46],[-347,16],[-1442,66],[-738,1624],[-68,311],[-10,46],[-349,1615],[-133,552],[-123,514],[-216,634],[-262,538]],[[41615,58841],[295,-151],[339,-178],[689,-459],[940,-608],[656,-362],[419,-230],[377,-156],[700,71],[651,96],[796,429],[270,151],[527,270],[584,342],[463,473],[328,465],[96,183]],[[32697,70153],[28,-30],[471,-439],[885,-632],[670,-492],[-463,-972],[-890,-1862],[2,-271],[733,-88],[959,-54],[576,-9],[474,69],[455,190],[786,280],[642,380],[614,296],[518,224],[543,196],[606,280],[326,161]],[[40632,67380],[289,204],[532,407],[127,114],[441,400],[347,223],[444,306],[109,51],[442,209],[278,78],[438,124],[42,3],[774,57],[524,290],[347,186],[311,281]],[[46036,70560],[-143,158],[-47,283],[-17,482],[-80,786],[-140,601],[60,433],[163,600],[229,405],[212,347],[-143,264]],[[46130,74919],[-75,292],[55,392],[93,476],[178,361],[205,471],[149,331],[17,743],[-159,260],[-223,67]],[[46370,78312],[-583,851],[-773,445],[-917,545],[-344,-134],[-25,-13]],[[43728,80006],[-19,-34],[-50,-60],[-50,-33],[-8,-16],[9,-127],[-1,-38],[-14,-68],[-21,-48],[-15,-34],[-19,-24],[-17,-11],[-15,-4],[-7,-6],[-27,-91],[-20,-40],[-44,-90],[-22,-11],[-17,-1],[-13,2],[-12,2],[-8,-7],[-15,-36],[-26,-68],[-8,-23],[-23,-68],[-20,-91],[-25,-44],[-12,-7],[-13,-1],[-9,0],[-17,0],[-5,-3],[-4,-6],[-34,-97],[2,-7],[4,-5],[12,-1],[3,-4],[2,-7],[1,-12],[1,-9],[1,-9],[1,-8],[2,-11],[2,-12],[1,-16],[-1,-17],[-4,-19],[-16,-50],[-43,-64],[-69,-78],[-13,-4],[-10,2],[-5,11],[-7,1],[-4,-3],[-3,-10],[-7,-3],[-5,3],[-9,11],[-13,1],[-13,-9],[-20,-33],[-10,-8],[-10,-1],[-22,-1],[-17,-16],[-9,-21],[-7,-19],[-12,-25],[-10,-18],[-34,-38],[-50,-40],[-12,-4],[-11,-1],[-3,5],[-6,12],[-7,2],[-4,-2],[-4,-4],[3,-42],[-4,-26],[-9,-17],[-26,-26],[-22,-18],[-24,-14],[-29,-20],[-4,-2],[-7,0],[-2,4],[-2,1],[-3,0],[-5,-6],[-3,-1],[-2,1],[-3,5],[-2,7],[-2,6],[-2,2],[-3,2],[-7,-1],[-4,-1],[-2,-3],[0,-4],[1,-17],[1,-13],[1,-10],[3,-17],[1,-21],[-5,-6],[-4,-1],[-20,4],[-7,-2],[-7,-11],[0,-8],[1,-9],[0,-8],[-3,-6],[-43,-55],[-22,-32],[-18,-36],[-17,-43],[-16,-28],[-49,-97],[-13,-13],[-13,-8],[-20,-19],[-44,-69],[-58,-151],[-26,-25],[-32,-37],[-41,-34],[-18,-14],[-55,-52],[-33,-30],[-45,-36],[-25,-13],[-32,-11],[-34,-20],[-5,-7],[0,-6],[17,-40],[1,-15],[-4,-10],[-34,-28],[-7,-2],[-5,0],[-4,1],[-3,-1],[-2,-3],[-1,-10],[-1,-7],[-4,-5],[-15,-11],[-16,-16],[-15,-21],[-7,-31],[-14,-46],[-8,-31],[-14,-18],[-14,-18],[-160,-148],[-28,-15],[-17,-4],[-12,-1],[-8,-1],[-3,-3],[-24,-52],[-19,-38],[-17,-51],[-3,-7],[-4,-5],[-85,-70],[-48,-47],[-35,-47],[-36,-32],[-37,-38],[-28,-38],[-27,-37],[-21,-29],[-10,-15],[-24,-35],[-21,-28],[-20,-31],[-26,-58],[-24,-37],[-87,-95],[-94,-87],[-132,-118],[-60,-53],[-34,-30],[-39,-34],[-46,-38],[-39,-36],[-30,-27],[-235,-194],[-204,-170],[-514,-396],[-309,-235],[-1505,-1106],[-227,-159],[-65,-45],[-24,-17],[-355,-243],[-131,-107],[-581,-408],[-735,-490],[-410,-263],[-434,-271],[-854,-536],[-1100,-678]],[[46370,78312],[894,880],[649,398],[1005,-38],[250,-190],[17,-314],[282,-63],[226,3],[173,81],[341,228],[134,-225],[99,-226],[228,-409],[243,-397],[113,-52],[50,-63]],[[51074,77925],[-207,-568],[-236,-428]],[[50631,76929],[-318,101],[-576,54],[-284,30],[-383,77],[-55,-233]],[[49015,76958],[-212,-3],[-80,-151],[-389,-265],[-402,-294],[-719,-449],[-397,-267],[-397,-295],[-289,-315]],[[49015,76958],[3,-124],[-75,-159],[-52,-154],[69,-123],[11,-153],[-22,-97],[-66,-340],[-6,-228],[146,-268],[193,-99],[124,22],[94,-173],[438,-66],[218,-69],[179,107],[468,270],[516,285],[981,280]],[[52234,75869],[-359,789],[-443,-115],[-413,178],[-309,178],[-79,30]],[[54390,76573],[-1299,-454],[-857,-250]],[[46700,67371],[-243,-37],[-476,-19],[-113,-27],[-112,-62],[-81,-46],[154,-300],[-16,-362],[8,-388],[-28,-301],[-8,-86],[-44,-203],[-41,-191],[104,-244],[370,-287],[-24,-546],[-91,-536],[-21,-127],[-284,-269],[-267,-234],[-350,-299],[-430,-442],[-626,-392],[-985,-653],[-316,471]],[[42780,61791],[-200,270],[-8,11],[-28,477],[-20,40],[-203,392],[-289,389],[-450,426],[-504,540],[-146,288],[-201,255],[-64,477],[-2,545],[80,528],[8,338],[-121,613]],[[42780,61791],[-732,-428],[-642,-317],[-435,-302],[-524,-311],[-220,-319],[162,-309],[248,-227],[204,-190],[174,-157]],[[41015,59231],[600,-390]],[[33455,51616],[-30,21],[-45,31],[-41,37],[-43,25],[-57,14],[-54,25],[-81,15],[-64,1],[-32,15],[-17,3],[-80,-14],[-55,-3],[-57,1],[-34,3],[-35,13],[-33,25],[-32,33],[-11,10],[-95,87],[-33,26],[-40,25],[-48,33],[-10,7],[-43,31],[-36,29],[-37,9],[-19,4],[-48,23],[-87,30],[-60,7],[-71,15],[-47,7],[-19,3],[-115,22],[-61,19],[-94,51],[-32,22],[-37,28],[-50,38],[-90,64],[-55,41],[-78,49],[-40,6],[-72,2],[-74,9],[-85,4],[-2,0],[-62,-11],[-106,-22],[-78,-9],[-74,4],[-58,4],[-46,6],[-66,21],[-61,26],[-27,9],[-37,4],[-50,7],[-24,1],[-56,10],[-49,32],[-30,24],[-57,56],[-54,54],[-29,42],[-11,33],[-33,98],[-28,55],[-24,40],[-17,20],[-15,17],[-36,34],[-56,38],[-72,42],[-61,28],[-90,34],[-55,10],[-66,22],[-55,4],[-51,-7],[-40,-10],[-45,7],[-30,12],[-61,19],[-40,13],[-20,15],[-20,14],[-35,36],[-19,50],[-8,40],[-19,66],[4,29],[14,33],[2,18],[0,5],[-2,7],[-8,33],[-19,40],[-39,71],[-25,55],[-27,44],[-23,28],[-16,38],[-5,39],[-28,91],[-5,40],[12,50],[-7,48],[-6,48],[-16,68],[-20,19],[-37,48],[-40,72],[-25,53],[-11,44],[-2,9],[-9,37],[-17,52],[-18,45],[-27,51],[-17,42],[-36,33],[-43,14],[-63,20],[-42,30],[-75,48],[-68,52],[-35,29],[-92,40],[-40,20],[-41,27],[-16,25],[-10,14],[-34,39],[-30,30],[-44,37],[-58,37],[-21,23],[-35,7],[-33,17],[-5,1],[-9,4],[-6,3],[-12,-2],[-53,26],[-59,29],[-38,3],[-78,10],[-44,-7],[-21,7],[-15,7],[-13,8],[-10,10],[-16,13],[-13,9],[-14,9],[-7,8],[-6,8],[-6,6],[-10,8],[-14,10],[-10,6],[-8,2],[-10,-2],[-10,1],[-7,3],[-9,10],[-6,8],[-3,8],[-4,9],[-4,8],[-7,13],[-7,11],[-5,8],[-8,5],[-11,4],[-14,0],[-11,-1],[-27,-6],[-9,0],[-8,5],[-11,6],[-8,3],[-7,8],[-7,3],[-12,11],[-12,8],[-10,4],[-13,13],[-10,13],[-12,6],[-12,1],[-16,6],[-34,17],[-6,1],[-27,3],[-53,-8],[-46,-6],[-23,13],[-70,59],[-35,22],[-15,10],[-19,12],[-47,26],[-14,6],[-7,4],[-14,16],[-28,17],[-4,3],[-5,3],[-15,9],[-29,26],[-28,9],[-38,4],[-2,0]],[[26556,55939],[-33,1],[-13,1],[-71,36],[-66,39],[-56,29],[-101,52],[-36,11],[-52,7],[-67,1],[-26,7],[-38,20],[-48,14],[-34,-6],[-21,-12],[-29,-26],[-20,-22],[-41,-46],[-45,-15],[-29,-12],[-34,-21],[-77,-40],[-55,-25],[-26,-11],[-71,-24],[-53,3],[-67,29],[-54,19],[-38,32],[2,33],[23,29],[0,21],[-16,11],[-16,16],[-14,11],[-22,-2],[-15,-10],[-25,-11],[-40,-24],[-33,-18],[-38,-15],[-46,-24],[-22,-6],[-14,1],[-13,-1],[-12,-5],[-38,-15],[-21,-8],[-15,-8],[-21,-14],[-21,-8],[-19,-4],[-16,0],[-22,2],[-33,7],[-43,0],[-48,4],[-33,12],[-24,11],[-19,11],[-36,16],[-38,16],[-57,21],[-50,27],[-91,38],[-44,29],[-40,30],[-58,35],[-44,30],[-20,20],[-19,29],[-36,80],[-34,56],[-19,22],[-16,24],[-15,30],[-17,34],[-1,16],[0,21],[-3,24],[-9,20],[-27,28],[-26,18],[-28,7],[-39,-1],[-48,5],[-50,25],[-38,33],[-47,28],[-32,14],[-21,8],[-17,22],[-23,25],[-41,45],[-11,11],[-14,21],[-20,26],[-25,30],[-24,22],[-27,17],[-29,15],[-99,54],[-167,102],[-155,76],[-114,65],[-69,63],[-84,65],[-41,48],[-21,32],[-5,28],[-1,8],[16,65],[65,101],[28,48],[4,10],[11,23],[16,37],[17,47],[7,16],[5,28],[3,32],[-5,33],[-16,55],[-12,22],[-7,23],[2,76],[-2,93],[-12,51],[-18,71],[-24,40],[-20,34],[-52,96],[-30,66],[-11,35],[0,19],[10,53],[-4,54],[-10,24],[-12,31],[-7,53],[-3,30],[-11,48],[-1,41],[-4,33],[-7,29],[-11,34],[-1,28],[4,21],[19,40],[12,37],[5,29],[-3,13],[-13,13],[-21,14],[-16,11],[-12,16],[-1,22],[6,37],[-1,38],[-17,55],[-71,150],[-52,77],[-47,87],[-29,98],[-21,79],[-45,61],[-11,14],[-114,145],[-55,56],[-95,157],[-111,170],[-19,36],[-131,251],[-86,348],[-149,239],[-86,193],[-37,79],[-8,28],[6,37],[46,104],[0,22],[-11,21],[-45,16],[-52,31],[-40,38]],[[21194,61996],[19,9],[60,35],[34,28],[66,48],[103,83],[56,104],[1,9],[-2,8],[-11,14],[-5,15],[2,17],[8,10],[35,19],[64,50],[21,25],[7,24],[10,15],[11,7],[8,0],[6,-2],[5,1],[5,4],[10,15],[130,119],[52,57],[20,19],[21,20],[28,31],[22,30],[16,20],[10,13],[10,16],[22,43],[17,33],[34,47],[34,42],[22,37],[8,53],[35,134],[34,53],[70,91],[198,273],[71,92],[28,38],[12,20],[114,185],[4,20],[7,35],[1,24],[-19,98],[3,116],[4,39],[13,33],[14,16],[17,8],[17,1],[30,-1],[14,8],[32,44],[6,5],[8,4],[26,-5],[12,5],[7,9],[8,23],[13,17],[98,67],[9,23],[7,25],[14,10],[11,4],[18,-2],[9,3],[8,8],[32,66],[53,51],[89,32],[26,2],[12,4],[10,9],[14,26],[10,8],[9,-1],[5,2],[3,3],[1,13],[3,4],[5,3],[26,11],[18,11],[27,41],[35,29],[56,43],[30,36],[24,26],[63,56],[6,2],[7,-1],[12,-5],[17,-5],[30,7],[17,17],[45,73],[23,13],[23,-3],[19,4],[54,37],[21,7],[49,9],[43,25],[29,11],[77,3],[78,23],[178,59],[109,54],[122,57],[161,76],[93,55],[86,50],[58,37],[70,48],[39,24],[160,137],[162,118],[85,24],[49,19],[40,12],[28,14],[36,42],[50,30],[69,57],[73,46],[60,57],[37,25],[26,22],[83,32],[81,22],[153,80],[250,162],[128,110],[20,7],[17,-2],[29,0],[16,6],[353,194],[367,190],[391,204],[359,202],[256,131],[360,191],[247,137],[458,265],[539,294],[1167,705],[1425,831]],[[41015,59231],[-802,-300],[-998,-904],[-1207,-622],[-1091,-440],[-1491,-750],[-598,-296],[-366,-250],[-144,-772],[-83,-860],[-104,-582],[-215,-675],[-184,-690],[-128,-248],[-149,-226]],[[33455,51616],[4,-2],[69,-33],[75,-23],[80,-19],[12,-5],[56,-20],[59,-13],[27,-12],[29,-14],[39,-5],[50,-25],[45,-34],[41,-33],[29,-33],[37,-34],[41,-34],[22,-29],[21,-52],[33,-65],[9,-12],[28,-32],[21,-19],[18,-23],[32,-42],[27,-30],[40,-19],[19,-11],[2,0],[21,-5],[21,-7],[23,-7],[27,-7],[38,-15],[22,-5],[29,-7],[12,-4],[10,-5],[10,-6],[18,-6],[18,-11],[11,-6],[48,-25],[17,-9],[7,-9],[8,-8],[6,-2],[9,-7],[17,-9],[70,-33],[45,-22],[22,-7],[17,-6],[40,-4],[27,-6],[34,-13],[42,-18],[24,-9],[21,-7],[25,-8],[23,-6],[15,-7],[50,-35],[11,-14],[14,-14],[26,-13],[12,0],[5,6],[26,1],[29,1],[64,-10],[19,-3],[4,-8],[9,-2],[37,-3],[25,4],[38,-3],[39,3],[12,1],[22,4],[27,10],[19,2],[9,-6],[4,-4],[11,-7],[13,-1],[18,7],[23,15],[31,27],[35,20],[23,9],[31,6],[45,10],[45,9],[8,1],[20,2],[16,2],[39,7],[39,3],[25,13],[35,22],[39,16],[38,-3],[28,-17],[48,-21],[43,-8],[40,-10],[25,-4],[23,1],[41,20],[67,18],[16,2],[33,0],[29,3],[38,-6],[82,-31],[43,-16],[33,-23],[61,-33],[32,-25],[27,-11],[24,6],[47,12],[31,11],[29,14],[22,17],[38,26],[40,27],[46,28],[30,20],[34,23],[16,9],[22,3],[16,5],[39,12],[39,12],[24,2],[18,3],[18,-4],[16,-4],[16,-2],[12,2],[19,10],[10,10],[3,3],[17,5],[27,-3],[25,6],[63,29],[50,22],[40,11],[25,10],[18,20],[22,18],[21,7],[39,8],[68,17],[29,0],[8,-1],[20,-2],[33,-6],[38,1],[35,-3],[43,-2],[42,10],[27,8],[17,5],[12,6],[21,10],[30,4],[27,0],[35,-9],[26,-12],[24,-17],[22,-20],[31,-29],[28,-20],[14,-7],[17,-9],[37,-14],[23,-9],[22,1],[23,-10],[35,-19],[44,-22],[24,-11],[11,-20],[2,-40],[12,-21],[52,-86],[17,-16],[26,-19],[24,-15],[36,-13],[23,-11],[32,-16],[35,-4],[32,-1],[32,-1],[32,0],[17,9],[21,-2],[21,-11],[24,1],[11,-6],[42,-22],[43,-20],[27,-7],[27,-8],[33,-15],[33,-6],[27,-3],[25,-5],[26,-1],[37,-4],[39,-3],[40,-16],[9,-4],[22,-23],[19,-19],[16,-7],[13,0],[18,-10],[21,-2],[20,10],[13,-3],[25,7],[79,-359],[424,-646],[317,-411],[564,-570],[189,-190],[286,-375]],[[41646,47785],[793,58],[687,-15],[1063,36],[847,33],[650,-52],[643,-57],[495,-33],[885,-15],[892,30],[990,-85],[1234,9],[960,88],[887,88],[799,276],[883,175],[923,336]],[[55277,48657],[-48,624],[-149,954],[-63,738],[-289,690],[-168,690],[-47,411],[63,312],[81,417],[71,360],[33,470],[22,384],[-9,214]],[[51074,77925],[132,259],[438,292],[296,175],[498,132],[314,244],[245,336],[240,436],[-252,262],[-360,288],[0,193],[127,324],[295,367],[242,568],[58,324]],[[53347,82125],[58,285],[449,51],[168,61]],[[54022,82522],[167,22],[54,147],[151,107],[232,90],[260,-3],[248,23],[244,-53],[23,-6],[384,-93],[300,-90],[269,-93],[270,-164],[489,-234]],[[57113,82175],[-41,-634],[4,-218],[160,-340],[304,-592]],[[43728,80006],[19,39],[7,8],[20,8],[20,13],[75,75],[90,106],[48,74],[26,31],[72,63],[113,109],[11,23],[5,17],[-10,45],[2,13],[5,9],[43,50],[11,35],[6,14],[22,51],[3,10],[9,30],[2,20],[-24,93],[-1,5],[2,5],[16,17],[6,2],[7,-2],[12,-15],[4,-1],[5,3],[92,75],[35,35],[34,50],[63,95],[57,98],[11,32],[18,50],[16,27],[21,40],[5,40],[2,7],[3,5],[10,13],[32,50],[1,4],[0,8],[0,19],[0,6],[2,5],[21,30],[46,58],[45,78],[35,53],[15,26],[15,27],[14,22],[6,12],[11,15],[29,35],[28,30],[26,27],[21,22],[16,17],[14,17],[22,25],[43,51],[23,28],[26,32],[29,30],[39,40],[26,28],[65,72],[49,60],[45,65],[11,17],[24,31],[49,56],[37,51],[30,46],[41,54],[94,110],[61,75],[10,15],[29,63],[5,8],[5,6],[22,25],[29,43],[14,13],[58,33],[71,61],[53,48],[27,27],[37,57],[4,4],[10,0],[7,2],[3,2],[1,3],[-5,17],[0,5],[2,6],[8,5],[14,2],[8,3],[41,79],[-1,4],[-11,12],[-3,9],[4,15],[7,12],[5,2],[5,-2],[4,-6],[5,-2],[4,0],[5,3],[5,6],[1,5],[3,2],[6,-2],[9,9],[-5,31],[-20,38],[0,7],[1,6],[5,5],[7,1],[6,4],[23,34],[3,2],[3,0],[3,-1],[6,2],[7,12],[4,2],[4,-1],[7,-6],[10,25],[-1,3],[-16,28],[-6,12],[-1,9],[9,16],[36,36],[4,0],[1,-3],[-9,-26],[4,-7],[5,-6],[15,-7],[18,-3],[10,10],[8,19],[2,35],[2,7],[8,6],[40,6],[126,195],[24,38],[9,26],[-1,16],[-7,8],[-6,11],[-1,11],[8,11],[14,7],[23,5],[168,110],[5,5],[0,14],[2,6],[6,4],[75,35],[11,4],[6,6],[0,27],[2,4],[2,2],[3,1],[6,-1],[7,0],[7,3],[4,2],[4,-1],[6,-1],[5,1],[3,5],[0,4],[-6,4],[-1,5],[0,4],[3,3],[6,1],[8,-7],[10,0],[8,4],[42,61],[4,2],[7,0],[7,-1],[8,7],[7,17],[15,46],[6,16],[9,8],[52,23],[37,33],[33,42],[4,2],[6,2],[10,4],[53,42],[52,47],[6,4],[19,10],[12,12],[8,17],[4,13],[-1,17],[1,26],[2,5],[8,4],[8,5],[7,11],[11,31],[3,3],[5,1],[25,-3],[40,24],[28,32],[27,31],[12,15],[12,10],[29,21],[28,32],[20,27],[16,18],[3,8],[0,8],[-11,24],[-7,5],[-9,1],[-3,3],[0,6],[8,18],[3,6],[5,10],[5,7],[7,2],[36,2],[15,7],[17,10],[18,10],[26,1],[15,2],[12,7],[20,45]],[[47887,85316],[213,-248],[347,-183],[290,-24],[358,-6],[321,-42],[70,-126],[87,-69],[0,-147],[51,-88],[420,-84],[514,90],[94,118],[96,210],[44,318],[71,147],[103,-9],[125,-114],[71,-171],[82,-126],[217,-18],[397,-15],[135,-63],[-5,-247],[17,-636],[50,-529],[155,-594],[171,-588],[4,-13],[88,-162],[237,-48],[262,78],[204,75],[171,123]],[[50867,88617],[190,-61],[136,2],[135,82],[80,188],[156,0],[84,87],[236,133],[149,89],[147,97],[147,39],[127,10],[157,-12],[59,-39]],[[52670,89232],[51,-182],[17,-111],[19,-120],[22,-225],[-115,-30],[-86,-66],[69,-282],[103,-192],[206,-159],[67,-111],[-76,-81],[58,-225],[294,-351],[142,-198],[165,-312],[148,-93],[237,-81],[250,96],[67,51],[34,-78],[-80,-207],[-80,-226],[-13,-44],[-26,-85],[-107,-618],[-69,-294],[163,-384],[339,-358],[179,-261],[102,-192],[73,-195],[-134,-246],[-391,-364],[-141,-141],[-106,-126],[-51,-87],[22,-132]],[[47887,85316],[24,19],[10,3],[13,-1],[11,1],[14,4],[8,8],[10,19],[6,7],[9,1],[8,-6],[6,-10],[7,-5],[19,-6],[15,-1],[21,3],[271,158],[126,85],[56,38],[89,53],[128,95],[84,60],[68,51],[44,39],[32,31],[26,22],[23,17],[32,23],[38,30],[40,33],[35,27],[67,50],[43,36],[42,36],[112,104],[45,38],[67,69],[34,42],[28,69],[12,16],[18,16],[45,17],[79,60],[79,71],[5,9],[0,6],[1,8],[2,5],[6,2],[6,1],[11,4],[21,14],[14,18],[7,9],[17,21],[33,40],[20,31],[25,27],[12,6],[3,4],[0,5],[-11,16],[-1,9],[6,25],[5,6],[7,2],[12,2],[11,-3],[19,-2],[14,6],[84,76],[82,76],[13,21],[9,63],[5,8],[7,4],[10,-2],[16,-3],[15,9],[37,135],[1,11],[-1,7],[-6,27],[1,16],[4,8],[14,20],[48,99],[3,14],[-1,43],[2,13],[4,10],[7,12],[0,14],[-3,11],[-13,18],[-3,11],[1,10],[156,312],[47,122],[25,98],[18,45],[19,41],[52,53],[33,41],[37,78],[7,14],[10,8],[16,12],[23,33],[12,20]],[[57113,82175],[-26,217],[-57,180],[-52,166],[6,127],[9,179],[8,151],[2,40],[-6,36],[-52,354],[-2,102],[-5,253],[-46,232],[-2,9],[-90,298],[59,166],[138,89],[234,51],[5,177],[-113,273],[33,341],[51,480],[-28,482],[88,237],[392,165],[42,91],[36,164],[51,364],[108,314],[66,358],[149,191],[104,192],[-91,105],[-146,85],[-219,12],[-62,55],[-77,67],[-55,206],[-132,221],[-87,180],[-174,196]],[[57172,89781],[-391,114],[-347,138],[-133,246],[-209,243],[-88,237],[-248,56],[-144,-80],[-69,-264],[-30,-39],[-149,-186],[-176,-255],[-113,-180],[-196,-9],[-339,12],[-168,18],[-182,-195],[-162,-117],[-273,-156],[-152,-48],[-377,-239],[-111,161],[-126,156],[-43,117]],[[52946,89511],[-200,-46],[-102,-57],[13,-90],[13,-86]],[[52271,91149],[154,-118],[127,-145],[50,-70],[22,-29],[15,-19],[19,-20]],[[52658,90748],[-72,-55],[-101,-90],[-61,-102],[-79,-123],[-52,-108],[-14,-117],[59,-118],[94,-143],[108,-163],[114,-86],[107,-49],[102,-30],[62,22],[21,-75]],[[50867,88617],[25,25],[42,55],[44,86],[38,114],[25,54],[6,12],[-93,73],[-24,17],[-1,2],[-1,2],[0,2],[0,2],[2,2],[1,1],[2,1],[2,0],[2,0],[1,-1],[0,-2],[4,-7],[76,-59],[40,57],[-27,23],[-2,1],[0,1],[-1,2],[0,1],[1,2],[1,1],[1,1],[1,0],[2,0],[28,-8],[1,1],[10,47],[-47,12],[-1,1],[0,2],[0,3],[1,4],[2,1],[0,3],[12,-3],[1,3],[-12,3],[0,3],[-1,1],[4,22],[1,1],[2,1],[2,0],[25,-6],[2,8],[3,-1],[3,13],[2,7],[1,7],[1,7],[3,12],[-80,19],[-18,-85],[-17,5],[14,66],[-33,11],[-1,0],[-1,-1],[1,-1],[-40,-60],[-2,-4],[-1,1],[2,4],[-8,5],[-41,-63],[23,-18],[6,-2],[2,-1],[1,-1],[0,-1],[0,-2],[0,-2],[-1,-1],[-1,-1],[-2,-1],[-1,0],[-2,1],[-1,1],[-1,2],[-31,23],[-4,1],[-3,-1],[-3,-2],[-28,-44],[-24,-39],[0,-4],[-1,-5],[-3,-3],[-5,0],[-5,3],[-4,5],[0,4],[0,5],[12,17],[67,102],[33,50],[7,14],[2,7],[-1,4],[-1,3],[-2,3],[-80,60],[-2,3],[-1,3],[0,3],[1,3],[1,3],[3,2],[3,2],[3,0],[3,-1],[81,-65],[4,-1],[3,0],[4,2],[3,3],[6,9],[8,7],[11,6],[10,2],[8,0],[11,-3],[66,-19],[24,23],[86,126],[42,57],[18,16],[22,34],[19,32],[12,23],[16,39],[40,73],[35,69],[18,43],[17,37],[26,49],[54,80],[51,65],[38,46],[25,32],[19,24],[35,40],[8,11],[5,11],[8,33],[12,29],[24,38],[11,18],[10,18],[3,8],[7,33],[3,29],[2,7],[4,7],[30,38],[31,45],[12,15],[34,36],[21,28],[15,23],[8,11],[7,11],[113,133],[34,45],[11,17],[16,23],[15,18],[9,12],[8,9],[7,8],[12,11],[21,20],[10,11],[11,13],[11,16],[17,24],[21,37],[21,43],[15,26],[14,25],[14,22],[12,17]],[[59771,88657],[79,-60],[41,-80],[-69,-217],[-101,-378],[-113,-435],[-67,-366],[-22,-152],[12,-124],[128,-238],[264,-106],[200,13],[224,-122],[150,-206],[124,-95],[91,-16],[316,-95],[250,-147],[367,-198]],[[61645,85635],[-50,-354],[9,-414],[-67,-325],[-33,-261],[-126,-342],[-253,-256],[-302,-55],[-200,-170],[-130,-140],[-216,-130],[-296,-422],[-368,-493],[-271,-459],[-263,-455]],[[57172,89781],[143,-42],[425,-120],[496,-147],[196,-15],[201,-126],[413,-233],[265,-138],[159,-135],[160,6],[46,-57],[95,-117]],[[61645,85635],[240,-36],[207,-58],[157,30],[88,141],[322,96],[69,91],[-19,110],[-113,261],[-42,97],[-43,41],[-304,286],[6,390],[83,462],[52,523],[-36,230],[-210,306],[100,237],[-113,317],[-85,411],[-64,432],[-107,318],[-133,-168],[-135,-182],[-204,-18],[-295,96],[-193,106],[64,310],[69,233]],[[61006,90697],[-298,17],[-262,-9],[-259,-282],[-113,-153],[-47,-705],[-88,-380],[-168,-528]],[[61006,90697],[220,427],[220,429],[403,361]],[[61849,91914],[146,-172],[150,-21],[22,-3],[135,0],[127,-15],[3,2],[18,4],[16,8],[12,11],[9,12],[13,4],[11,8],[12,14],[8,12],[7,13],[3,14],[0,13],[1,14],[3,14],[9,15],[15,13],[17,10],[18,8],[12,3],[13,8],[10,6],[14,3],[16,5],[12,6],[13,-5],[10,-10],[10,-6],[13,-6],[16,-4],[13,-8],[10,-4],[11,2],[12,9],[12,2],[10,0],[9,3],[12,9],[271,47],[367,39],[22,2],[257,-12],[181,-9],[96,-2],[261,-5],[384,194],[22,26],[303,361],[49,4],[331,30],[258,803],[188,-61]],[[65822,93322],[-71,-531],[-52,-591],[-11,-566],[-11,-312],[-212,-306],[-60,-266],[-89,-278],[22,-186],[-47,-4]],[[65291,90282],[-42,102],[-259,-30],[-176,-102],[-231,-238],[25,-288],[66,-332],[25,-298]],[[64699,89096],[-48,-35],[-214,-3],[-91,-148],[91,-206],[88,-162],[47,-156],[27,-146],[-104,-169],[-229,-158],[-127,-93],[-86,27],[-178,98],[-91,-54],[-42,-138],[47,-176],[146,-199],[-529,-336],[-317,-243],[-308,-264],[-31,-159],[85,-117],[15,-238],[-53,-122],[-44,-219],[66,-243],[66,-267],[196,-330],[228,-463],[205,-259]],[[64699,89096],[49,-80],[80,-78],[-8,-81],[50,-90],[341,-15],[72,456],[245,-210],[171,39],[6,260],[-150,64],[17,141],[5,225],[-16,257],[-157,172],[-113,126]],[[57437,95043],[-210,596],[-94,600],[-2,17],[223,308],[72,138],[58,170],[-29,168],[-17,214],[41,268],[60,223],[38,188],[-133,96],[-149,163],[-61,84],[64,106],[12,138],[81,125],[56,167],[-338,686],[-15,292],[-53,181],[-139,28],[-3,-6],[-26,-29],[-39,-41],[-5,-11],[-1,-12],[2,-12],[1,-7],[-2,-6],[-8,-6],[-14,-14],[-15,-22],[-19,-50],[-15,-12],[-18,0],[-21,-7],[-16,-17],[-18,-29],[-12,-42],[-16,-52],[-24,-31],[-24,-31],[-9,-7],[-2,-12],[-2,2],[-4,14],[-2,1],[-3,0],[-29,-26],[-9,-16],[-3,-5],[1,-22],[-17,-18],[-16,1],[-10,-3],[3,-6],[3,-13],[-4,-13],[-13,-18],[-14,-11],[-32,-19],[-3,-1],[-2,1],[-2,6],[-3,19],[-6,5],[-6,-1],[-5,-3],[-3,-7],[5,-24],[4,-14],[12,-21],[7,-22],[23,-6],[-1,-5],[-8,-10],[-12,-12],[-5,-22],[-4,-26],[4,-17],[0,-13],[-6,-12],[-15,-12],[-20,-5],[-14,-17],[-11,-20],[-14,-20],[-14,-14],[-39,-20],[-21,-21],[-14,-7],[-13,-9],[-6,-17],[0,-13],[5,-7],[-30,-39],[7,-5],[0,-7],[0,-21],[4,-30],[-3,-22],[-7,-37],[-22,-76],[-8,-7],[-8,-4],[-25,3],[-6,-2],[-1,-4],[0,-4],[18,-20],[6,-14],[-1,-14],[-43,-102],[-31,-32],[-12,-16],[-17,-22],[-18,-18],[-12,-13],[-23,-23],[-22,-22],[-25,-28],[-9,-6],[-5,-4],[-7,-4],[-5,-5],[-3,-3],[-3,-2],[-4,-3],[-3,-2],[-3,-2],[-3,-2],[5,-3],[0,-1],[2,-10],[-7,-1],[-4,-4],[1,-7],[-8,-7],[-12,10],[-9,5],[-5,1],[-5,-2],[-8,-12],[-9,-2],[-16,7],[-4,-1],[-2,-3],[-2,-8],[-3,-6],[-30,-6],[-11,-5],[-9,-7],[-15,-19],[-5,-7],[-5,-20],[-14,-2],[-11,-9],[-4,-13],[-29,-13],[-4,-4],[-9,-23],[-28,-21],[-2,-5],[2,-7],[19,-8],[21,-44],[-17,-36],[-5,-19],[7,-15],[-6,-8],[-13,11],[-44,-24],[-6,10],[-7,2],[-10,-7],[5,-13],[9,0],[-5,-35],[25,-56],[13,-21],[4,-18],[-3,-30],[-7,-17],[-14,-13],[-4,-14],[8,-6],[-3,-8],[-3,-10],[-12,6],[-13,-9],[-10,-22],[-38,-7],[-10,-18],[-10,-19],[-12,-11],[-9,4],[-11,-34],[-8,-18],[-11,-4],[-24,-7],[-8,-9],[-2,-14],[14,-27],[0,-6],[-4,-5],[-16,7],[3,-4],[15,-8],[50,-31],[2,-3],[0,-4],[-18,-54],[-7,-13],[-4,2],[-3,-1],[0,-3],[-3,-1],[-2,1],[-2,-1],[-3,1],[-2,-3],[2,-3],[-1,-3],[0,-8],[4,-4],[9,-2],[-1,-6],[-5,-15],[-11,-12],[-8,-3],[-59,20],[-14,-1],[-23,-16],[-4,-6],[0,-13],[-6,-9],[-14,-4],[-3,-7],[-6,-21],[-4,-13],[-4,-7],[-8,-4],[-3,-3],[0,-3],[2,-2],[6,-6],[6,-25],[1,-64],[-8,-20],[-12,-10],[-15,-8],[-7,-14],[2,-9],[5,-8],[70,-34],[27,-47],[10,-62],[-7,-55],[-40,-94],[-36,-55],[-88,-77],[-19,-9],[-9,0],[-5,7],[-2,11],[-3,6],[-4,0],[-2,-1],[-3,-12],[0,-17],[-1,-15],[-2,-15],[-4,-4],[-8,-1],[-6,0],[-5,-2],[-4,-5],[-10,-31],[-17,-42],[-12,-33],[-13,-43],[-6,-38],[1,-41],[10,-48],[5,-12],[7,-12],[12,-17],[1,-4],[1,-4],[-19,-63],[-34,-63],[-65,-70],[-37,-40],[-45,-36],[-17,-13],[-22,-29],[-13,-40],[2,-26],[17,-26],[28,-30],[20,-15],[10,-10],[4,-15],[-5,-17],[-5,-24],[-3,-19],[0,-8],[3,-6],[0,-6],[-3,-4],[-7,-7],[-4,-18],[1,-11],[7,-10],[1,-4],[-1,-5],[-4,-14],[-1,-13],[0,-13],[4,-28],[1,-14],[0,-23],[-2,-4],[-3,-1],[-4,2],[-2,-1],[-2,-1],[-15,-79],[2,-17],[0,-16],[2,-14],[10,-34],[5,-14],[7,-15],[3,-14],[0,-16],[-2,-15],[-30,-65],[-34,-62],[-32,-20],[-8,0],[-12,-3],[-6,-5],[-6,-6],[-9,-17],[-5,-8],[-19,-33],[-3,-7],[-2,-3],[-1,-6],[-3,-8],[-5,-12],[-14,-22],[-4,-15],[0,-12],[2,-21],[2,-57],[-2,-13],[-3,-5],[-5,-2],[-11,5],[-3,-3],[1,-3],[10,-4],[5,-11],[2,-16],[0,-14],[1,-6],[5,-3],[2,-4],[-2,-17],[-4,-57],[-9,-29],[-17,-26],[-7,-9],[-4,-10],[-14,-42],[-33,-53],[-49,-47],[-4,-5],[-20,-26],[-45,-48],[-25,-25],[-21,-23],[-46,-43],[-10,-4],[-8,-2],[-7,0],[-9,-3],[-5,-3],[-12,-24],[-18,-32],[-10,-20],[-18,-23],[-22,-9],[-6,-14],[3,-29],[-15,-17],[-17,-8],[-23,-2],[-11,-7],[-10,-13],[-17,-28],[-17,-14],[-15,-8],[-16,-10],[-8,-8],[-13,-16],[-7,-12],[-6,-8],[-11,-11],[-35,-40],[-6,-22],[0,-14],[-1,-6],[-3,-7],[-14,-11],[-1,-6],[1,-9],[-1,-7],[-2,-10],[-11,-13],[-8,-8],[-10,-5],[-9,-4],[-11,-7],[-12,-18],[-9,-11],[-5,-12],[2,-15],[3,-12],[7,-22],[-2,-8],[-5,-5],[-7,-5],[-9,-11],[-5,-9],[-7,-13],[-4,-13],[-2,-14],[0,-11],[0,-12],[-2,-18],[-3,-19],[-7,-16],[-4,-9],[-12,-19],[-6,-20],[-10,-48],[-12,-19],[-7,-3],[-4,2],[-5,9],[-5,1],[-4,-2],[-1,-6],[2,-8],[8,-15],[0,-7],[-6,-5],[-47,7],[-3,-4],[1,-4],[32,-8],[2,-4],[0,-5],[-6,-26],[-11,-25],[-15,-37],[-3,-7],[-11,-27],[-11,-23],[-9,-17],[-8,-11],[-16,-9],[-1,-4],[1,-4],[7,-1],[3,-1],[3,-4],[0,-4],[-6,-18],[-9,-16],[-19,-14],[-1,-2],[0,-3],[5,-17],[3,-4],[6,-2],[10,-3],[-5,-13],[-8,-18],[-50,-98],[-18,-5],[-19,-5],[-2,-3],[-2,-6],[3,-22],[2,-5],[4,-5],[25,-10],[1,-3],[-1,-18],[-15,-35],[-16,-34],[-19,-37],[-22,-52],[-38,-75],[-47,-63],[-6,-5],[-12,-10],[-4,-1],[-7,-1],[-4,2],[-4,0],[-5,1],[-5,-3],[-2,-4],[0,-3],[3,-3],[5,-3],[9,-7],[1,-30],[-7,-19],[-15,-29],[-2,-2],[-2,-1],[-2,1],[-4,5],[-4,2],[-3,-2],[-2,-4],[0,-3],[4,-6],[2,-3],[1,-10],[1,-10],[0,-6],[-23,-28],[-25,-24],[-9,-11],[-8,-16],[-30,-73],[-22,-36],[-12,-20],[-31,-47],[-35,-60],[-8,-9],[-12,9],[-16,11],[-8,2],[-1,-2],[0,-3],[7,-4],[4,-2],[3,-7],[2,-8],[-2,-5],[-5,-12],[-9,-12],[-6,-8],[-6,-7],[-4,-7],[-6,-9],[-10,-15],[-7,-8],[-3,-4],[-3,-5],[-3,-3],[-2,-5],[-2,-3],[-3,-5],[-5,-8],[-6,-8],[-3,-4],[-3,-3],[-3,-3],[-10,-10],[-6,-7],[-3,-4],[-4,-4],[-3,-3],[-1,-4],[-1,-4],[-4,-9],[-4,-5],[-4,-4],[-6,4],[-1,1],[0,-1],[1,-4],[1,-3],[0,-3],[-15,-14],[-8,-11],[-32,-32],[-53,-47],[-30,-30],[-46,-41],[-32,-27],[-15,-17],[-28,-34],[-29,-38],[-17,-21],[-8,-12],[-9,-11],[-5,-3],[-3,0],[-12,10],[-11,10],[-11,5],[-4,0],[-1,-5],[2,-7],[6,-9],[16,-11],[4,-4],[1,-2],[-3,-16],[-13,-16],[-15,-15],[-2,-2],[-4,1],[-7,9],[-6,7],[-4,2],[-2,-1],[-2,-6],[0,-5],[0,-5],[3,-7],[9,-10],[3,-4],[0,-4],[-1,-2],[-10,-8],[-26,-23],[-1,0],[-15,10],[-2,2],[-3,-2],[0,-3],[5,-12],[7,-11],[-13,-15],[-18,-14],[-12,-7],[-4,-1],[-6,-2],[-14,-4],[-10,-7],[-7,-9],[-2,-9],[1,-10],[4,-11],[0,-3],[-1,-5],[-3,-5],[-11,-11],[-12,-11],[-8,-8],[-11,-14],[-16,-21],[-13,-14],[-9,-7],[-10,-12],[-18,-27],[-16,-30],[-13,-19],[-15,-23],[-9,-15],[-19,-24],[-30,-38],[-75,-69],[-24,-14],[-17,-12],[-20,-19],[-16,-23],[-13,-17]],[[52658,90748],[57,36],[136,361],[176,251],[116,151],[166,171],[161,121],[103,122],[278,-222],[366,123],[103,46],[21,-75],[118,26],[153,-2],[274,47],[274,139],[145,-156],[1,0],[102,-34],[75,52],[18,90],[-86,145],[62,117],[162,161],[129,191],[114,120],[128,127],[95,147],[-137,9],[-64,-75],[-40,110],[-18,49],[-13,72],[223,177],[294,203],[213,195],[259,327],[170,245],[204,315],[166,272],[4,6],[71,135]],[[57437,95043],[376,150],[486,227],[254,174],[278,208],[199,148],[13,9],[392,261],[771,48],[133,-6],[435,850],[110,-419],[2,-16],[56,-607],[-122,-462],[-16,-62],[-151,-572],[-99,-21],[-147,-153],[-61,-81],[-109,-143],[-214,-341],[-54,-216],[146,-147],[166,-216],[314,-69],[41,-173],[182,-195],[94,-135],[33,-237],[142,-129],[108,-272],[185,-110],[91,-38],[186,-325],[192,-59]],[[72360,92149],[46,558],[-531,287],[-372,725],[-237,515],[-419,-134],[-348,-222],[-63,-219],[19,-359],[-22,-390],[-115,-506],[-160,-189],[-190,-12],[-251,21],[-130,12],[-215,147],[-82,312],[-254,344],[-98,146],[-8,13],[-134,198],[-212,150],[-231,-42],[41,-126],[110,-156],[218,-171],[55,-222],[50,-341],[-3,-399],[47,-185],[138,-105],[-58,-168],[-97,-135],[-63,-168],[-50,-318],[83,-149]],[[68824,90861],[215,-96],[201,-54],[262,123],[237,186],[176,113],[234,81],[102,51],[47,-54],[56,-33],[-25,-120],[-61,-260],[201,-471],[141,-234],[-163,-240],[207,-66],[-14,-156],[-317,-117],[386,-581]],[[70709,88933],[111,20],[148,7],[190,51],[119,219],[198,-15],[276,9],[199,70],[167,100]],[[72117,89394],[65,104],[54,280],[28,239],[87,319],[51,613],[-15,322],[10,374],[-22,350],[-15,154]],[[70709,88933],[-201,-15],[-116,69],[98,-158],[12,-19],[14,-114],[-30,-219],[-314,-198],[-168,-24],[-188,-24],[-212,78],[-179,93],[-66,66],[-50,201],[-152,-33],[-118,-21],[-58,-123],[-151,-408],[-64,-234],[-107,-237],[-155,-165],[-39,-26],[-286,-181],[-231,-279],[-160,-372],[-113,-201],[-204,-84],[-288,-289]],[[66967,87406],[318,-8],[142,659],[102,273],[107,-3],[265,33],[-14,32],[-1,2],[-27,65],[9,411],[231,78],[3,164],[99,271],[44,140],[18,30],[40,66],[168,0],[190,60],[-140,87],[-102,-9],[-124,87],[-212,57],[-141,72],[-107,-87],[-33,0],[204,423],[129,444]],[[68135,90753],[129,178],[72,10],[97,-98],[212,68],[179,-50]],[[72117,89394],[91,-353],[30,-246],[3,-336],[28,-288],[-113,-288],[-21,-136],[139,-38],[160,-93],[149,-120],[16,-42]],[[68135,90753],[-52,350],[-11,318],[88,291],[2,13],[58,308],[-27,410],[-303,21],[-183,58],[-168,26],[-123,61],[-190,145],[-86,206],[-175,-109],[-171,-21],[-6,14],[-7,14],[-3,14],[6,12],[6,12],[4,8],[27,35],[-3,17],[-3,13],[-2,22],[3,12],[3,16],[2,7],[-8,15],[3,16],[-3,15],[-3,13],[-2,12],[0,15],[-1,13],[0,24],[1,13],[0,22],[0,17],[0,10],[0,9],[-8,16],[-5,14],[-6,17],[-3,10],[-4,12],[-6,16],[2,36],[1,17],[7,16],[6,13],[5,12],[14,42],[6,16],[4,14],[6,19],[6,9],[15,15],[7,8],[4,20],[2,15],[2,8],[-2,23],[-1,18],[-1,13],[-1,16],[6,21],[4,12],[4,13],[3,12],[4,11],[-160,47],[-45,104],[-117,46],[-84,48],[-66,23],[-47,4],[-36,8],[-22,-24],[-39,21],[-97,-2],[1,-67],[-4,-229],[-28,-98],[-6,-21],[-19,-92],[-152,17],[-91,0],[-45,-167]],[[79679,88243],[-107,507],[-69,366],[-179,404],[-229,300],[-342,162],[-308,171]],[[78445,90153],[63,159],[105,213],[-39,225],[-85,221],[-174,147],[8,174],[22,108],[108,96],[195,150],[72,195],[-129,182],[55,381],[25,165],[124,162],[-3,335],[-22,327],[19,251],[-36,222],[-195,189],[-138,434],[-47,237],[-22,142]],[[78351,94868],[139,121],[118,58],[153,68],[260,-54],[267,-42],[207,-143],[57,-162],[452,-21],[383,-12],[317,-414],[279,-194],[399,-264],[146,-162],[161,-200],[322,-276],[330,-270],[240,-311],[85,-216],[39,-330],[380,-443],[400,-480],[346,-369],[16,-17],[288,-333],[122,-216],[-50,-258],[-182,-426],[-148,-366]],[[76843,90004],[-405,344],[-228,-24],[-40,167],[-49,193],[-66,21],[-93,3],[-113,-129],[-191,120],[-162,72],[-163,89],[-5,93],[82,219],[174,135],[187,-21],[155,-96],[146,-90],[24,-14],[5,-3],[1,-1],[130,-78],[135,-32],[118,65],[52,162],[53,39],[107,-51],[100,-99],[137,-86],[50,68],[39,117],[-152,171],[-152,210],[-22,30],[199,222],[-188,198],[-207,-7],[-13,0],[-149,-6],[-149,186],[-107,126],[-22,126],[-86,27],[-107,-12]],[[75868,92458],[-19,117],[-28,168],[-3,272],[350,186],[55,-147],[47,-234],[143,177],[78,345],[487,-3],[105,228],[91,410],[147,261],[10,18],[77,215],[36,192],[91,159],[63,29],[218,48],[196,42],[339,-73]],[[78445,90153],[-163,159],[-337,201],[-286,30],[-229,63],[-179,-23],[-193,-115],[-121,-177],[-41,-108],[-53,-179]],[[75868,92458],[-64,-120],[-143,-303],[-366,339],[-251,225],[-474,84],[-380,-222],[-260,-51],[-77,168],[-30,201],[-119,197],[-129,174],[-30,-419],[-58,-126],[-91,-309],[-53,-306],[-85,-332],[-413,222],[-485,269]],[[74990,87028],[57,72],[33,189],[5,186],[22,141],[110,57],[180,174],[91,96],[132,129],[58,159],[250,300],[271,324],[110,284],[113,295],[60,20],[235,9],[55,225],[52,144],[19,172]],[[21286,52670],[-369,15],[-235,82],[-191,53],[-187,136],[-70,-3],[-126,6],[-207,10],[-324,11],[-641,255],[-439,250],[-835,139],[-469,51],[-647,34],[-951,69],[-279,170]],[[15316,53948],[-148,39],[-72,-139],[-283,-582],[-205,77],[-165,-361],[-248,-120],[-185,-342],[-5,-155],[-66,-82],[-254,137],[-226,175],[-146,173],[-14,17]],[[13299,52785],[-20,-13],[-32,-11],[-21,-10],[-33,-13],[-46,-25],[-46,-40],[-39,-39],[-35,-30],[-62,-33],[-34,-19],[-26,-10],[-26,-2],[-16,-1],[-15,-8],[-10,-10],[-33,-64],[-22,-28],[-31,-32],[-33,-32],[-66,-87],[-32,-66],[-3,-17],[4,-15],[31,-55],[0,-21],[-7,-19],[-23,-38],[-28,-62],[-32,-129],[-18,-39],[-32,-31],[-47,-36],[-30,-28],[-40,-46],[-41,-64],[-89,-157],[-3,-29],[9,-14],[21,-22],[4,-26],[-7,-23],[-112,-94],[-37,-44],[-9,-20],[-4,-24],[4,-55],[-7,-28],[-125,-191],[-119,-193],[-90,-88],[-29,-39],[-14,-29],[-27,-50],[-5,-4],[-10,-4],[-12,1],[-6,0],[-4,-3],[-1,-3],[3,-10],[0,-6],[-4,-7],[-47,-40],[-14,-12],[-12,-10],[-9,-3],[-14,1],[-6,0],[-11,-3],[-32,-18],[-11,-23],[0,-20],[-8,-11],[-10,-3],[-14,4],[-10,-1],[-12,-7],[-15,-12],[-5,0],[-5,3],[-9,7],[-9,5],[-8,-4],[-9,-9],[-140,-298],[-84,-102],[-104,-72],[-99,-24],[-59,-34],[-17,-11],[-10,-12],[-7,-18],[-8,-42],[-22,-74],[-5,-9],[-7,-4],[-11,-2],[-13,-9],[-26,-44],[-21,-45],[-22,-88],[-15,-94],[-16,-104],[-49,-205],[-35,-152],[-18,-60],[-11,-33],[-8,-21],[-4,-17],[-4,-14],[-7,-37],[-9,-23],[-11,-14],[-26,-24],[-18,-19],[-15,-24],[-47,-75],[-17,-35],[-8,-19],[-13,-22],[-12,-21],[-16,-23],[-36,-38],[-34,-35],[-43,-36],[-4,-6],[-5,-15],[-10,-31],[-6,-12],[-11,-12],[-251,-184],[-60,-42],[-24,-17],[-22,-7],[-19,-2],[-25,3],[-28,-4],[-24,-13],[-20,-16],[-53,-54],[-4,-7],[-6,-21],[-13,-10],[-19,-7],[-85,-68],[-67,-47],[-21,-22],[-23,-17],[-89,-52],[-17,-23],[-53,-12],[-29,15],[-9,-7],[2,-42],[-17,-11],[-20,11],[-7,0],[-5,-3],[-5,-9],[-2,-7],[4,-29],[-2,-7],[-5,0],[-14,9],[-5,-1],[-7,-11],[-9,-17],[1,-4],[8,-13],[0,-16],[-6,-16],[-5,-2],[-12,-1],[-20,7],[-8,-5],[-5,-11],[8,-40],[-1,-2],[-2,-1],[-23,-2],[-16,-8],[-9,-15],[1,-23],[-1,-2],[-2,-1],[-21,4],[-20,-13],[-7,-11],[-1,-7],[-1,-3],[-5,-2],[-7,1],[-10,-4],[-5,-7],[-12,-18],[-10,-12],[-2,-5],[-1,-7],[-8,-12],[-17,-33],[-16,-27],[-5,-3],[-10,-4],[-5,-4],[-5,-8],[-4,-13],[-5,-4],[-10,-5],[-3,-2],[-8,-12],[-11,-12],[-18,-16],[-27,-24],[-78,-46],[-139,-72],[-52,-15],[-19,-3],[-14,1],[-20,6],[-6,-1],[-75,-39],[-41,-34],[-65,-57],[-35,-10],[-13,-4],[-5,-5],[-13,-17],[-26,-19],[-22,-16],[-11,-6],[-9,-4],[-9,-3],[-23,-8],[-16,-8],[-10,-6],[-2,-3],[1,-3],[15,-33],[-275,-152],[-84,-39],[-35,-2],[-73,-12],[-17,1],[-27,-7],[-5,-7],[-4,-8],[-4,-4],[-4,-1],[-4,0],[-15,10],[-13,0],[-14,-9],[-1,-2],[-3,-12],[-7,-11],[-22,-17],[-22,-9],[-16,-10],[-29,-10],[-26,-22],[-41,-23],[-9,-3],[-20,1],[-8,-2],[-10,-5],[-9,-7],[-12,-14],[-69,-36],[-81,-38],[-26,-7],[-34,-15],[-9,-7],[-15,-8],[-17,-6],[-24,-11],[-18,-3],[-11,0],[-7,0],[-4,-1],[-12,-9],[-4,-2],[-4,1],[-11,12],[-4,2],[-3,0],[-4,-2],[-11,-4],[-35,-22],[-10,-10],[0,-2],[-1,-11],[-2,-3],[-4,-2],[-7,-2],[-3,2],[-6,8],[-8,8],[-8,2],[-6,-1],[-8,-6],[-2,-5],[-8,-11],[-3,-11],[2,-6],[0,-3],[-2,-6],[-5,-2],[-4,0],[-5,4],[-6,5],[-18,5],[-22,-4],[-11,-9],[-6,-14],[-2,-12],[-1,-3],[-3,-2],[-6,-2],[-4,0],[-3,2],[-4,5],[-4,4],[-14,1],[-13,1],[-12,-6],[-6,-4],[-9,-13],[-3,-12],[0,-7],[-3,-2],[-4,0],[-17,14],[-4,1],[-17,-3],[-14,-6],[-13,-4],[-11,-5],[-7,-4],[-5,-5],[-2,-4],[-2,-4],[1,-7],[-1,-17],[-2,-3],[-4,-1],[-4,0],[-5,4],[-5,5],[-12,5],[-22,-2],[-3,-1],[-5,-8],[-5,-4],[-2,-6],[-2,-6],[1,-4],[3,-12],[0,-5],[-1,-4],[-4,-2],[-7,-3],[-8,0],[-7,5],[-8,3],[-3,0],[-2,-2],[-5,-8],[-10,-20],[-9,-6],[-7,-2],[-7,0],[-13,6],[-6,0],[-5,-2],[-5,-1],[-4,-3],[-10,-19],[-1,-16],[0,-2],[-4,-1],[-5,-2],[-7,4],[-5,5],[-4,2],[-4,-2],[-8,-8],[-27,-36],[-9,-13],[0,-5],[1,-6],[0,-2],[-1,-1],[-34,-15],[-47,-25],[-53,-23],[-52,-23],[-19,-3],[-20,-6],[-28,-11],[-26,-8],[-37,-13],[-5,-3],[-34,-13],[-15,-8],[-15,-4],[-16,-5],[-8,-2],[-1,0],[-5,2],[-6,0],[-4,-1],[-5,-4],[-46,-24],[-9,-4],[-19,-8],[-14,-7],[-10,-5],[-7,-2],[-19,-6],[-16,-2],[-6,-1],[-4,1],[-2,-1],[-2,-2],[-2,-8],[-1,-2],[-3,-1],[-4,2],[-3,3],[-7,4],[-17,3],[-8,0],[-10,-7],[-3,-4],[0,-2],[3,-7],[-1,-4],[-3,-4],[-5,0],[-7,3],[-4,-1],[-5,-4],[-5,-6],[-1,-7],[-2,-5],[-5,-1],[-9,2],[-6,2],[-7,-1],[-6,-5],[-5,-7],[-3,-9],[-4,-3],[-3,-1],[-3,2],[-4,7],[-3,1],[-13,-6],[-6,-11],[-2,-4],[-5,0],[-3,1],[-3,0],[-4,-2],[-4,-6],[-5,-5],[-5,-3],[-5,-1],[-7,2],[-12,6],[-15,7],[-4,1],[-5,-4],[-13,-12],[-6,-7],[-1,-1],[2,-9],[-1,-10],[-6,-9],[-4,-2],[-5,-1],[-7,2],[-4,1],[-1,0],[-1,-1],[0,-2],[-1,-2],[-2,0],[-6,4],[-3,1],[-5,-1],[-3,-2],[-11,-16],[-4,-7],[-7,-6],[-15,-10],[-5,-12],[-13,-15],[-11,-7],[-136,-54],[-52,-19],[-51,-26],[-26,-11],[-15,-6],[-21,-2],[-4,0],[-2,1],[-2,4],[-1,1],[-9,2],[-17,-8],[-7,-3],[-120,-50],[-65,-25],[-46,-18],[-38,-9],[-1,-1],[-11,-3],[-9,-3],[-14,-1],[-37,-22],[-31,-14],[-42,-8],[-26,-7],[-2,-2],[-2,-1],[-1,0],[-6,1],[-4,-1],[-17,-12],[-4,-1],[-23,3],[-20,-1],[-5,-3],[-2,-4],[0,-4],[-2,-1],[-22,-4],[-3,-3],[-7,-11],[-7,-4],[-16,-8],[-3,0],[-19,5],[-33,2],[-4,-2],[-13,-9],[-4,-2],[-10,0],[-14,3],[-14,-6],[-12,-7],[-15,-21],[-8,-6],[-15,-14],[-2,0],[-3,1],[-3,-1],[-7,0],[-21,-12],[-11,-19],[-2,-1],[-7,0],[-8,4],[-2,0],[-2,-1],[-4,-5],[-3,-3],[-4,-1],[-3,0],[-11,7],[-3,0],[-13,-10],[-2,-3],[1,-9],[-3,-5],[-8,-8],[-5,-1],[-11,2],[-8,2],[-10,-1],[-3,-3],[-1,-8],[-3,-4],[-5,-3],[-6,-1],[-5,1],[-10,5],[-7,0],[-7,-2],[-37,-16],[-51,-36],[-14,-5],[-35,-10],[-35,-13],[-20,-11],[-62,-22],[-50,-16],[-21,-4],[-12,-1],[-9,4],[-7,4],[-3,3],[-3,6],[-3,3],[-4,0],[-2,-1],[-2,-1],[-2,-4],[-2,-2],[-1,-2],[-1,-8],[-3,-7],[-4,-6],[-2,-4],[-3,0],[-3,0],[-3,1],[-3,3],[-4,7],[-7,4],[-10,1],[-7,0],[-6,0],[-8,0],[-5,1],[-8,2],[-4,3],[-2,-1],[-4,-2],[-2,0],[-11,8],[-3,3],[-3,3],[-3,6],[-2,2],[-3,1],[-8,-3],[-3,-2],[-16,-5],[-2,-2],[-1,-3],[-1,-1],[-6,-6],[-5,-2],[-12,-2],[-4,-4],[-2,0],[-8,2],[-4,0],[-1,0],[-1,0],[-1,0],[-1,0],[-2,-2],[-2,-1],[-1,-2],[-1,-4],[-3,-5],[-4,-4],[-2,-4],[-2,-1],[-5,1],[-2,0],[-1,-1],[-2,-5],[-1,-2],[-3,-2],[-2,-1],[0,-1],[1,-5],[0,-1],[-7,-6],[-3,-5],[-4,-4],[-8,-3],[-5,-2],[-2,0],[-3,3],[-4,2],[-2,1],[-1,-1],[-1,-1],[-1,-1],[0,-1],[0,-4],[0,-2],[-1,-3],[-1,-3],[-4,-4],[-3,-3],[-3,-3],[-4,0],[-7,1],[-2,0],[-1,-4],[-3,-2],[-1,-1],[-1,1],[-1,2],[-1,1],[-11,3],[-7,3],[-1,0],[-3,-4],[-3,-5],[0,-9],[2,-4],[0,-6],[-3,-4],[-4,-3],[-5,-2],[-6,0],[-15,6],[-4,3],[-8,2],[-4,3],[-3,6],[-5,8],[-8,10],[-7,3],[-5,0],[-1,-1],[-2,-5],[-6,-8],[-3,-3],[-5,-2],[-6,0],[-3,-1],[-2,-3],[-1,-2],[-4,-5],[0,-1],[2,-6],[1,-1],[0,-5],[1,-3],[0,-2],[-3,-5],[-3,-4],[0,-1],[1,-3],[0,-2],[-4,-6],[-11,-9],[-1,0],[-1,0],[-4,3],[-4,1],[-2,0],[-9,-2],[-4,2],[-5,4],[-3,4],[0,4],[1,3],[0,5],[-1,3],[-2,1],[-4,0],[-2,-1],[-9,-7],[-7,-6],[-5,-3],[-5,0],[-6,2],[-2,2],[-1,1],[-1,0],[-2,-1],[-1,0],[-1,-1],[-1,-1],[-3,-3],[-2,-1],[-9,1],[-8,-2],[-8,-6],[-9,-12],[-4,-8],[-3,-5],[-7,-7],[-7,-10],[-4,-4],[-4,-7],[-4,-3],[-31,-8],[-4,-1],[-9,1],[-6,-2],[-6,0],[-11,-4],[-1,-1],[-1,-4],[-1,-4],[-4,-4],[-5,-2],[-6,2],[-6,5],[-2,2],[-4,2],[-7,1],[-5,0],[-1,0],[-1,3],[-6,3],[-5,1],[-4,2],[-1,2],[0,1],[1,2],[-1,1],[0,1],[-7,1],[-7,1],[-7,-2],[-6,0],[-5,0],[-5,3],[-2,0],[-3,-1],[-2,-1],[0,-3],[1,-8],[0,-3],[-1,-1],[-4,-3],[-5,-5],[-3,-1],[-2,-2],[-1,-3],[-3,-2],[-3,-3],[-3,-1],[-4,1],[-4,1],[-1,1],[-8,-6],[-4,0],[-8,1],[-4,2],[-1,0],[-1,-1],[-3,-3],[-3,-3],[-3,-3],[-11,-5],[-6,-5],[-3,-2],[-1,0],[-1,1],[-1,2],[-1,0],[-1,0],[-7,-5],[0,-1],[0,-4],[-3,-8],[-4,-8],[-7,-5],[-3,-2],[-4,-4],[-1,-1],[-1,1],[-2,3],[-3,1],[-3,1],[-2,-2],[-1,-2],[2,-7],[0,-1],[-3,-3],[-4,-4],[-5,-6],[-4,-10],[-2,-3],[-3,-2],[-6,1],[-8,4],[-3,-1],[-1,-1],[-1,-8],[-4,-5],[-8,-3],[-11,-3],[-8,0],[-6,4],[-3,1],[-2,0],[-1,0],[-3,-2],[0,-1],[-2,-6],[-3,-10],[-1,-3],[-4,-6],[-5,-4],[-6,-2],[-6,0],[-1,1],[-1,1],[-3,1],[-3,-1],[-1,-2],[-1,-6],[-4,-7],[-4,-3],[-5,-3],[-4,-1],[-2,1],[-6,4],[-4,2],[-4,2],[-8,6],[-5,2],[-13,14],[-1,0],[-1,0],[-14,-4],[-8,-2],[-5,-2],[-4,-2],[-8,-6],[-5,-3],[-7,-2],[-8,-3],[-3,-3],[-4,-2],[-13,-2],[-7,0],[-4,3],[-5,5],[-1,1],[-7,-2],[-15,-2],[-13,-3],[-2,1],[-2,0],[-1,-1],[-1,-1],[-2,-2],[-5,-5],[-9,-13],[-6,-11],[-4,-5],[-4,-3],[-6,-4],[-5,-2],[-1,-1],[-1,-1],[0,-3],[-1,-4],[-2,-3],[-2,-6],[-2,-4],[-2,-3],[-1,-2],[1,-2],[-1,-2],[-3,-6],[-4,-6],[-6,-6],[-6,-6],[-7,-2],[-6,2],[-3,3],[-1,0],[-1,4],[-2,4],[-8,3],[-6,-1],[-3,0],[-7,4],[-1,-1],[-1,-1],[1,-5],[-1,-4],[-5,-11],[-4,-4],[-4,-4],[-5,-1],[-4,-1],[-7,3],[-3,-1],[-2,-3],[0,-7],[-1,-10],[-2,-4],[-4,-4],[-8,-4],[-3,-2],[-4,-3],[-7,-2],[-21,-5],[-5,1],[-14,4],[-9,0],[-3,-1],[-11,2],[-4,2],[-3,1],[-3,2],[-6,3],[-9,2],[-10,7],[-1,0],[-1,0],[-6,-7],[-5,-3],[-7,-3],[-5,-1],[-2,-1],[-7,-6],[-3,-3],[-3,-6],[-7,-6],[-4,-4],[-1,-5],[1,-7],[3,-3],[1,-4],[1,-2],[0,-2],[-3,-3],[-8,-7],[-5,-2],[-7,-5],[-7,-7],[-3,-2],[-3,-1],[-6,-1],[-5,1],[-4,3],[-2,1],[-5,0],[-3,0],[-14,2],[-2,-1],[-1,-3],[-1,-1],[-13,-7],[-2,-1],[-2,-5],[-5,-9],[-2,-3],[-3,0],[-2,1],[-4,4],[-5,3],[-3,-1],[-3,-1],[-4,-3],[-5,-3],[-7,-2],[-4,-1],[-4,0],[-5,-1],[-4,-3],[-5,-5],[-5,-3],[-12,-11],[-9,-16],[-3,-4],[-1,-3],[-6,-7],[-6,-11],[-4,-3],[-5,-3],[-6,-3],[-3,0],[-5,0],[-7,1],[-4,2],[-2,1],[-8,7],[-5,3],[-2,3],[-1,1],[-1,1],[-12,-5],[-4,-3],[-10,-7],[-15,-8],[-5,-1],[-5,-1],[-2,2],[-1,0],[-6,-1],[-4,-2],[-3,-3],[-3,-2],[-5,-4],[-3,-3],[-7,-12],[-5,-5],[-3,-4],[-10,-8],[-5,-2],[-9,-2],[-8,-3],[-6,0],[-4,2],[-3,0],[-16,-4],[-12,-8],[-11,-6],[-3,-3],[-6,-1],[-6,1],[-8,4],[-15,6],[-2,0],[-6,-4],[-3,-1],[-4,-1],[-4,-2],[-2,-1],[-5,0],[-2,-1],[-2,-5],[-3,-3],[-4,-5],[-1,-4],[-3,-3],[-3,-1],[-6,-6],[-3,-3],[-3,-3],[-2,-4],[-5,-3],[-6,0],[-11,4],[-3,3],[-5,4],[-3,3],[-6,2],[-3,0],[-9,1],[-6,2],[-3,-1],[-7,-3],[-6,-1],[-4,-1],[-1,-1],[-4,-4],[-6,-6],[-7,-5],[-4,-6],[-4,-8],[-4,-9],[-4,-5],[-7,-6],[-6,-4],[-7,-3],[-6,-3],[-7,-1],[-5,2],[-3,-1],[-2,-3],[0,-2],[0,-1],[-10,-5],[-6,-2],[-8,-4],[-7,0],[-5,1],[-2,1],[-1,-1],[-3,-3],[-9,0],[-28,4],[-10,2],[-2,0],[-4,0],[-5,1],[-3,-1],[-3,0],[-1,0],[-1,0],[-1,-3],[0,-1],[-1,-1],[-1,0],[-2,-3],[0,-2],[1,-3],[-1,-5],[-1,-2],[-4,-4],[-3,-3],[-2,-2],[0,-5],[-2,-6],[-3,-8],[-1,-9],[-4,-7],[-6,-6],[-8,-4],[-5,0],[-5,0],[-9,2],[-7,3],[-3,1],[-10,8],[-5,4],[-2,2],[-8,9],[-6,3],[-4,1],[-6,2],[-2,2],[-1,3],[-1,1],[-6,2],[-4,0],[-2,0],[-1,1],[-1,1],[-2,-1],[-4,-2],[-3,-2],[-6,-1],[-2,-1],[0,-1],[0,-2],[1,-2],[1,-1],[-1,-1],[-1,-1],[-3,-3],[-1,-3],[0,-9],[-2,-5],[-2,-3],[-8,-6],[-5,-2],[-2,-2],[-6,0],[-9,-2],[-3,-2],[-5,-8],[-4,-3],[-9,-4],[-3,-3],[-4,-3],[-2,-1],[-4,-1],[-3,0],[-2,1],[-2,1],[-1,0],[-3,-1],[-2,-2],[-2,-4],[-4,-10],[-1,-5],[-4,-5],[-3,-3],[-4,-3],[-5,-3],[-3,0],[-1,0],[-1,-1],[-2,-4],[-10,-8],[-5,-1],[-1,-1],[-2,1],[-1,2],[-2,2],[-3,-1],[-4,-5],[-4,-4],[-3,-2],[-6,-1],[-3,-1],[-2,-1],[-2,-4],[-3,-4],[-6,-7],[-8,-7],[-6,-3],[-4,-3],[-5,-3],[-6,-2],[-5,1],[-3,0],[-5,2],[-3,0],[-5,4],[-5,3],[-8,2],[-6,0],[-9,1],[-5,-1],[-4,-2],[-10,-9],[-6,-5],[-2,-1],[-2,0],[-4,0],[-2,-1],[-1,-3],[1,-4],[-1,-1],[-6,-8],[-8,-6],[-8,-2],[-8,-3],[-3,-1],[-1,1],[-4,1],[-4,2],[-3,-1],[-1,-1],[-5,0],[-9,-1],[-7,0],[-3,1],[-4,-1],[-1,-2],[-2,-2],[-1,-4],[-2,-4],[-3,-1],[-2,0],[-6,0],[-2,-1],[-1,-1],[-4,-4],[-1,0],[-10,-1],[-4,0],[-3,-2],[-2,-2],[-1,-5],[-4,-7],[-8,-9],[-13,-8],[-9,-4],[-4,-1],[-7,2],[-3,2],[-3,5],[-2,1],[-1,-1],[-3,-4],[-3,-3],[-3,-2],[-1,0],[-1,0],[-2,0],[-2,-1],[-12,-4],[-5,-2],[-6,0],[-6,2],[-2,-1],[-8,-8],[-4,-6],[-7,-6],[-4,-5],[-3,-2],[-1,-2],[2,-8],[-1,-5],[-2,-4],[-5,-3],[-1,-1],[-3,1],[-6,3],[-6,2],[-6,3],[-5,0],[-4,2],[-3,0],[-3,0],[-4,-5],[-5,-2],[-1,-1],[-1,-3],[0,-4],[0,-7],[0,-4],[-2,-3],[-5,-2],[-2,-1],[-2,1],[-4,2],[-2,0],[-1,0],[-3,-3],[-5,-1],[-4,1],[-2,2],[-3,1],[-4,-2],[-4,-3],[-3,-3],[-5,-4],[-4,-4],[-4,-1],[-2,-1],[-2,-4],[-7,-4],[-7,-2],[-12,-4],[-10,0],[-3,0],[-4,-2],[-7,-7],[-2,-6],[0,-6],[-1,-6],[-6,-7],[-5,-2],[-5,0],[-1,0],[-6,4],[-3,2],[-3,3],[-3,1],[-3,1],[-3,3],[-2,2],[-4,1],[-3,1],[-5,2],[-5,1],[-7,4],[-5,2],[-3,1],[-4,0],[-5,1],[-8,1],[-5,-2],[-2,-4],[-3,-3],[0,-1],[1,-6],[-2,-4],[-2,-8],[-5,-13],[-3,-7],[0,-2],[-1,-2],[-5,-5],[-1,0],[-1,2],[-2,1],[-1,0],[-1,0],[-2,-5],[-2,-5],[-7,-9],[-6,-4],[-11,-4],[-5,0],[-9,-5],[-5,-3],[-10,2],[-3,1],[-5,3],[-8,0],[-3,-1],[0,-3],[2,-11],[-1,-7],[-5,-7],[-6,-5],[-6,-2],[-7,-3],[-8,0],[-2,0],[-2,1],[-5,-1],[-4,-3],[-2,-4],[-4,-6],[-7,-7],[-2,-3],[-5,-4],[-2,-4],[-16,-12],[-5,-1],[-15,3],[-17,3],[-6,0],[-12,-8],[-2,-1],[-3,-6],[-5,-8],[-20,-15],[-2,-3],[0,-5],[-2,-3],[-4,-4],[-4,-1],[-10,3],[-6,4],[-6,7],[-2,1],[-3,0],[-1,-1],[-1,-4],[-3,-3],[-3,-1],[-9,-4],[-8,-6],[-7,-10],[-2,-4],[-4,-5],[-1,-5],[-4,-4],[-1,-1],[0,-8],[-1,-18],[-4,-12],[-5,-10],[0,-3],[3,-7],[2,-7],[-1,-4],[-7,-8],[-1,-2],[2,-13],[-3,-14],[-2,-15],[-75,-21],[315,-1126],[941,-1351],[1004,-969],[403,-2594],[1074,-2668],[98,-167]],[[3835,34153],[191,114],[951,469],[1019,510],[1762,886],[778,431],[822,457],[948,540],[1059,449],[870,316],[403,152],[678,103],[650,219],[474,218],[408,279],[358,328],[474,255],[601,461],[463,364],[411,176]],[[17155,40880],[421,486],[453,502],[373,420],[503,544],[304,561],[138,570]],[[19347,43963],[-59,395],[32,109],[206,704],[558,871],[306,596],[243,656],[121,706],[27,503],[-25,536],[-44,388],[6,430],[38,466],[47,321],[221,211],[182,321]],[[21206,51176],[-77,158],[-127,336],[-36,459],[100,346],[220,195]],[[15160,55704],[36,37],[31,25],[21,17],[22,23],[35,56],[27,48],[32,32],[32,23],[37,31],[25,27],[19,23],[23,21],[35,20],[28,12],[21,18],[17,20],[30,33],[133,122],[302,216],[134,117],[54,52],[35,38],[43,38],[147,154],[8,9],[4,5],[7,19],[4,10],[5,7],[148,145],[9,3],[16,-1],[17,13],[-5,34],[7,19],[62,43],[58,47],[9,4],[13,3],[8,4],[6,6],[51,82],[46,47],[12,6],[14,0],[6,6],[6,18],[5,15],[21,27],[4,3],[12,-2],[6,3],[2,10],[0,10],[3,9],[10,12],[12,4],[5,6],[3,12],[7,9],[14,4],[10,10],[10,34],[6,5],[6,3],[11,-6],[9,1],[5,7],[1,14],[-2,16],[6,9],[10,5],[13,3],[58,92],[120,141],[12,2],[22,-6],[11,3],[4,7],[-3,9],[-12,18],[0,19],[14,31],[308,417],[16,16],[25,7],[15,0],[8,3],[5,8],[2,28],[4,20],[16,21],[181,295],[34,87],[58,102],[112,184],[107,135],[153,139],[153,97],[14,12],[15,11],[14,42],[13,22],[30,17],[27,0],[12,5],[7,9],[-4,13],[5,11],[261,181],[12,9],[128,122],[183,123],[122,111],[15,10],[19,7],[21,2],[19,7],[20,15],[14,27],[53,48],[31,15],[26,0],[16,17],[-2,21],[8,22],[13,17],[129,117],[50,45],[39,38],[23,30],[12,20],[14,19],[14,19],[16,22],[20,27],[21,33],[13,28],[10,19],[11,21],[15,26],[50,63],[14,25],[19,26],[10,14],[23,21],[27,35],[22,27],[22,33],[14,22],[37,42],[43,43],[30,34],[22,37],[21,27],[32,46],[56,65],[29,36],[30,32],[63,70],[28,37],[45,43],[72,63],[62,54],[68,55],[40,36],[38,28],[38,16],[29,12],[19,6],[37,16],[73,38]],[[26556,55939],[-18,-70],[-244,-350],[-361,-701],[-202,-263],[-162,-27],[-141,103],[-130,-178],[-375,-13],[-341,-15],[-196,-58],[-273,-220],[-517,-530],[-541,-607],[-399,-315]],[[22656,52695],[-224,224],[-225,160],[-279,-42],[-336,-115],[-121,-70],[-185,-182]],[[15316,53948],[23,168],[35,373],[73,417],[-31,430],[-135,250],[-121,118]],[[3835,34153],[845,-1438],[821,-1663],[821,-1797],[1080,-1188],[414,-231],[1706,-939],[406,-19],[422,-35],[495,-47],[1252,-9],[1422,-329],[1720,-652],[1571,-475],[970,-383],[1235,-804],[1118,146],[1276,144],[1185,207]],[[22594,24641],[-112,1114],[22,1011],[-72,1019],[-190,237],[-523,134],[-888,185],[-746,247],[-514,244],[-683,179],[-615,107],[-423,255],[-188,152],[-31,621],[-22,1623],[-104,1441],[-28,1039],[0,1282],[33,1331],[-22,1548],[-22,880],[-14,671],[-162,552],[-135,367]],[[13299,52785],[10,21],[10,22],[15,25],[22,26],[18,22],[35,44],[38,38],[26,25],[25,36],[10,6],[10,-1],[13,-6],[10,-1],[6,6],[4,21],[4,7],[16,20],[19,25],[17,25],[19,28],[13,21],[14,23],[20,27],[35,52],[22,22],[19,23],[24,44],[17,28],[6,-6],[9,6],[10,13],[1,18],[-38,34],[-16,15],[-15,16],[-17,15],[0,2],[1,1],[2,2],[2,-1],[15,-15],[9,-8],[4,-2],[1,-2],[1,-1],[1,-2],[12,-12],[21,22],[14,29],[8,33],[3,37],[-55,50],[-4,4],[-1,2],[0,2],[0,1],[1,2],[1,2],[1,1],[2,1],[2,0],[2,-1],[2,-1],[1,-2],[0,-2],[0,-1],[-1,-2],[33,-29],[3,4],[-14,13],[5,6],[-7,7],[87,113],[2,0],[2,1],[1,-1],[2,-1],[21,-19],[4,6],[5,6],[4,5],[5,6],[4,6],[5,6],[-6,6],[4,5],[-92,89],[-124,-159],[-2,2],[2,2],[-4,4],[-8,-10],[0,-2],[17,-18],[2,-2],[0,-3],[0,-3],[-1,-2],[-2,-2],[-2,-1],[-3,0],[-2,1],[-2,1],[-2,2],[0,3],[0,2],[1,2],[1,2],[1,1],[-25,26],[-4,1],[-3,-1],[-1,-1],[-81,-105],[0,-1],[0,-3],[-1,-2],[-1,-2],[-2,-1],[-2,-1],[-2,0],[-2,1],[-1,1],[-2,2],[0,2],[-1,3],[1,2],[1,2],[176,224],[39,51],[-14,52],[-35,10],[-130,36],[-2,0],[-2,1],[-1,2],[-1,2],[0,2],[0,2],[1,2],[1,1],[2,1],[2,0],[2,0],[6,-2],[198,-56],[41,59],[55,77],[23,23],[27,15],[42,37],[32,32],[31,46],[29,53],[16,19],[1,14],[-7,11],[-1,11],[8,87],[15,43],[30,36],[114,70],[51,34],[27,45],[3,24],[-9,23],[-6,22],[2,19],[11,14],[12,6],[11,1],[6,2],[4,5],[-1,19],[3,8],[4,7],[118,157],[33,43],[35,47],[14,19],[29,35],[13,18],[13,17],[14,18],[14,17],[13,15],[10,16],[17,23],[22,31],[18,26],[16,23],[13,19],[24,30],[31,30],[44,32],[66,54],[46,41],[33,31],[22,22],[22,24],[21,24],[19,22],[35,44]],[[50398,26576],[-639,157],[-518,262],[-882,178],[-948,-58],[-1409,-136],[-2157,-174],[-1968,-432],[-1064,-147],[-1912,-182],[-1218,-189],[-816,-6],[-1723,-306],[-1005,-218],[-1114,594],[-1058,150],[-1281,-220],[-1425,-280],[-992,-658],[-819,138],[-1215,-156],[-1450,-79],[-1017,-63],[-1174,-110]],[[19347,43963],[178,-438],[311,-816],[292,-616],[227,-379],[363,-185],[416,22],[675,-52],[397,0],[375,-3],[570,-215],[303,-67],[494,-276],[348,-465],[525,-536],[499,-480],[573,-45],[1202,78],[66,538],[254,754],[300,632],[171,494],[377,613],[427,416],[433,357],[411,427],[543,701],[593,694],[543,357],[587,288],[716,234],[994,357],[728,146],[838,209],[794,339],[626,312],[636,379],[840,500],[438,299],[230,-152],[-130,-302],[-31,-621],[44,-757],[166,-997],[113,-588],[893,-18],[744,-55],[30,-630],[121,-1088],[88,-749],[221,-868],[298,-722],[146,-971],[292,-573],[832,-15],[438,-201],[998,374],[727,479],[710,264]],[[45340,40346],[109,-461],[453,-1273],[272,-1763],[371,-1749],[299,-1042],[799,-1939],[811,-733],[1004,-1364],[462,-1498],[144,-478],[171,-738],[163,-732]],[[22656,52695],[140,-431],[48,-147],[-197,-352],[-325,-159],[-130,-212],[-226,27],[-85,-151],[-143,-242],[-532,148]],[[45340,40346],[-246,1033],[-298,869],[-499,1553],[-678,1559],[-875,1220],[-542,540],[-198,196],[-358,469]],[[55277,48657],[680,254],[924,290],[743,516],[1011,367],[918,257],[954,233],[975,288],[797,311],[830,342],[851,278],[968,303],[796,260],[1077,70],[1414,263],[355,64],[95,916],[142,572],[423,392],[768,339],[546,463],[634,254],[807,263],[705,224],[833,344],[327,-69],[626,-132]],[[74476,56319],[-504,612],[-235,622],[-93,765],[-89,526],[-43,781],[38,1154],[689,963],[215,578],[190,776],[22,624]],[[76799,60548],[188,-798],[-55,-803],[-116,-586],[-392,-284],[-953,-194],[-524,242],[-443,650],[-11,392],[190,668],[601,598],[672,302],[661,-73],[182,-114]],[[74476,56319],[620,-811],[281,-1064],[518,-1313],[662,-1737],[-210,-1543],[-931,-2792],[283,-1203]],[[75699,45856],[849,212],[1246,369],[672,289],[1130,411],[1701,518],[1264,355],[1403,414],[1276,327],[1282,394],[1372,360],[1279,382],[945,418],[1251,621],[948,665],[1323,539],[507,179],[571,202],[967,322]],[[95685,52833],[-2611,3645],[-1128,2135],[-1677,1875]],[[99989,34426],[0,210],[-6,1724],[-4,1173],[-15,2030],[-5,1524],[2,1122],[-5,941],[-2,1141],[0,2525],[1,286],[-43,55],[-3270,4340],[-957,1336]],[[75699,45856],[624,-1642],[710,-1811],[1102,-1969],[611,-2504],[487,-2129],[487,-2135],[135,-1157],[337,-1583],[292,-2356]],[[80484,28570],[1115,56],[1103,191],[849,112],[1257,441],[1116,605],[1791,810],[1505,787],[1438,560],[1398,531],[1540,329],[1673,385],[1815,487],[1698,347],[1207,215]],[[99989,34426],[-1,-174],[-3,-328],[1,-324],[1,-431],[-6,-233],[9,-164],[-9,-147],[6,-249],[7,-330],[-5,-93],[2,-292],[3,-179],[-3,-215],[-4,-141],[6,-591],[-4,-758],[-4,-580],[-3,-537],[17,-746],[-12,-508],[2,-404],[0,-5583],[-8,-5954],[0,-2558],[-1,-2804],[-1,-2935],[17,-7168],[-852,127],[-1449,231],[-481,84],[-1763,532],[-2100,913],[-1492,1917],[-1637,1895],[-2859,1428],[-3567,3831],[-3743,2511],[-443,-226]],[[79610,13243],[-350,1130],[-163,708],[408,955],[461,1385],[481,1278],[-107,923],[662,2039],[85,2124],[0,782],[0,1666],[-5,992],[-521,880],[-77,465]],[[50398,26576],[1003,-1444],[1413,-1965],[820,-540],[626,398],[1083,-28],[574,-886],[248,-673],[388,-524],[104,-141],[1029,-645],[623,-140],[910,215],[700,326],[222,425],[307,588],[612,-56],[595,-409],[84,-105],[280,-352],[358,-615],[739,-890],[66,-873],[512,-890],[458,-601],[667,-701],[1405,-1188],[1185,-738],[871,-625],[1544,-1090],[2028,-1739],[3053,511],[1356,349],[3349,1713]]],"bbox":[-11.7819618,27.1361285,-8.667496,29.6305474],"transform":{"scale":[0.00003114496944969449,0.000024944438444384437],"translate":[-11.7819618,27.1361285]},"license":"ODbL-1.0","attribution":"© OpenStreetMap contributors, opendatacommons.org/licenses/odbl/1-0/","source":"OpenStreetMap admin_level=8 relations, matched to HCP communes on ref:MA:HCP"}
