{"type":"Topology","objects":{"arrondissements":{"type":"GeometryCollection","geometries":[{"type":"Polygon","arcs":[[0,1,2,3,4]],"properties":{"code":"044210106","name":"Souissi"}},{"type":"Polygon","arcs":[[5,6,0,7]],"properties":{"code":"044210103","name":"El Youssoufia"}},{"type":"Polygon","arcs":[[8,9,10,3,11]],"properties":{"code":"044210101","name":"Agdal Riyad"}},{"type":"Polygon","arcs":[[12,9,13]],"properties":{"code":"044210109","name":"Yacoub El Mansour"}},{"type":"Polygon","arcs":[[14,15,16,17]],"properties":{"code":"073510103","name":"Annakhil"}},{"type":"Polygon","arcs":[[18,15,19]],"properties":{"code":"073510111","name":"Sidi Youssef Ben Ali"}},{"type":"Polygon","arcs":[[20,21,17,22,23]],"properties":{"code":"073510105","name":"Gueliz"}},{"type":"Polygon","arcs":[[-19,24,-23,14]],"properties":{"code":"073510107","name":"Marrakech-Médina"}},{"type":"Polygon","arcs":[[20,25]],"properties":{"code":"073510109","name":"Ménara"}},{"type":"Polygon","arcs":[[26,27,28,29,30]],"properties":{"code":"032310111","name":"El Mariniyine"}},{"type":"Polygon","arcs":[[26,31,32,33,34,35,36],[37]],"properties":{"code":"032310101","name":"Agdal"}},{"type":"Polygon","arcs":[[38,-36,39]],"properties":{"code":"032310105","name":"Saiss"}},{"type":"Polygon","arcs":[[-31,40,38,36]],"properties":{"code":"032310113","name":"Zouagha"}},{"type":"Polygon","arcs":[[-34,41,42]],"properties":{"code":"032310109","name":"Jnan El Ouard"}},{"type":"Polygon","arcs":[[-42,-33,43,28,44]],"properties":{"code":"032310107","name":"Fès-Médina"}},{"type":"Polygon","arcs":[[45,46,47]],"properties":{"code":"044410109","name":"Tabriquet"}},{"type":"Polygon","arcs":[[48,49,-2,7,50]],"properties":{"code":"044410106","name":"Hssaine"}},{"type":"Polygon","arcs":[[51,-48,52,-51,5]],"properties":{"code":"044410105","name":"Bettana"}},{"type":"Polygon","arcs":[[45,53,54,55,51]],"properties":{"code":"044410103","name":"Bab Lamrissa"}},{"type":"Polygon","arcs":[[56,-54,46,52,48]],"properties":{"code":"044410107","name":"Layayda"}},{"type":"Polygon","arcs":[[57,58,59,60]],"properties":{"code":"061410101","name":"Anfa"}},{"type":"Polygon","arcs":[[61,62,59,63]],"properties":{"code":"061410131","name":"Hay-Hassani"}},{"type":"Polygon","arcs":[[64,65,66,67,68]],"properties":{"code":"061410153","name":"Sidi Moumen"}},{"type":"Polygon","arcs":[[69,70,64,71]],"properties":{"code":"061410171","name":"Moulay Rachid"}},{"type":"Polygon","arcs":[[72,73,74,75,-70,76]],"properties":{"code":"061410173","name":"Sidi Othmane"}},{"type":"Polygon","arcs":[[73,77,78,79]],"properties":{"code":"061410161","name":"Ben-M'sick"}},{"type":"Polygon","arcs":[[80,72,-80,81]],"properties":{"code":"061410163","name":"Sbata"}},{"type":"Polygon","arcs":[[82,83,-62,84,-82,-79]],"properties":{"code":"061410141","name":"Aïn-Chock"}},{"type":"Polygon","arcs":[[-75,77,82,85,86,87]],"properties":{"code":"061410111","name":"Al-Fida"}},{"type":"Polygon","arcs":[[88,89,86,90],[91]],"properties":{"code":"061410113","name":"Mers-Sultan"}},{"type":"Polygon","arcs":[[75,70,92,93,94,-91,87]],"properties":{"code":"061410123","name":"Asoukhour Assawda"}},{"type":"Polygon","arcs":[[-93,-69,95]],"properties":{"code":"061410125","name":"Hay-Mohammadi"}},{"type":"Polygon","arcs":[[96,97,-94,-96,-68,98]],"properties":{"code":"061410121","name":"Aïn-Sebaâ"}},{"type":"Polygon","arcs":[[98,99,66]],"properties":{"code":"061410151","name":"Sidi Bernoussi"}},{"type":"Polygon","arcs":[[-86,83,62,-59,100,89]],"properties":{"code":"061410103","name":"Maârif"}},{"type":"Polygon","arcs":[[101,102,103,104]],"properties":{"code":"015110103","name":"Bni Makada"}},{"type":"Polygon","arcs":[[-102,105,106,107]],"properties":{"code":"015110105","name":"Mghogha"}},{"type":"Polygon","arcs":[[-106,-105,108]],"properties":{"code":"015110106","name":"Souani"}},{"type":"MultiPolygon","arcs":[[[109]],[[106,110,103,108]]],"properties":{"code":"015110107","name":"Médina"}},{"type":"Polygon","arcs":[[-101,-58,111,97,94,88]],"properties":{"code":"061410107","name":"Sidi Belyout"}},{"type":"MultiPolygon","arcs":[[[6,112,8,-13,113,55]],[[114]],[[115]],[[116]]],"properties":{"code":"044210105","name":"Hassan"}}]}},"arcs":[[[40065,57491],[2,-9],[-6,-10],[-12,-37],[5,1],[-14,-45],[-3,-17],[1,-12],[0,-10],[3,-30],[0,-17],[0,-25],[1,-25],[0,-42],[1,-10],[0,-5],[-2,-19],[-5,-21],[-4,-17],[-6,-24],[-12,-50],[-19,-77],[-13,-51],[-10,-37],[24,-3],[15,-3],[23,-3],[32,-1],[28,-1],[3,-9],[5,-28],[4,-29],[7,-42],[7,-26],[14,-38],[39,-101],[53,-100],[50,47],[60,65],[23,22],[25,16],[33,14],[26,12],[31,20],[53,36],[26,19],[6,4],[18,19],[23,16],[28,13],[36,9],[37,11],[23,12],[39,27],[96,67],[30,18],[27,12],[32,13],[31,9],[86,15],[78,8],[76,15],[54,7],[99,15],[197,29],[96,12],[64,2],[185,-4],[34,-1]],[[41948,57097],[-1,-24],[17,-33],[35,-34],[64,-34],[46,-45],[23,-47],[0,-36],[-28,-74],[-24,-28],[-140,-87],[-85,-58],[-59,-11],[-24,-11],[-55,-64],[-36,-27],[-39,-67],[-23,-87],[-60,-91],[-58,-70],[-32,-44],[-26,-16],[-98,-33],[-35,-13],[-31,-31],[-19,-31],[-32,-21],[-10,-10],[0,-9],[-12,-10],[-26,-8],[-45,-11],[-32,-20],[-26,-10],[-16,-11],[1,-11],[9,-8],[8,-6],[12,-4]],[[41091,55862],[-27,-11],[-27,-21],[-55,-29],[-60,-33],[-15,-16],[-9,-6],[-14,-4],[-70,-17],[-88,-19],[-13,-8],[-12,-25],[-10,-50],[-15,-39],[7,-36],[11,-16],[30,-17],[8,-9],[7,-8],[4,-7],[16,-18],[31,-44],[-61,-89],[-68,-60],[-185,-81],[-235,-127],[-84,-106],[-73,-32],[-37,16],[-67,28],[-315,170],[-387,214],[-659,360]],[[38619,55722],[15,7],[126,61],[-7,1],[116,64],[173,-1],[72,-49],[44,6],[66,15],[162,39],[-28,44],[-39,58],[123,33],[-51,111],[-3,8],[-24,66],[-26,86],[-32,96],[-12,20],[-43,60],[-30,43],[-3,1],[-26,15],[-29,16],[-21,6],[-65,18],[-42,15],[-71,25],[-44,15],[-63,26],[-55,26],[38,33],[10,29],[18,26],[73,53],[6,-8],[20,-13],[27,9],[8,3],[7,6],[1,20],[6,10],[7,14],[14,8],[13,-8],[50,30],[22,13],[30,19],[15,11],[17,10],[16,4],[4,-6],[9,-8],[2,-1],[5,-2],[5,-2],[10,4],[132,79],[34,24],[21,16],[43,18],[109,75],[79,58],[27,29],[36,38],[68,83]],[[39784,57327],[5,7],[107,62],[52,30],[66,39],[21,14],[30,12]],[[41000,57209],[-32,3],[-77,-4],[-53,-2],[-46,10],[-26,37],[-52,55],[-78,55],[-64,75],[-38,80],[0,52],[21,44],[74,65],[54,66],[2,23],[2,10]],[[40687,57778],[-13,35],[-33,-3],[-44,-5],[-61,-10],[-92,-17],[-39,-5],[-45,0],[-8,1],[-8,2],[-7,4],[-6,9],[-3,10],[-4,6],[-8,4],[-9,3],[-7,-1],[-2,1],[-11,-5],[-8,-6],[-4,-10],[-7,-12],[-6,-5],[-8,-3],[-28,-4],[-30,-8],[-22,-6],[18,-8],[74,-29],[14,-9],[3,-39],[-18,-32],[-35,-36],[-48,-36],[-56,-31],[-43,-31],[-18,-11]],[[41948,57097],[1,31],[-21,25],[-38,11],[-60,-1],[-55,11],[-46,27],[-42,35],[-28,52],[-25,27],[-37,19],[-28,6],[-35,-5],[-33,-15],[-106,-46],[-74,-62],[-27,-48],[-36,-31],[-34,-14],[-38,3],[-40,28],[-49,38],[-55,17],[-42,4]],[[39723,57653],[-8,6],[-7,15],[-7,16],[-2,7],[-3,7],[-5,12],[-4,11],[-17,11],[5,16],[-12,30],[-7,15],[-12,30],[-9,18],[-3,5],[-38,-6],[-19,-14],[-10,-9],[-3,-3],[-46,-33],[-59,-51],[-57,-48],[-28,-22],[-15,-10],[-75,-28],[-8,-5],[-90,-74],[-97,-79],[-10,-8],[-5,-4],[-10,-9],[-20,-14],[-2,-3],[-2,-4],[-5,-8]],[[39033,57420],[-77,-115],[-37,-49],[-69,-72],[-6,-8],[-2,-7],[-13,-15],[-16,-12],[-65,-63],[-139,-137],[-85,-84],[-81,-74],[-24,-24],[3,-12],[6,-11],[-6,-18],[-19,-13],[-30,-28],[-28,-6],[-11,-7],[-6,-24],[-13,-17],[-23,-18],[-14,-39],[-20,-33],[-67,-85],[-37,-50],[-15,-15],[-46,-40],[-29,-26],[-98,-85],[-107,-96],[-29,-22],[-12,-10]],[[37818,56105],[104,-37],[67,-16],[43,-7],[57,-3],[94,3],[72,12],[13,-24],[4,-9],[18,-23],[35,-28],[20,-11],[20,-9],[12,-2],[2,-6],[6,-3],[-80,-52],[57,-30],[178,-100],[79,-38]],[[39784,57327],[-12,2],[-108,4],[-5,0],[-15,0],[-7,0],[-1,1],[-33,30],[-25,23],[-4,3],[-7,6],[1,3],[3,5],[1,1],[1,2],[2,3],[1,3],[1,1],[2,4],[4,1],[14,3],[3,1],[4,1],[14,6],[-3,10],[114,78],[42,9],[-42,101],[-6,25]],[[38738,57561],[48,-19],[53,-27],[86,-42],[82,-42],[26,-11]],[[37818,56105],[-15,-13],[-9,-6],[-13,-8],[-9,3],[-20,3],[-27,6],[-33,14],[-14,3],[-7,5],[-10,-2],[-25,1],[-19,3],[-19,0],[-18,-19],[-12,-10],[-10,-5],[-10,-4],[-13,-1],[-12,-4],[-3,-8],[-14,0],[-11,3],[-23,13],[-16,5],[-11,-8],[-10,-9],[-19,-11],[-15,-11],[-12,6],[-14,-10],[-16,-11],[-7,-13],[-20,-9],[-12,-7],[-40,-26],[-39,-25],[-31,-6],[-18,2],[-14,1],[-14,-5],[-13,-5],[-28,0],[-38,1],[-16,-1],[-15,-2],[-8,-2],[-14,5],[-90,54],[-20,12],[-114,68],[-33,21],[-8,9],[113,82],[50,41],[2,2],[81,72],[106,94],[60,55],[16,12],[61,37],[66,41],[31,28],[-3,9],[-11,7],[-4,4],[3,9],[6,3],[10,1],[11,2],[8,5],[5,5],[3,7],[3,12],[3,10],[6,6],[3,1],[9,1],[7,4],[5,6],[1,4],[0,5],[2,1],[7,1],[5,4],[1,6],[4,5],[3,2],[4,2],[16,11],[3,0],[6,-2],[4,0],[5,1],[5,2],[1,1],[-1,3],[-2,2],[-5,3],[-1,2],[2,1],[5,3],[29,24],[52,33],[45,22],[4,1],[7,-2],[5,0],[2,4],[-2,5],[1,3],[5,3],[24,12],[4,3],[7,12],[3,1],[5,0],[5,0],[5,2],[3,1],[3,4],[-1,5],[1,2],[3,1],[4,-1],[9,-1],[7,3],[7,12],[3,1],[6,1],[4,4],[4,8],[19,12],[18,15],[26,14],[20,8],[23,21],[5,2],[17,1],[6,2],[2,3],[-2,4],[-1,4],[2,1],[5,2],[5,0],[5,2],[7,1],[1,1],[-3,5],[-5,8],[2,5],[5,5],[5,4],[5,3],[19,2],[33,12],[40,30],[40,34],[8,3],[15,2],[5,2],[7,10],[5,4],[8,2],[10,10],[10,10],[9,8],[2,1],[-1,1],[1,1],[2,1],[3,8],[-1,5],[-3,4],[-5,5],[1,8],[5,8],[16,8],[5,0],[2,-1],[-2,-4],[1,-3],[4,-3],[19,-5],[19,1],[23,5],[46,22],[31,24],[17,23],[5,14],[8,6],[10,6],[23,7],[17,13],[2,7],[5,4],[10,3],[16,7],[13,9],[6,13],[2,5],[-3,3],[-2,3],[0,2],[2,1],[19,3],[10,1],[12,4],[32,19],[9,6],[4,4],[3,3],[2,2],[2,2],[1,1],[2,2],[2,1],[1,1],[3,0],[3,1],[4,2],[4,1],[3,2],[5,5],[6,4],[8,6],[13,9],[1,3],[5,3],[8,6],[6,2],[9,6],[10,11],[8,10],[4,6],[10,10],[9,8],[17,10],[18,10],[14,11],[18,14],[15,10],[8,4],[6,5],[13,11]],[[3267,2352],[-3,-11],[0,-8],[0,-5],[-3,-9],[0,-2],[4,-4],[11,-4],[43,-11],[19,-7],[10,-4],[6,-4],[7,-6],[4,-6],[15,-16],[26,-20],[20,-9],[23,-12],[8,-6],[5,-5],[16,-19],[26,-21],[21,-17],[1,-29],[15,-20],[50,-25],[34,-9],[31,-5],[11,-5],[41,-37],[27,-47],[37,-29],[18,-27]],[[3790,1913],[-18,-19],[-3,-15],[35,-42],[42,-28],[38,-26],[41,-21],[36,-22],[18,-23],[36,-32],[42,-22],[31,-14],[48,-20],[47,-18],[26,-25],[17,-19],[9,-10],[-5,-33],[5,-34],[-1,-22],[25,-40],[-45,-6],[-147,-46],[20,-17],[7,-7],[27,-24],[26,-20],[17,-11],[57,-44],[-5,-56],[0,-7],[48,-33],[39,-29],[196,-134],[71,4],[76,-34],[162,-106],[147,-136],[111,-128],[47,-107],[26,-65]],[[5139,422],[8,-13],[74,-122],[134,-52],[2,0],[267,158],[80,76],[200,189],[94,-2],[30,-22],[-1,-41],[8,-46],[-19,-41],[-27,-56],[-70,-137],[7,-66],[87,-118],[9,-18],[25,-48],[146,-15],[162,-48],[83,49],[54,180],[-56,141],[-80,110],[-17,23],[-154,182],[-66,94],[-65,93],[-181,140],[-351,58],[43,154],[-45,207],[-61,125],[-82,105],[49,300],[77,87],[38,135],[0,164],[-5,13],[-70,208],[-7,23],[-83,211],[-29,67],[-87,191],[-49,142],[85,51],[-79,100],[-67,68],[-22,17],[-36,4],[-37,14],[-65,12],[-46,15],[-30,11],[-22,10],[-15,0],[-17,1],[-12,-4],[-18,-6],[-26,-5],[-7,-1],[-16,-4],[-44,-9],[-38,-12],[-22,-6],[-12,-11],[-8,-13],[-9,-7],[-16,-15],[-11,-3],[-14,-17],[-29,-15],[-30,-3],[-39,-3],[-5,-1],[-12,-1],[-19,-2],[-25,-1],[-47,-13],[-33,-3],[-54,-1],[-32,6],[-25,11],[-24,15],[-17,16],[-13,9],[-17,9],[-12,0],[-14,0],[-13,-4],[-13,1],[-10,-1],[-25,0],[-25,0],[-18,0],[-19,-1],[-23,0],[-58,-6],[-108,-1],[-26,1],[-32,5],[-40,8],[-53,0],[-35,-1],[-42,-6],[-22,3],[-35,0],[-46,0],[-35,-4],[-48,11],[-45,9],[-24,-2],[-22,1],[-20,0],[-47,7],[-55,6]],[[3221,3441],[-81,7],[4,-7],[2,-3],[4,-9],[4,-6],[6,-8],[7,-6],[0,-7],[1,-6],[-7,-8],[-8,-7],[-16,-15],[-8,-12],[-3,-7],[0,-9],[1,-4],[4,-7],[-2,-7],[-1,-3],[5,-11],[4,-6],[-2,-8],[0,-5],[-10,-11],[-12,-9],[-5,-10],[-2,-7],[2,-5],[4,-10],[4,-9],[4,-20],[-2,-4],[0,-11],[4,-4],[3,-2],[8,-10],[-4,-6],[-1,-11],[2,-12],[1,-7],[-1,-6],[-1,-5],[-2,-4],[-6,-4],[-3,-6],[-2,-7],[0,-5],[0,-6],[6,-4],[2,-2],[2,-5],[-1,-4],[-2,-5],[1,-5],[4,-4],[8,-1],[10,-2],[7,-3],[8,-5],[6,-4],[4,-2],[3,-1],[1,-1],[-4,-4],[-7,-3],[-7,-3],[-4,-5],[-2,-4],[-4,-4],[-1,-5],[2,-5],[-1,-7],[6,-4],[4,-8],[2,-6],[1,-12],[3,-4],[0,-4],[3,-3],[5,-1],[8,-1],[7,2],[7,-2],[4,-3],[4,-6],[2,-7],[5,-11],[0,-8],[-1,-4],[-1,-4],[-8,-2],[-9,1],[-6,0],[-3,0],[-7,0],[-11,0],[-1,-4],[2,-6],[1,-6],[7,-12],[3,-3],[5,-5],[-2,-5],[0,-12],[4,-9],[23,-24],[7,-12],[-2,-4],[-10,-1],[-8,-4],[-2,-6],[-2,-5],[3,-3],[4,-2],[16,-2],[8,-3],[5,-6],[15,-6],[8,-2],[14,-5],[14,-3],[15,-8],[7,-7],[14,-3],[8,1],[8,2],[10,-1],[12,-3],[-1,-3],[-4,-3],[-4,-5],[1,-4],[2,-3],[-1,-3],[10,-7],[7,-3],[5,-4],[4,-7],[-2,-6],[-1,-5],[-9,-4],[-12,-2],[-3,-3],[3,-6],[6,-5],[2,-5],[-1,-9],[-9,-7],[2,-24],[-5,-15],[-12,-22],[-3,-10],[-10,-23],[-2,-11],[-4,-12],[-8,-33],[5,-15],[-5,-15],[-15,-15],[-4,-17],[-4,-14],[1,-8],[-1,-10],[-7,-6],[0,-10],[2,-5],[-4,-4],[-4,-6],[1,-11],[2,-7],[1,-7],[0,-6]],[[3555,1753],[-47,62],[264,90],[18,8]],[[5139,422],[-18,-18],[-58,-56],[-186,-67],[-26,-91],[-488,18],[-295,44],[-231,43],[-14,3],[-210,-12],[-107,176],[83,76],[-33,89],[-86,38],[-3,15],[-4,9],[22,23],[19,-15],[58,11],[-5,21],[107,24],[70,15],[183,33],[-59,224],[-77,169],[-14,33],[-15,37],[-43,103],[-74,174],[-15,32],[-44,112],[-6,18],[-15,50]],[[2683,1186],[-10,6],[-5,4],[-4,4],[-4,7],[-4,6],[-5,11],[-4,10],[-1,5],[-1,9],[0,9],[1,7],[3,12],[4,12],[1,9],[0,5],[-2,6],[-2,6],[-4,6],[-5,5],[-6,5],[-8,6],[-10,5],[-13,8],[-18,8],[-17,7],[-19,7],[-16,8],[-12,7],[-8,6],[-4,4],[-4,5],[-16,23],[-107,114],[-117,130],[-90,103],[30,10],[-67,89],[-43,-10],[-75,79],[-73,-13],[-122,6],[-52,62],[-94,110],[-62,64],[-36,44],[-19,23],[-16,39],[-3,45],[37,99],[80,186],[79,178],[28,64],[87,195],[17,33],[32,79],[15,36],[20,46],[9,20],[51,109],[20,55],[2,37],[-3,44],[3,34],[-12,64]],[[2009,3598],[17,1],[22,2],[15,6],[7,0],[8,-7],[7,-10],[8,-13],[39,-16],[24,-10],[21,-1],[7,0],[4,0],[7,-5],[16,-2],[18,-2],[34,8],[34,18],[34,10],[24,4],[13,5],[13,2],[19,1],[13,1],[30,-1],[4,-16],[1,-12],[10,-16],[16,-7],[5,-2],[26,-9],[26,0],[24,1],[13,1],[13,4],[8,5],[13,4],[10,4],[18,8],[23,4],[19,2],[14,0],[28,-1],[22,-13],[2,-1],[21,-41],[13,-20],[24,-24],[22,-14],[30,2],[21,6],[14,4],[9,6],[20,3],[43,12],[19,11],[31,5],[24,0],[24,-7],[39,-5],[9,-5],[24,-11],[37,-18],[59,-8]],[[3267,2352],[-55,0],[-90,-6],[-39,-2],[0,-8],[-9,-8],[-8,-24],[-7,-9],[-72,-75],[-75,-57],[-29,-45],[-39,-42],[-36,-45],[0,-3],[1,-3],[1,-2],[31,-26],[3,-2],[1,-1],[2,-3],[1,-3],[-1,-3],[-2,-3],[-3,-2],[-3,-2],[-7,-3],[-10,-3],[-17,-6],[-41,-15],[100,-141],[100,-142],[93,-49]],[[3057,1619],[-3,-2],[-55,-67],[-32,-38],[-23,-27],[-35,-40],[-54,-58],[-21,-25],[-51,-60],[-27,-32],[-18,-21],[-55,-63]],[[3555,1753],[-81,-14],[-45,-7],[6,-12],[17,-31],[-3,0],[-22,0],[-5,1],[-34,5],[-27,14],[-13,16],[-14,28],[-21,-4],[-4,15],[-58,-8],[1,-4],[-96,-10],[-5,-1],[-6,-1],[-15,-1],[-12,-3],[17,-45],[-78,-72]],[[2009,3598],[-23,-2],[-16,-1],[-18,-3],[-11,-1],[-16,-8],[-7,-3],[-16,-1],[-16,0],[-10,2],[-12,3],[-11,8],[-16,5],[-9,2],[-12,2],[-10,-3],[-24,-3],[-48,-14],[-41,-4],[-12,1],[2,-5],[-6,-1],[-13,2],[-10,-2],[-10,1],[-13,4],[-8,6],[-9,7],[-12,8],[-6,9],[-8,19],[0,16],[-6,13],[-6,4],[-4,3],[-8,-2],[-5,1],[-15,5],[-14,3],[-13,0],[-23,-1],[-18,-4],[-25,-9],[-42,-13],[-6,-4],[-16,-9],[-18,-9],[-15,-7],[-29,-7],[-16,-3],[-20,-3],[-12,-1],[-14,0],[-16,-2],[-3,0],[-18,6],[-8,0],[-22,6],[-10,9],[-8,8],[-7,11],[6,10],[-2,8],[5,9],[0,4],[-3,3],[-4,2],[-6,1],[-6,0],[-20,-2],[-22,-4],[-14,-4],[-14,-3],[-16,-1],[-12,-4],[-21,2],[-27,-7],[-2,-3],[-11,-3],[-18,1],[-6,0],[-9,2],[-8,0],[-5,2],[-10,4],[-11,6],[-7,2],[-11,3],[-12,1],[-19,-5],[-18,-2],[-12,-3],[-19,-5],[-14,-14],[-5,-14],[-7,-16],[-8,-21],[-4,-16],[-11,0],[-9,2],[-6,2],[-4,3],[-8,1],[-10,3],[-18,10],[-12,7],[-8,10],[-4,6],[-1,3],[-5,6],[-9,6],[-7,3],[-13,10],[-10,9],[-9,4],[-5,5],[-4,6],[-6,2],[-8,5],[-7,3],[-13,10],[-7,13],[-11,17],[-19,11],[-22,0],[-23,1],[-23,-3],[-21,-8],[-20,8],[-3,11],[-14,2],[-23,0],[-19,-1],[-14,7],[-18,7],[-11,9],[-13,7],[-13,3],[-10,2],[-9,-3],[-9,-8],[-9,-11],[-8,-13],[-3,-9],[-7,-8],[-13,-2],[-20,3],[-18,4],[-15,7],[-21,16],[3,11],[3,11],[-2,6],[-2,7],[0,8],[-11,8],[18,20],[9,6],[16,11],[0,11],[-5,9],[-17,10],[-22,5],[-15,6],[-17,5],[-16,-1],[-16,-4],[-5,-1],[-10,-6],[-11,-10],[-1,-18],[-3,-6],[5,-8],[-4,-11],[-5,-10],[-8,-7],[-15,-8],[-12,-3],[-14,-4],[-5,-26],[-34,-100],[33,-198],[-6,-183],[132,-6],[424,-25],[4,-16],[7,-23],[-3,-58],[-117,-32],[-6,-71],[2,-67],[194,-77],[-5,-7],[2,-46],[2,-39],[-7,-31],[1,-36],[13,-28],[19,-26],[23,-21],[2,-8],[3,-12],[2,-26],[3,-21],[13,-37],[10,-19],[-128,30],[-7,-26],[45,-27],[13,-28],[18,-30],[-23,-93],[-14,-42],[-22,-55],[5,-67],[-8,-20],[-37,-119],[3,-19],[28,-68],[7,-25],[-230,2],[-101,2],[-107,1],[-147,2],[10,-9],[1,-5],[2,-8],[8,-39],[49,-55],[119,-41],[38,-37],[63,-58],[84,-38],[0,-92],[-26,-75],[23,-114],[38,-62],[54,-92],[31,-137],[-60,-103],[-41,-77],[-30,-50],[-3,-32],[0,-3],[-5,-63],[71,-20],[-10,-73],[98,-79],[104,66],[171,-48],[245,-33],[77,60],[115,8],[31,33],[49,19],[13,30],[78,33],[47,19],[52,19],[103,41],[131,55],[29,4],[94,9],[-25,54],[-5,11],[-7,16],[-6,10],[-3,5],[-21,15],[-48,10],[-90,6],[5,1],[17,5],[11,3],[31,18],[65,40],[8,4],[77,46],[73,42],[44,19],[10,4],[44,15],[59,22],[65,29],[1,1],[6,-4],[28,-29],[4,-2],[24,-26],[26,-28],[21,-22],[282,-94],[6,0],[88,98]],[[96680,58482],[103,29],[109,29],[152,30],[151,26],[218,43],[170,32],[190,28],[105,16]],[[97878,58715],[26,4],[47,5],[192,20],[99,10],[13,2],[29,7],[6,1],[40,-1],[55,-3],[23,5]],[[98408,58765],[12,7],[9,8],[7,7],[4,7],[7,21],[7,16],[14,11],[17,9],[80,46],[18,13],[25,28],[9,6],[17,7],[17,3],[17,1],[20,1],[16,4],[19,6],[27,6],[8,8],[-1,6],[-3,9],[1,3],[1,3],[2,2],[2,1],[3,1],[4,0],[4,0],[27,-11],[12,-5],[15,2],[1,3],[-4,8],[-9,4],[-11,6]],[[98802,59012],[-93,31],[-57,34],[-92,29],[-256,11],[-399,-4],[-368,-28],[-203,-45],[-468,-98],[-253,-72],[-236,-103],[-184,-88],[61,-85],[3,-58],[45,-122]],[[96302,58414],[53,11],[114,22],[60,12],[20,3],[65,9],[66,11]],[[97878,58715],[27,-52],[37,-77],[21,-62],[177,-8],[3,0],[5,-1],[31,-8],[3,-1],[2,-1],[1,-2],[16,-23],[10,-5],[22,20],[15,10],[26,13],[35,15]],[[98309,58533],[50,16],[22,6],[18,1],[41,1],[59,-1],[20,0],[15,2],[14,3],[15,6],[18,10],[20,11],[16,4],[24,3],[21,6],[19,7],[29,26],[15,9],[21,4],[23,-3],[18,-6],[13,-14],[1,0],[14,-14],[7,-4],[9,-3],[14,-2],[19,2],[16,6],[2,3],[7,6]],[[98889,58618],[1,-5],[4,-4],[8,-13],[6,-15],[4,-14],[13,-32],[28,-47],[24,-26],[32,-27],[15,-23],[0,-20],[-12,-28],[4,-30]],[[99016,58334],[7,-65],[-26,-24],[-75,-45],[-4,-92],[-45,-72]],[[98873,58036],[-15,-19],[-51,-40],[-78,-60],[-93,-71],[-13,-9],[-26,3],[-42,-3],[-91,-28],[-19,-3],[30,-28],[-8,-5],[-46,-7],[-102,-19],[-51,-9],[-130,-27],[-12,-3],[-5,-44],[-212,7],[-62,-9],[-62,7],[-8,2],[-1,0]],[[97776,57671],[-7,1],[-304,69],[-20,9],[-13,6],[-71,31],[-44,14],[-32,10],[-46,26],[-54,36],[-20,24],[-19,75],[-1,16],[-82,122],[-133,168],[-73,165],[-29,23],[-81,20],[-67,-4]],[[97619,57748],[11,-7],[-16,-10],[-12,7],[17,10]],[[97511,57096],[1,9],[1,5],[17,32],[4,1],[5,10],[8,20],[4,12],[8,22],[10,28],[20,56],[14,41],[32,28],[23,20],[12,12],[7,11],[5,13],[8,22],[1,2],[22,95],[19,51],[43,84],[1,1]],[[98873,58036],[154,-78],[94,-38],[134,-44],[69,-35],[133,-59],[30,-15],[128,-45],[68,-18],[49,-27],[38,-32],[32,-73],[24,-74],[1,-50],[-39,-36],[-93,-9],[-88,-51],[-146,-59],[-223,-112],[-83,-27],[-14,-5],[-45,-10],[-118,20],[-93,-2],[-102,-21],[-155,-52],[-38,-20],[-190,-93],[-220,20],[-98,-9],[-97,-10],[-94,7],[-170,-3],[-62,26],[-42,89],[-106,5]],[[96302,58414],[-290,-56],[-3,-13],[61,-78],[-68,-44],[1,-47],[-68,-31],[-42,-27],[-59,-42],[-145,-94],[-129,-9],[18,-58],[-25,-74],[-11,-46],[172,-174],[90,-103],[47,-42],[-68,-44],[11,-134],[26,-86],[139,-179],[402,-230],[205,103],[155,54],[205,17],[388,-63],[9,32],[11,152],[81,3],[96,-5]],[[98889,58618],[36,44],[12,9],[42,11],[59,14],[16,6],[28,23],[23,7],[38,11],[33,13],[16,10],[25,28],[23,14],[73,11],[-6,6],[-73,24],[-16,21],[4,17],[11,24],[-5,5],[-48,8],[-6,-1],[-29,-12],[-22,1],[-8,4],[-8,8],[8,34],[4,10],[0,10],[-3,4],[-5,3],[-50,18]],[[99061,59003],[35,9],[44,19],[107,29],[88,-5],[25,-68],[109,-39],[-8,-13],[-7,-11],[-1,-2],[83,-19],[96,-37],[42,36],[97,39],[37,47],[60,49],[74,56],[46,-35],[-31,-84],[-86,-96],[48,-122],[54,-76],[26,-63],[-110,-130],[5,-104],[-188,-36],[-245,4],[-41,0],[-182,14],[-222,-31]],[[98309,58533],[15,12],[43,28],[6,2],[60,15],[7,4],[7,7],[30,35],[12,12],[1,1],[1,1],[1,1],[2,1],[1,1],[2,1],[2,1],[3,2],[5,3],[25,12],[-12,6],[-22,25],[-27,12],[-9,11],[-29,21],[-25,18]],[[98802,59012],[9,6],[26,-1],[32,7],[23,1],[5,-27],[74,-30],[20,5],[2,2],[9,2],[2,35],[7,4],[9,1],[19,-6],[22,-8]],[[40380,58174],[17,47],[3,20],[12,26],[17,20],[34,26],[36,58],[37,36],[41,30],[51,59],[94,81],[153,120],[124,100],[125,84],[119,82],[141,96],[34,22]],[[41418,59081],[125,-64],[17,-23],[17,-13],[52,28],[30,-18],[6,-9],[-26,-14],[-105,-116],[51,-26],[8,-21],[3,-7],[5,-14],[13,-38],[8,-17],[-15,-8],[-10,-9],[33,-15],[41,-18],[98,-59],[-6,-12],[-11,-17],[-2,-17],[-3,-20],[-8,-22],[-3,-39],[-3,-21],[-2,-16],[0,-11]],[[41731,58445],[-89,2],[-111,7],[-84,4],[-25,-2],[-12,-2],[-55,-10],[-68,-11],[-35,-7],[-6,2],[-35,8],[-51,19],[-6,1],[-15,-15],[-28,-31],[-48,-53],[-20,-21],[-1,-1],[-27,-29],[-62,-33],[-9,-6],[-35,-22],[-66,-43],[-26,-11],[-88,-19],[-127,-2],[-9,0],[-20,0],[-47,9],[-1,0],[-25,4],[-7,-1],[-22,2],[-17,0],[-21,0],[-23,-2],[-21,-5],[-9,-3]],[[41682,58128],[11,-2],[158,-13],[211,-17],[25,0],[401,-30],[147,-11],[127,-9],[201,-14],[126,-9],[124,-9],[42,-11],[48,-23],[14,-6],[59,-29],[44,-11],[54,-2],[3,0]],[[43477,57932],[60,8],[97,19],[97,20],[97,19],[41,9],[143,28],[106,23],[114,22],[138,24],[6,1],[-4,-3],[-2,-2],[-9,-7],[-34,-25],[-65,-52],[-113,-93],[-109,-84],[-70,-58],[-101,-86],[-58,-43],[-16,-9],[-21,-33],[-27,-32],[-25,-22],[-51,-39],[-80,-62],[-110,-83],[8,-17],[-11,-13],[29,-38],[-26,-32],[332,-43],[-335,-212],[-21,-39],[-277,-146],[-8,-21],[100,-37],[-6,-13],[18,-7],[-161,-126],[-63,-92],[-183,-131],[-55,-37],[-86,-46],[-55,-31],[-54,-36],[49,-46],[-21,-3],[-9,-54],[13,-24],[-14,-72],[-55,-40],[-91,-29],[-88,46],[-49,-32],[-32,1],[-10,5],[-17,3],[-31,-14],[-40,-18],[-44,-20],[-30,-20],[-36,-25],[-57,-35],[-43,-28],[-41,-25],[-41,-5],[-33,-3],[-32,5],[-36,5],[-27,11],[-3,24],[-16,19],[-27,20],[-58,2],[-43,2],[-44,0],[-32,0],[-44,-9],[-30,-10],[-15,-19],[-13,-20],[-20,-13],[-32,-10],[-32,0],[-62,6],[-41,7],[-74,3],[-81,13],[-41,7],[-13,2]],[[41000,57209],[21,69],[53,90],[62,71],[57,53],[64,62],[65,51],[45,42],[70,38],[86,52],[64,73],[52,87],[39,56],[18,57],[-8,28],[2,5],[-4,19],[-1,4],[-2,11],[-10,27],[7,17],[2,7]],[[40687,57778],[71,-9],[47,5],[32,12],[26,15],[20,23],[6,28],[-5,17],[-15,23],[-44,24],[-57,16],[-55,14],[-102,24],[-75,30],[-71,31],[-17,10],[-18,15],[-8,8],[-7,10],[-16,32],[-13,38],[-6,17],[0,13]],[[41731,58445],[-14,-75],[-9,-35],[-14,-89],[-14,-99],[2,-19]],[[41418,59081],[53,35],[-74,46],[-118,70],[-117,57]],[[41162,59289],[-41,-34],[-3,-1],[-2,-2],[-24,-11],[-4,-2],[-2,-1],[-13,-13],[-3,-2],[-3,-1],[-3,-1],[-13,-5],[-3,-2],[-3,-1],[-2,-2],[-3,-2],[-2,-3],[-5,-12],[-2,-2],[-1,-2],[-12,-11],[-1,-2],[-1,-2],[-1,-3],[1,-4],[0,-1],[-1,-2],[-16,-13],[-3,-1],[-4,0],[-17,0],[-4,-1],[-4,-2],[-7,-11],[-1,-2],[-2,-1],[-1,-1],[-49,-19],[-3,-3],[-1,-2],[0,-2],[-1,-3],[3,-14],[-1,-2],[-2,-1],[-2,-1],[-3,0],[-10,3],[-5,0],[-3,-2],[-2,-1],[-2,-5],[-2,-2],[-1,-1],[-3,-1],[-3,0],[-10,-2],[-3,-1],[-3,-3],[-1,-2],[1,-3],[1,-2],[5,-6],[0,-1],[-1,-1],[-2,0],[-26,-3],[-2,-1],[-1,-1],[-1,-1],[0,-1],[5,-8],[0,-1],[0,-1],[0,-1],[-1,-1],[-15,-3],[-2,0],[-2,0],[-2,0],[-1,1],[-5,9],[-1,2],[-2,1],[-2,0],[-19,-3],[-1,-2],[-1,-2],[0,-1],[1,-6],[1,-1],[1,-1],[16,-12],[1,-1],[1,-1],[-1,-2],[-1,-2],[-23,-17],[-3,-1],[-3,-1],[-3,1],[-2,0],[-2,1],[-20,18],[-2,1],[-2,-1],[-1,0],[-2,-2],[-1,0],[-1,0],[-7,2],[-1,0],[0,-1],[8,-11],[0,-1],[-2,-1],[-1,0],[-2,0],[-14,10],[-2,1],[-1,0],[-2,0],[-20,0],[-1,0],[-2,0],[-1,0],[-5,4],[-1,1],[-2,0],[-1,0],[-1,-1],[-1,0],[-1,0],[-2,1],[-1,0],[-1,1],[0,1],[-1,2],[-1,0],[0,1],[-7,1],[-1,-1],[-1,0],[0,-1],[7,-6],[0,-1],[1,-1],[0,-1],[1,0],[1,-1],[1,0],[6,-2],[3,-1],[2,-1],[1,-2],[1,-2],[-1,-2],[-2,-3],[-1,-2],[1,-2],[8,-10],[-1,-2],[0,-2],[-3,-1],[-3,-1],[-13,-1],[-2,0],[-1,-1],[-2,-2],[0,-1],[0,-2],[8,-11],[1,0],[0,-1],[3,0],[1,0],[3,-1],[4,-4],[1,-1],[0,-1],[-1,-1],[-1,-1],[-1,0],[-2,0],[-9,3],[-1,0],[-1,-1],[0,-1],[0,-1],[10,-6],[1,0],[0,-1],[-3,-2],[0,-1],[-1,0],[-1,1],[-4,1],[-3,1],[-2,0],[-2,-1],[-2,-2],[-4,-1],[-4,1],[-2,1],[-3,7],[-1,1],[-4,2],[-4,0],[-2,-1],[-4,-4],[-5,-4],[-7,-3],[-7,-2],[-5,0],[-7,1],[-3,0],[-3,0],[-2,-1],[-1,-2],[0,-2],[1,-1],[3,-1],[9,-3],[2,-1],[1,-2],[1,-2],[1,-9],[2,-1],[2,-1],[2,-1],[8,-2],[1,-1],[1,-1],[-2,-6],[0,-1],[2,-2],[2,-1],[16,-3],[2,0],[1,-1],[1,-1],[0,-4],[-1,-3],[-1,-2],[-2,-1],[-5,-3],[-5,-1],[-5,-1],[-5,1],[-4,1],[-14,9],[-1,0],[-1,0],[-1,0],[-1,0],[0,-1],[1,-15],[-1,-1],[-2,0],[-2,0],[-2,0],[-6,8],[-2,2],[-1,1],[-2,1],[-2,1],[-15,2],[-2,-1],[-2,0],[0,-1],[-7,-6],[-1,-2],[0,-3],[2,-3],[10,-8],[-1,-2],[0,-2],[-1,-1],[-12,-5],[-2,-1],[-1,-2],[0,-1],[4,-9],[-1,-2],[-3,0],[-3,0],[-12,3],[-2,0],[-1,0],[-2,-2],[0,-3],[0,-1],[-1,0],[-9,-2],[-5,0],[-5,0],[-5,2],[-16,11],[-11,7],[-1,0],[-1,0],[-15,1],[-1,0],[-1,-1],[0,-1],[0,-1],[4,-3],[0,-1],[0,-1],[-8,-4],[-1,-1],[0,-1],[1,-1],[16,-9],[1,-1],[-8,-14],[0,-1],[0,-1],[5,-6],[-2,-2],[-3,-1],[-3,0],[-3,0],[-4,2],[-24,20],[1,1],[1,1],[0,1],[-23,7],[-1,0],[-1,0],[-1,-1],[-13,-13],[0,-1],[3,-2],[1,-1],[-1,-2],[-2,-1],[-3,0],[-5,0],[-2,0],[-2,-1],[-1,-1],[-7,-14],[-3,-6],[0,-6],[4,-7],[-1,0],[0,-1],[-6,-2],[-1,0],[-1,0],[-6,5],[-1,0],[-13,-8],[-29,-29],[0,-1],[14,-8],[-1,-1],[-1,0],[-3,0],[-1,0],[-2,0],[0,-1],[-1,0],[1,-5],[-1,-1],[-1,0],[-21,6],[-1,1],[-1,0],[0,-1],[-27,-21],[-1,-2],[0,-2],[5,-3],[0,-1],[-1,-2],[-1,0],[-1,0],[-7,3],[-2,-1],[-2,0],[-15,-10],[-7,-6],[-6,-6],[-1,-1],[-5,-12],[-1,0],[-1,-1],[-1,0],[-2,0],[-4,0],[-2,0],[-1,-1],[0,-1],[1,-7],[0,-1],[-1,0],[0,-1],[-31,-21],[-42,-22],[-1,-1],[-1,-1],[0,-1],[5,-7],[0,-1],[-1,0],[-1,-1],[-1,0],[-6,0],[-1,-1],[-2,-1],[0,-1],[-6,-14],[-1,-1],[-2,-2],[-45,-36],[1,-2],[0,-1],[-3,-1],[-1,0],[-2,1],[-1,0],[-37,-20],[-1,-1],[-1,-1],[0,-14],[-2,-2],[-2,-1],[-2,-1],[-8,-1],[-1,-1],[-1,0],[0,-1],[-1,-10],[0,-1],[-1,0],[-17,-6],[-1,-1],[-1,-1],[-4,-6],[-19,-15],[0,-1],[3,-3],[0,-1],[-1,-1],[-5,-5],[-6,-4],[-3,0],[-4,-1],[-4,1],[-6,3],[-2,0],[-2,1],[-2,0],[-7,-2],[-2,0],[-2,-1],[-1,-2],[7,-14],[0,-1],[0,-1],[0,-1],[-62,-49],[-35,-29],[-7,-7],[-1,-1],[0,-1],[-2,-10],[-2,-3],[-9,-12],[-3,-8],[-2,-5],[0,-3],[0,-4],[1,-2],[3,-5],[13,-11],[0,-2],[-1,-1],[-2,-1],[-112,9],[-2,0],[-1,0],[-4,2],[-3,1],[-2,0],[-2,0],[-3,0],[-2,0],[-2,-2],[-1,-1],[-1,-1],[0,-2],[1,-1],[1,-1],[2,-1],[49,-3],[2,-1],[1,0],[1,-1],[1,-4],[0,-4],[-1,-4],[-2,-5],[1,-1],[1,-1],[1,-1],[2,0],[2,0],[1,1],[2,1],[10,18],[1,1],[1,0],[59,-5],[9,0],[2,0],[3,2],[2,2],[1,1],[2,3],[0,3],[1,3],[0,3],[-2,5],[-2,7],[-1,5],[1,5],[2,5],[2,3],[3,4],[1,-1],[0,-1],[0,-2],[1,-2],[1,-1],[3,-4],[1,-3],[1,-2],[2,-2],[2,-3],[0,-1],[1,-1],[4,-14],[0,-4],[-1,-4],[-2,-6],[-2,-2],[-2,-2],[-3,-2],[-2,-1],[-4,-1],[-4,0],[-68,4],[-1,0],[-1,0],[-1,-1],[1,-1],[1,-1],[64,-3],[5,0],[2,0],[3,0],[3,0],[3,1],[1,0],[1,-1],[1,-2],[0,-2],[1,-8],[1,-9],[0,-4],[1,-5],[-1,-13],[-4,-8],[-5,-7],[-6,-8],[-4,-3],[-4,-2],[-4,-3],[-9,-2],[-11,10],[-7,6],[-7,6],[-16,10],[-1,0],[-1,0],[0,-1],[19,-13],[10,-8],[7,-7],[10,-11],[5,-6],[6,-9],[5,-10],[3,-7],[2,-7],[3,-10],[2,-12],[0,-1],[1,0],[1,0],[1,0],[1,0],[0,1],[0,1],[-1,12],[13,-1],[8,0],[7,-2],[9,-4],[6,-3],[7,-4],[4,-2],[4,-4],[3,-2],[2,-6],[3,-8],[-6,-2],[-52,-7],[-1,0],[-1,-1],[-1,0],[0,-1],[0,-1],[1,-1],[1,0],[1,0],[2,0],[42,6],[4,-12],[1,-1],[2,-2],[5,-5],[2,-2],[1,-3],[4,-18],[11,-2],[3,-2],[10,-4],[-1,0],[0,-1],[-1,0],[1,-1],[1,0],[1,-1],[1,1],[7,5],[20,-6],[16,-3],[7,-1],[5,-1],[9,0],[0,-1],[14,-2],[4,-1],[0,-1],[1,-1],[1,0],[1,0],[2,1],[1,2],[9,-1],[1,0],[2,3],[1,0],[1,0],[3,-5],[1,-1],[1,-1],[21,-3],[21,-1],[33,-1],[14,2],[0,-2],[0,-1],[1,-1],[1,-1],[1,0],[2,0],[-6,-13]],[[40149,57993],[94,-4],[141,6],[44,-5],[103,-26],[30,-9],[24,-13],[50,-31],[45,-64],[7,-69]],[[43477,57932],[49,55],[79,59],[-15,66],[-69,30],[-75,-41],[-132,31],[-25,28],[-45,6],[169,86],[-12,23],[-19,-4],[-21,49],[-27,23],[-41,38],[57,51],[-88,41],[38,43],[-143,59],[-56,166],[-36,12],[-124,23],[-6,5],[8,17],[-11,9],[-4,11],[6,38],[-35,125],[-11,9],[-13,2],[-77,14],[-457,214],[-56,26],[-62,38],[-44,20],[-28,18],[-72,46],[-105,45],[-19,3],[-28,0],[-23,11],[42,36],[-21,5],[-212,99],[-29,-22],[-104,48],[-23,38],[-29,-27],[-8,-7],[-8,-5],[-35,-21],[-4,-2],[-5,0],[-12,4],[-5,0],[-1,0],[0,-1],[16,-9],[4,-12],[3,-14],[-1,-2],[-5,-4],[-4,0],[-4,0],[-8,1],[-7,-2],[-13,-5],[-10,-6],[-3,-5],[0,-7],[3,-7],[9,-4],[3,-3],[-1,-4],[-6,-1],[-16,3],[-7,-1],[-9,-7],[0,-1],[7,-6],[3,-4],[-1,-3],[-7,-3],[-7,-1],[-11,3],[-3,-1],[0,-2],[5,-5],[4,-8],[-2,-5],[-21,-15],[-18,-13],[-21,-10],[-7,-2],[-10,0],[-2,0],[-1,-3],[2,-3],[6,-3],[3,-7],[-1,-4],[-33,-29],[-12,-10],[-27,-13],[-16,-1],[-4,-2],[-1,-8],[-8,-17],[-15,-9],[-15,-8],[-19,-1]],[[14260,48125],[6,-19],[1,-5],[1,-5],[2,-9],[2,-8],[8,-29],[8,-30],[2,-7],[3,-12],[15,-57],[6,-26],[9,-33],[3,-11],[17,-28],[40,-43]],[[14383,47803],[-6,-2],[-1,-1],[-6,-1],[-15,-4],[-16,-5],[-1,-1],[-16,-4],[-5,-2],[-3,-1],[-13,-3],[-5,-2],[-19,-5],[-8,-3],[-9,-2],[-1,0],[-7,-2],[-8,-2],[-1,-1],[-18,-5],[-2,0],[-7,-2],[-12,-4],[-3,-1],[-22,-6],[-19,-4],[-4,-1],[-17,-3],[-1,-1],[-3,-1],[-7,-3],[-11,-1],[-3,0],[-32,-4],[-35,-5],[-20,-3],[-32,-6],[-12,-1],[-56,-10],[-7,-1],[-10,-2],[-13,-4],[-8,-2],[-36,-9],[-10,-2],[-10,-3],[-10,-3],[-7,-3],[-44,-16],[-42,-16],[-12,-4],[-3,-1],[-6,-2],[-52,-12],[-24,-6],[-17,-4],[-25,-8],[-16,-5]],[[13575,47598],[-24,-7],[-18,-6],[-18,-5],[-34,-11],[-14,-4],[-9,-3],[-21,-6],[-37,-9],[-17,-5],[-19,-7],[-37,-12],[-72,-24],[-59,-19],[-41,-12],[-9,-3],[-18,-5],[-11,-3],[-7,-2],[-22,-3],[-15,-3],[-19,-3],[-33,-6],[-10,-2],[-14,-2],[-9,-2],[-10,-2],[-14,-3],[-8,-2],[-12,-3],[-19,-6],[-33,-9],[-23,-7],[-14,-5],[-16,-6],[-15,-6],[-22,-8],[-16,-6],[-20,-8],[-11,-3],[-30,-5],[-27,-5],[-32,-6],[-11,-2],[-12,-2],[-16,-1],[-7,-1],[-11,0],[-17,0],[-16,0],[-9,0],[-8,-1],[-6,-1],[-7,0],[-8,-2],[-4,-1],[-34,-8],[-8,-1],[-6,-2],[-5,-1],[-9,-2],[-4,-1],[-5,-1],[-7,0],[-6,0],[-6,0],[-10,0],[-4,1],[-5,1],[-13,2],[-34,6],[-16,2],[-14,1],[-30,-2],[-49,-4],[-32,-4],[-36,-11],[-54,-21],[-40,-17],[-26,-14],[-47,-17],[-47,-17],[-84,-31],[-67,-26],[-44,-18],[-81,-35],[-48,-23],[-46,-23],[-65,-30],[-51,-23],[-27,-12],[-47,-22],[-2,-1],[-6,-4],[-24,-13],[-43,-25]],[[11352,46937],[-7,-3],[-37,-19],[-31,-15],[-32,-15],[-9,-4],[-30,-14],[-22,-11],[-51,-17],[-45,-14],[-55,-18],[-111,-33],[-88,-27],[-54,86],[-53,89],[153,56],[24,11],[46,23],[47,24],[26,27],[16,13],[42,15],[39,12],[34,10],[38,16],[8,5],[15,5],[18,4],[34,4],[61,13],[51,8],[96,29],[92,30],[129,52],[39,18],[45,20],[14,8],[28,12],[25,6],[19,6],[144,75],[34,12],[34,29],[26,42],[11,5],[31,8],[19,17],[19,20],[10,30],[11,21],[6,5],[6,3],[6,-1],[6,-5],[13,-9],[24,-13],[14,1],[22,11],[14,10],[40,15],[43,3],[44,1],[51,8],[21,5],[40,11],[70,22],[58,26],[78,24],[70,30],[54,21],[93,35],[8,24],[0,1],[-1,2],[-3,5],[-1,2],[5,30],[5,7],[6,4],[6,50],[3,11],[5,21],[4,17],[3,1],[2,0],[2,-2],[-2,-12],[6,-3],[14,-10],[17,-7],[9,-3],[33,-4],[7,-1],[23,0],[39,4],[32,4],[25,5],[30,3],[46,26],[29,14],[46,20],[43,15],[48,18],[50,20],[49,17],[33,12],[3,7],[14,24],[18,15],[29,15],[14,18],[25,13],[15,7],[10,6],[4,3],[11,5],[5,7],[-7,14],[0,3],[2,4],[7,5],[11,14],[7,7],[7,6],[6,5],[5,3],[9,3],[10,2],[9,2],[7,0],[6,-1],[3,1],[1,3],[-6,7],[-3,6],[1,4],[12,13],[12,15],[5,9],[10,18],[9,17],[3,2],[4,0],[16,-4],[17,-12],[13,-13],[11,-15],[3,-12],[7,-19],[-1,-18],[4,-18],[-1,-25],[0,-13],[-14,-13],[5,-5],[9,-11],[7,-11],[3,-3],[2,-1],[2,0],[1,0],[3,-1],[7,-4],[5,-2],[4,-3],[5,-3],[11,-6],[3,-1],[6,-2],[1,-2],[18,-8],[37,-17],[13,-6],[3,-1],[6,-2],[19,1],[4,0],[4,0],[3,0],[4,-1],[2,-1],[2,-2],[3,-3],[14,-2],[22,-3],[4,-1],[2,0],[4,0],[11,1],[18,0],[6,0],[2,0],[3,0],[2,0],[1,0],[3,0],[1,0],[43,3]],[[13264,45828],[29,9],[12,6],[23,13],[8,6],[6,5],[10,11],[44,1],[41,18],[54,21],[51,22],[27,15],[33,24],[36,43],[12,16],[14,21],[34,48],[15,22],[20,28],[19,29],[23,32],[19,29],[13,25],[11,31],[9,42],[-2,29],[0,21],[-1,20],[-2,22],[0,37],[5,22],[14,34],[24,38],[37,39],[28,26],[39,28],[52,33],[69,33],[81,27],[-26,51],[-7,16]],[[14138,46821],[-3,24],[-5,45],[-10,84],[-11,102],[0,15],[3,25],[5,83],[4,54],[3,34],[3,7],[-8,5],[-3,1],[-1,1],[-5,2],[-4,2],[-2,2],[-2,1],[-2,1],[-2,1],[-2,1],[-2,1],[-2,1],[-2,1],[-2,1],[-2,1],[-2,2],[-8,4],[-2,1],[-2,1],[-2,1],[-3,1],[-1,1],[-3,1],[-2,1],[-2,2],[-2,1],[-2,1],[-2,1],[-2,1],[-2,1],[-2,1],[-2,1],[-2,1],[-3,1],[-2,2],[-2,1],[-2,1],[-2,1],[-2,1],[-2,1],[-2,1],[-2,1],[-2,1],[-2,1],[-2,2],[-9,5],[-10,5],[-1,1],[-162,106],[-6,4],[-30,22],[-11,7],[-14,11],[-6,4],[-29,19],[-15,8],[-58,23],[-55,21],[-18,6],[-7,2],[-1,0],[-11,1]],[[11352,46937],[5,-3],[12,-9],[14,-9],[29,-18],[30,-20],[12,-6],[66,-35],[36,-18],[34,-19],[11,-6],[12,-7],[34,-18],[31,-18],[5,-3],[30,-18],[41,-25],[46,-27],[75,-46],[35,-22],[16,-9],[17,-14],[15,-14],[15,-15],[8,-8],[16,-16],[41,-41],[13,-9],[15,-9],[13,-6],[10,-4],[30,-9],[34,-9],[32,-8],[52,-14],[24,-7],[18,-7],[15,-7],[8,-5],[12,-9],[10,-10],[8,-8],[6,-7],[8,-13],[5,-8],[8,-12],[4,-6],[13,-20],[9,-13],[8,-14],[22,-31],[3,-5],[7,-12],[4,-11],[4,-11],[2,-10],[2,-13],[0,-6],[1,-12],[-1,-12],[-1,-16],[-2,-22],[-1,-10],[-1,-13],[1,-12],[2,-6],[4,-9],[5,-10],[2,-4],[5,-8],[14,-17],[9,-8],[4,-2],[10,-6],[9,-5],[7,-3],[63,-26],[21,-8],[22,-9],[24,-10],[11,-5],[30,-12],[38,-15],[6,-3],[19,-6],[23,-7],[9,-3],[17,-4],[17,-3],[12,-2],[9,-1],[17,-2],[16,-2],[11,-1],[9,0],[20,-1],[20,1],[11,0],[25,1],[22,2],[25,1],[57,3],[90,4],[26,-2],[14,-3],[11,-3],[21,-9],[8,-6],[13,-11],[11,-17],[1,0],[11,-18]],[[16934,47513],[24,-5],[24,-5],[69,-15],[54,-11],[58,-11],[64,-9],[48,-7],[69,-10],[99,-17],[29,-6],[7,-1],[16,-3],[19,-3],[57,-11],[56,-10],[93,-19],[67,-11],[112,-22],[70,-6],[14,-3],[24,-6],[20,-5],[36,-9],[58,-11],[70,-14],[34,-8]],[[18225,47275],[262,-62],[201,-60],[114,-26],[77,38],[132,23],[194,11],[13,35],[53,122],[34,82],[40,73],[49,52],[45,53],[32,62],[58,79],[57,94],[91,132],[36,62],[46,111],[40,56],[120,111],[120,110],[11,43],[-286,111],[-210,-111]],[[19554,48476],[-67,-36],[-68,-31],[-111,-43],[-102,-38],[-98,-38],[-69,-26],[-21,-8],[-113,-44],[-64,-24],[-61,-23],[-87,-35],[-94,-38],[-81,-32],[-66,-27]],[[18452,48033],[-124,-51],[-133,-50],[-51,-15],[-65,-20],[-78,-23],[-107,-32],[-80,-24],[-89,-27],[-143,-43],[-116,-35],[-57,-16],[-59,-24]],[[17350,47673],[-202,-78],[-49,-18],[-59,-22],[-37,-14],[-43,-18],[-26,-10]],[[17328,46876],[-18,21],[-33,36],[-22,-7],[-44,37],[-15,13],[-28,24],[-29,27],[-31,26],[-23,22],[-82,66],[-35,30],[-22,18],[-22,14],[-53,39],[-45,33],[-45,36],[-41,32],[-69,60]],[[16671,47403],[35,15],[70,29],[62,26],[49,20],[47,20]],[[18225,47275],[10,-79],[-116,-18],[-51,1],[-246,-124],[-176,-89],[-125,-63],[-23,-3],[-144,-18],[-26,-6]],[[17244,46770],[-9,-4],[-51,-26],[-51,-26],[-85,-44],[-6,-3],[-148,-75],[-57,43],[-78,59],[-69,51],[-28,21],[-50,37],[-46,36],[-35,29]],[[16531,46868],[-6,5],[-34,29],[-38,32],[-31,28],[-10,16],[-17,10],[-12,25],[-30,26],[-34,28],[-17,15],[-14,15],[-7,15],[-9,12],[-10,10],[-11,12],[-10,16],[-11,21],[-13,32]],[[16217,47215],[23,10],[38,15],[27,10],[34,15]],[[16339,47265],[32,13],[47,20],[51,21],[47,20],[53,22],[102,42]],[[17328,46876],[13,-20],[-41,-14],[-89,-53],[33,-19]],[[16217,47215],[-53,-22],[-75,-31],[-101,-43],[-35,-11],[-21,-6],[-39,-8],[-13,-2],[-101,-16],[-73,-10]],[[15706,47066],[2,-14],[3,-11],[3,-11],[3,-10],[5,-16],[3,-8],[3,-7],[8,-9],[34,-27],[7,-6],[9,-7],[39,-31],[38,-29],[19,-16],[11,-9],[24,-16],[18,-11],[33,-16],[7,-3],[17,-14],[13,-9],[13,-11],[35,-31],[33,-27],[13,-14],[19,-16]],[[16118,46687],[67,28],[43,19],[51,23],[63,27],[61,27],[36,15],[35,16],[15,7],[42,19]],[[16602,46341],[9,-5],[12,-7],[37,-24],[49,-41],[22,-20],[53,-47],[53,-46],[33,9],[7,1],[41,4],[43,7],[38,6],[46,16],[30,16],[68,44],[55,32],[57,43],[18,14],[35,20],[21,9],[10,3],[9,2],[7,1],[6,1],[43,-1],[45,0],[57,4],[59,3],[40,6],[42,15],[-64,50],[-64,34],[-47,31],[-21,22],[-6,6],[-17,19],[-13,16],[-13,15],[-10,12],[-33,38],[-24,34],[-9,10],[-3,1],[0,-2],[-29,34],[-14,20],[-7,7],[-29,17]],[[16118,46687],[35,-31],[37,-33],[41,-35],[31,-29],[20,-17],[27,-23],[7,-7],[17,-11],[39,-19],[36,-19],[44,-24],[117,-79],[33,-19]],[[15706,47066],[-25,-4],[-160,-24],[-66,-10],[-79,-12],[-132,-20],[-69,-11]],[[15175,46985],[-30,-5],[-132,-20],[-117,-17],[-101,-16],[-136,-20],[-63,-10],[-66,-10],[-73,-11],[-40,-6],[-63,-9],[-51,-8],[-69,-11],[-38,-6],[-21,-4],[-26,-8],[-11,-3]],[[13264,45828],[-7,-18],[-22,-35],[-10,-21],[-13,-41],[4,-89],[11,-58],[69,-19],[13,-2],[25,-6],[29,-5],[46,-7],[36,-3],[42,-2],[41,-1],[38,1],[30,2],[37,4],[21,2],[48,8],[49,10],[79,18],[68,15],[76,17],[60,13],[51,11],[51,7],[48,6],[32,3],[79,3],[72,2],[78,5],[57,8],[59,10],[44,9],[42,11],[33,9],[18,5],[24,8],[20,7],[7,2],[41,17],[33,14],[32,15],[48,24],[40,20],[22,11],[50,25],[18,8],[58,25],[19,8],[36,12],[29,11],[12,3],[37,12],[61,15],[53,12],[27,6],[20,4],[62,13],[35,8],[58,12],[37,8],[27,6],[9,1],[37,8],[47,10],[53,11],[41,9],[55,12],[58,12],[37,9],[25,6],[57,14],[20,6],[49,14],[54,18],[49,17],[52,20],[49,20],[31,13],[5,3],[33,14],[51,26],[46,23],[51,27],[42,21],[26,12],[21,9]],[[15175,46985],[-5,17],[-18,47],[-15,59],[3,17],[7,29]],[[15147,47154],[83,36],[13,21],[2,4],[8,-2],[15,5],[12,6],[161,73],[114,50],[13,4],[146,19],[88,12],[22,-1],[10,-3],[26,-11],[36,-16],[2,-1],[6,-1],[17,-2],[17,1],[33,5],[74,13],[35,5],[24,-4],[9,0],[17,-6],[24,-11],[11,7]],[[16165,47357],[56,-29],[40,-20],[28,-15],[17,-9],[26,-9],[6,-6],[1,-4]],[[15410,47779],[-11,-40],[-3,-5],[-2,-2],[-2,-2],[-54,-52],[-13,-10],[-6,-1],[-16,-5],[-16,-4],[-35,-9],[-30,-8],[-12,-3],[-2,0],[-2,-1],[-14,-1],[-70,-9],[-5,0],[-4,-1],[-15,-1],[-20,-3],[-23,-2],[-7,-1]],[[15048,47619],[0,-42],[-1,-20],[-12,-115],[4,-32],[10,-11],[40,-43],[6,-6],[14,-15],[16,-19],[21,-18],[42,-34],[-18,-8],[-3,-14],[-7,-29],[-4,-16],[-4,-23],[-5,-20]],[[16165,47357],[-31,15],[-78,40],[-95,49],[-83,43],[-77,41],[-110,57],[-53,28],[-29,16],[-16,6],[-35,17],[-34,21],[-17,20],[-20,18],[-4,3],[-28,32],[-45,16]],[[15526,47568],[-18,19],[-30,-12],[-20,12],[-8,10],[-2,11],[-7,33],[-43,-21],[-22,13],[-50,-38],[-25,-12],[-41,-14],[-46,-10],[5,-45],[50,5],[13,-66],[0,-2],[28,5],[33,-9],[31,21],[20,13],[40,26],[64,42],[28,19]],[[16934,47513],[-22,5],[-69,14],[-71,15],[-87,17],[-25,6],[-81,24],[-65,20],[-52,15],[-45,13],[-32,10],[-37,11],[-37,8],[-16,1],[-2,32],[-4,11],[-13,10],[-28,23],[-54,39],[-25,23],[-29,16],[-14,9],[-47,28],[-6,3],[-36,15],[-13,6],[-17,6],[-28,11],[1,1],[3,2],[101,65],[66,2],[93,2],[11,0]],[[16254,47976],[-1,4],[-26,46],[-25,46],[-12,23],[-22,25]],[[16168,48120],[-20,-5],[-70,-20],[-117,-36],[-131,-39],[-81,-25],[-27,-5],[-47,-2],[-27,-5],[-41,-9],[-60,-7],[-113,-11],[-6,-2],[-4,-2],[-3,-8],[-2,-22],[-2,-23],[-6,-58],[0,-14],[-1,-48]],[[17350,47673],[-114,36],[5,7],[3,29],[-71,-1],[-48,26],[-11,-3],[-2,-1],[-3,-1],[-32,22],[-15,8],[-10,6],[-11,-16],[-14,-12],[-17,-12],[-22,-8],[-24,-8],[-32,-6],[-47,-7],[-91,-17],[-22,-4],[-42,-7],[-36,-6],[-10,-2],[-41,92],[-21,46],[8,2],[27,4],[17,3],[3,0],[12,2],[19,3],[30,6],[-16,65],[-5,73],[-1,29],[-13,-2],[-19,-3],[-34,-6],[-93,-8],[-49,-3],[-69,-9],[-96,-11],[-20,-1],[-69,-2]],[[17801,48594],[-10,-4],[-46,-16],[-32,-10],[-23,-6],[-9,-6],[-23,-17],[-12,-4],[-69,-31],[-4,-6],[-12,-3],[-14,-1],[-12,0],[-33,-2],[-58,-2],[-53,0],[-56,-3],[-60,-3],[-55,-2],[-41,-2],[-32,-1],[-46,-1],[-25,-3],[-40,-8],[-22,-8],[-15,-7],[-61,-37],[-30,-15],[-22,-8],[-28,-5],[-24,-2],[-24,-1],[-24,11],[-13,8],[-7,3],[0,3],[0,2],[0,5],[-13,9],[-5,1],[-15,-6],[-7,-3],[-7,-6],[-1,-6],[-5,-5],[-8,-4],[-3,-5],[5,-21],[-23,-7],[-19,-5],[-26,-11],[-49,-20],[-21,-10],[-26,-13],[-28,-11],[-35,-11],[-30,-11],[-18,-4],[-15,-3],[-18,-5],[-13,-3],[-16,-4],[-10,-3],[-8,-4],[-12,-9],[-3,-2],[-3,-4],[-3,-3],[-17,-22],[-8,-7],[-8,-3],[-12,-4],[-24,-5],[-39,-8],[-39,-8],[-26,-5],[-19,-3]],[[16139,48158],[29,-38]],[[18452,48033],[-33,6],[-49,9],[-21,2],[-63,-3],[-48,-3],[-53,3],[-7,0],[-40,3],[-74,6],[38,103],[-4,6],[-42,47],[-11,13],[26,4],[14,3],[-34,35],[-32,38],[-32,27],[-31,27],[-56,41],[-34,-2],[-83,-3],[-6,-1],[2,51],[2,34],[55,19],[9,7],[6,5],[4,15],[-1,12],[-1,8],[-5,6],[-4,-1],[-2,-1],[-1,0],[-22,27],[-18,18]],[[17801,48594],[12,5],[89,37],[110,36],[60,37],[56,26],[132,55],[114,54],[-12,13],[1,2],[-4,6],[8,4],[5,-3],[7,-1],[14,-16],[14,13],[58,27],[29,12],[35,8],[29,17],[11,18],[7,4],[36,5],[14,4],[17,11],[114,-64],[460,-307],[128,54],[64,-67],[19,-13],[29,-24],[-22,-9],[-2,-27],[74,5],[16,-14],[31,-26]],[[14383,47803],[9,-7],[7,-5],[7,-5],[13,-10],[17,-13],[41,-30],[21,-17],[8,-4],[7,-3],[15,-7],[19,-8],[35,-16],[6,-2],[6,-3],[1,0],[46,-21],[11,-5],[15,-6],[2,-1],[3,-1],[2,-1],[3,0],[3,-1],[3,-1],[3,0],[3,-1],[33,-4],[10,-1],[42,-5],[23,-3],[69,-8],[8,-1],[10,-1],[19,-2],[9,-2],[4,0],[3,0],[2,0],[2,0],[20,1],[1,0],[6,1],[2,0],[1,0],[23,2],[2,0],[17,2],[9,0],[7,1],[29,3],[8,1]],[[72305,98325],[7,-16],[19,-2],[39,-9],[39,-8],[20,-5],[44,-8],[68,-12],[26,-1],[29,6],[27,6],[12,-1],[9,-12],[16,-26],[6,-13],[12,-17],[1,-3],[1,-2],[1,-3],[1,-22],[189,1],[39,-32],[15,-10],[-41,-67],[-55,-113],[-23,-46],[-16,-26]],[[72790,97884],[-46,-31],[-33,-39],[-27,-19],[-36,-26],[-69,-14],[-16,-16],[-32,-43],[-10,-14],[-20,-34],[-9,-32],[4,-14],[19,-40],[-14,-30],[-2,-26],[2,-22],[10,-15],[4,-19],[0,-23],[-6,-16],[0,-15],[2,-21],[-3,-25],[-5,-33],[-15,-23],[-14,-15],[-12,-7],[-18,-11],[-10,-2],[-64,1],[-40,-1],[-127,-45],[-21,-16],[-24,11],[-41,29],[-36,22],[-126,75],[-28,14],[-28,-1],[-24,-19],[-7,-11],[-27,-20],[-20,-24],[-162,-20],[-45,0],[-15,2],[6,-49],[9,-41],[-9,-8],[-14,-8],[-9,-39],[-10,-37],[-50,-28],[-50,37],[-41,40],[-23,18],[-9,17],[-15,8],[-22,5],[-27,-1],[-3,-9],[-36,52],[-17,9],[-22,15],[-31,36],[-28,19],[-11,23],[-1,6],[-25,15],[-20,6],[-47,34],[-23,3],[-39,21],[-6,10],[0,14],[-2,10],[-22,11],[-12,9],[-17,38],[-13,18],[-6,16],[-1,0],[-64,27],[-60,33],[-79,42],[4,12],[5,17],[23,30],[13,28],[-103,37],[-11,3],[-7,2],[-41,8],[-16,3],[-20,5],[-4,2],[-39,18],[-35,14],[-46,24]],[[70473,97831],[66,19],[61,18],[16,5],[74,21],[84,24],[44,10],[45,9],[26,4],[69,13],[53,9],[49,10],[40,9],[14,5],[42,24],[69,61],[111,104],[37,30],[46,14],[64,7],[17,2],[31,9],[19,15],[12,8],[2,0]],[[71564,98261],[17,24],[22,29],[20,25],[27,28],[25,21],[36,33],[32,14],[33,5],[42,0],[87,-2],[45,7],[-1,-23],[25,-44],[15,-41],[11,-28],[50,6],[31,3],[82,0],[89,0],[21,1],[24,5],[8,1]],[[72305,98325],[-1,4],[-1,12],[3,27],[0,13],[-3,3],[-7,7],[-10,9],[-38,30],[-16,14],[0,11],[2,24],[-1,21],[-1,30],[-4,19],[11,-2],[23,-3],[21,4],[27,8],[48,12],[84,21],[37,11],[35,26],[49,38],[9,7]],[[72572,98671],[75,35],[31,14],[26,-2],[30,0],[66,7],[91,9],[25,4],[11,1],[13,17],[79,39],[-13,15],[-1,21],[0,15]],[[73005,98846],[17,-1],[15,-1],[35,1],[51,-1],[28,2],[39,4],[6,0],[7,1],[13,3],[65,19],[46,11],[31,9],[43,11],[59,20],[33,12],[10,3],[8,-3],[3,-1],[3,1],[5,2],[4,2],[20,7],[27,9],[8,2],[4,2],[4,2],[3,1],[2,-2],[3,1],[2,1],[2,1],[-7,6],[-2,2],[3,1],[5,3],[4,3],[10,8],[5,-3],[4,-2],[2,-1],[4,2],[-1,3],[-3,2],[-8,10],[30,6],[18,7],[24,12],[5,2],[5,4],[2,5],[-4,6],[-1,2],[31,16],[5,0],[6,0],[7,2],[6,3],[8,4],[21,12],[15,13],[15,14],[7,2],[8,-5],[2,1],[3,2],[-7,4],[5,1],[14,3],[18,5],[6,4],[6,3],[10,8],[2,0],[11,4],[3,1],[21,8],[9,7],[6,7],[5,4],[1,4],[2,4],[6,3],[19,5],[7,6],[7,6],[6,6],[6,8],[-1,7],[0,6],[2,4],[7,8],[21,28],[11,11],[10,12],[8,7],[6,10],[6,6],[20,10],[19,6],[7,3],[10,2],[7,0],[3,2],[9,8],[13,16],[7,6],[21,28],[21,16],[13,12],[7,10],[2,6],[1,9],[2,7],[-3,5],[11,14],[4,2],[8,2],[7,5],[8,9],[11,13],[8,17],[-1,6],[-2,4],[-8,5],[-3,4],[8,21],[3,28],[0,19],[-6,9],[-2,7],[6,8],[5,3],[7,3],[1,3],[-1,14],[-11,15],[-9,4],[-7,2],[-6,0],[-16,5],[-5,8],[-10,5],[-16,13],[-6,13],[2,9],[4,5],[6,8],[8,8],[3,7],[0,4],[-5,4],[-4,3],[-3,8],[-3,6],[-4,10],[1,6],[5,7],[11,10],[11,6],[12,1],[8,2],[7,0],[10,-2],[11,2],[9,4],[1,2],[5,2],[4,0],[3,-1],[22,1],[15,3],[18,6],[20,4],[15,3],[8,0],[5,2],[4,2],[3,0],[2,-1],[0,-4],[2,-1],[1,-1],[13,0],[15,-2],[15,-3],[7,-1],[11,-1],[10,-2],[9,-3],[9,-5],[16,-2],[15,-1],[18,2],[17,4],[7,5],[5,6],[0,3],[0,5],[6,9],[8,5],[6,1],[9,-1],[7,0],[11,6],[7,4],[3,2],[4,0],[5,0],[4,0],[4,2],[8,-2],[4,-1],[6,-3],[6,-6],[14,-5],[9,-1],[9,1],[16,5],[39,16],[21,9],[15,9],[8,2],[13,3],[12,5],[22,11],[15,4],[8,4],[23,5],[9,1],[6,-1],[7,0],[30,8],[26,2],[11,4],[23,12],[4,6],[2,0],[4,0],[9,-3],[5,-2],[9,-1],[6,1],[16,6],[7,3],[28,16],[6,6],[3,5],[4,6],[1,3],[8,-8],[4,-21],[8,-22],[17,-21],[43,-24],[27,-30],[16,-22],[55,-10],[5,-6],[6,-15],[31,-15],[40,-42],[-9,-25],[-1,-12],[-5,-5],[-3,1],[-25,14],[-13,11],[-10,4],[-8,1],[-11,0],[-22,-13],[-6,-7],[-7,-5],[-29,-8],[-5,0],[-22,5],[-35,14],[-54,24],[-72,15],[-29,0],[-37,-7],[-32,1],[-16,-3],[-12,-8],[-10,-20],[-8,-8],[-11,-9],[-13,-7],[-30,-4],[-11,2],[-29,4],[-12,-2],[-24,-13],[-22,-14],[-20,-4],[-89,2],[-29,-10],[-36,-35],[-22,-31],[-14,-21],[-11,-9],[-21,-4],[-20,-12],[-13,-7],[-23,-60],[-22,-25],[-6,-16],[-2,-11],[51,-2],[33,-12],[36,-15],[28,-16],[-3,-14],[-11,-9],[11,-13],[-2,-33],[-12,-23],[-27,-21],[-48,-4],[29,-22],[8,-21],[25,-20],[18,-19],[-17,-22],[-124,-55],[-20,-18],[32,-8],[29,-1],[46,-24],[17,2],[20,0],[12,-6],[3,-5],[-1,-16],[12,4],[59,2],[35,-11],[46,-23],[49,-25],[82,-32],[52,-25],[35,-20],[76,-24],[22,-32],[4,-18],[-20,-25],[-38,-23],[-104,-33],[15,-22],[9,-20],[41,-14],[51,-17],[20,4],[40,2],[28,-3],[3,-8],[19,-30],[16,-60],[39,-119],[3,-13],[2,-20],[-27,-43],[-8,-21],[0,-25],[-11,-16],[-7,-25],[18,-16],[34,-18],[22,-27],[36,-22],[2,-22],[-5,-17],[-19,-9],[-22,1],[-35,4],[-47,14],[-23,-1],[-18,-6],[-2,-11],[-19,-2],[9,-24],[8,-3],[10,-6],[20,-5],[33,-24],[5,-7],[-35,-94],[-8,-80],[10,-46],[-6,-36],[3,-25],[25,-63],[13,-18],[3,-11],[1,-13],[-11,-7],[-14,-7],[8,-6],[-8,-6],[8,-4],[2,-9],[-12,-21],[-7,-10],[-1,-11],[-14,-2],[-30,-19],[-10,-3],[-8,-6],[0,-14],[-12,-5],[-14,-4],[0,-7],[-15,2],[-14,4],[-25,-3],[-31,0],[-37,3],[-20,2],[-21,6],[-19,14],[-13,-2],[-9,-1],[-19,-7],[-21,1],[-24,11],[-25,-9],[-19,2],[-4,6],[-11,6],[-14,-7],[-40,-2],[-13,-2],[-28,14],[-96,58],[-64,12],[41,192],[-62,164],[-115,-39],[-185,-60],[-170,-57],[-160,-58],[-150,16],[-95,3],[-268,9],[-451,20]],[[71564,98261],[-49,35],[-28,20],[-38,5],[-54,18],[-23,8],[-6,9],[-17,38],[-14,36],[5,43],[42,29],[34,22],[35,21],[59,33],[36,17],[31,34],[57,62],[15,15],[34,31],[22,28],[10,17],[13,45],[1,6],[7,12],[22,18],[22,16],[15,8],[21,8],[17,6],[16,-12],[11,-12],[7,-19],[5,-7],[11,-6],[18,-7],[18,-12],[17,-19],[28,5],[26,8],[11,6],[9,14],[9,11],[6,9],[16,-18],[30,-30],[32,-34],[84,-44],[10,-4],[34,-13],[30,-5],[34,-3],[78,-6],[29,-4],[38,-4],[17,-1],[51,-4],[9,-10],[12,-1],[10,0],[9,6],[24,-14]],[[68917,99304],[1,0],[3,0],[20,2],[14,2],[7,0],[2,1],[0,1],[-2,0],[-7,0],[-4,0],[-4,0],[-6,-2],[-9,0],[-5,-1],[-8,-1],[-1,-1],[-1,-1]],[[73005,98846],[-67,5],[-71,13],[-48,8],[-37,11],[-40,15],[-32,19],[-27,26],[-14,21],[-1,2],[1,3],[3,2],[81,35],[3,1],[0,1],[-1,1],[-7,9],[-5,6],[-1,0],[-2,0],[-11,-6],[-9,-3],[-32,-15],[-25,-10],[-4,-2],[-15,-7],[-14,-6],[-13,-5],[-4,-2],[-6,-3],[-11,-5],[-10,-4],[-7,-3],[-7,-4],[-2,-1],[-6,-2],[-8,-4],[-8,-3],[-6,-3],[-2,0],[-4,1],[-21,10],[-13,7],[-4,2],[-7,5],[-1,1],[-1,1],[1,1],[1,1],[0,1],[-3,2],[-1,2],[2,1],[9,3],[9,4],[19,9],[140,61],[3,2],[18,8],[25,10],[8,4],[13,6],[1,0],[1,-1],[13,-11],[1,0],[1,0],[25,-20],[3,2],[3,-3],[2,-2],[1,-2],[14,-31],[0,-2],[1,-1],[0,-1],[2,0],[2,0],[1,0],[1,0],[0,1],[0,1],[0,1],[-14,32],[-1,3],[-1,2],[-1,1],[-4,4],[-44,35],[6,3],[-38,31],[-143,-63],[-5,2],[-61,16],[-1,11],[0,1],[-2,0],[-1,0],[-1,-1],[0,-5],[1,-1],[0,-1],[1,-1],[-1,-1],[0,-1],[-12,4],[-46,-60],[-34,9],[-1,18],[34,1],[-1,35],[-20,0],[0,1],[-23,0],[0,2],[-5,0],[0,12],[2,3],[1,3],[34,-1],[0,-5],[10,0],[0,2],[1,1],[1,1],[6,0],[13,0],[12,1],[6,0],[3,0],[9,-5],[1,0],[2,0],[23,14],[13,-8],[1,1],[-10,6],[3,2],[10,-6],[2,1],[-13,8],[2,1],[9,-1],[36,-24],[3,1],[-41,28],[3,3],[1,1],[0,1],[-5,13],[6,0],[-1,1],[0,2],[48,8],[1,0],[0,1],[-1,1],[-1,0],[-48,-8],[-1,2],[0,1],[-5,-1],[-1,0],[-2,0],[-12,17],[-1,2],[-1,1],[43,13],[-1,0],[0,2],[-1,2],[56,7],[4,0],[5,0],[200,-10],[0,4],[32,-2],[2,-1],[7,0],[3,1],[2,1],[0,2],[0,2],[-2,1],[-4,1],[-11,1],[-40,2],[-176,9],[-27,0],[-35,-2],[-27,-6],[-27,-8],[-16,3],[-6,3],[-5,6],[-1,5],[0,4],[-1,1],[-1,0],[-2,0],[-1,0],[-1,-1],[-8,0],[0,-14],[-64,-7],[-9,19],[-1,0],[-3,-1],[-8,-28],[-25,2],[-3,0],[-19,2],[-1,0],[-20,2],[-2,0],[-5,1],[-3,-5],[-2,0],[-3,0],[1,6],[-1,0],[-5,1],[-2,0],[-5,0],[-2,0],[-5,1],[-2,0],[-4,0],[-1,1],[1,4],[6,25],[1,3],[0,3],[19,4],[156,4],[0,3],[57,2],[2,-2],[3,-1],[4,0],[4,0],[3,1],[2,2],[0,2],[-1,2],[-1,1],[-3,1],[-208,-5],[-21,0],[-15,-2],[-9,-1],[-14,-4],[-6,-4],[-6,-3],[-10,-9],[-5,-6],[-5,-19],[-2,-1],[-1,-6],[-2,0],[-2,-3],[-9,1],[-17,4],[-15,2],[-28,3],[-40,10],[-10,2],[-19,4],[-14,1],[-18,0],[-17,3],[-50,10],[-12,2],[-36,8],[-10,2],[-5,2],[-2,4],[-17,9],[-9,5],[-6,2],[-10,2],[-9,1],[-5,1],[-2,1],[-2,1],[-2,4],[-3,6],[-7,8],[-6,3],[-12,2],[-33,2],[-31,1],[-18,1],[-15,2],[-8,2],[-10,1],[-13,-2],[-13,-4],[-11,-3],[-6,-2],[-12,0],[-20,-3],[-10,-4],[-16,-5],[-20,-7],[-15,-6],[-15,3],[-1,0],[-3,0],[-2,1],[-1,0],[-53,9],[-3,0],[-3,0],[-2,1],[-3,2],[-6,4],[-7,13],[-8,8],[-11,6],[-5,2],[-9,2],[-12,1],[-7,3],[-10,5],[-2,2],[0,1],[1,1],[2,1],[1,1],[-1,0],[-4,0],[-2,1],[-2,3],[0,3],[-2,0],[-3,-1],[-2,-3],[-2,-1],[-4,-1],[-4,1],[-3,3],[-6,-1],[-4,-1],[-6,-3],[-10,-2],[-4,1],[-4,3],[-7,4],[-7,2],[-12,0],[-4,1],[-1,3],[-1,2],[1,3],[2,4],[0,1],[-1,0],[-2,-1],[-6,-3],[-15,-4],[-4,-2],[-5,-1],[-3,0],[-3,0],[-3,0],[-1,2],[-1,2],[-3,0],[-7,0],[-26,6],[-16,2],[-6,2],[-6,3],[-3,4],[-7,5],[-6,11],[-11,19],[-3,2],[-6,1],[-5,0],[-9,1],[-4,3],[-4,5],[-3,12],[-2,0],[-2,0],[-1,-1],[1,-4],[0,-2],[-2,-1],[-1,-2],[-1,0],[-3,0],[-2,1],[-4,2],[-1,1],[-2,4],[-4,4],[-2,0],[-2,0],[-2,0],[-3,0],[-1,2],[-2,3],[-1,0],[-2,0],[-1,-2],[1,-2],[3,-3],[1,-1],[-1,-3],[-1,-5],[0,-2],[0,-3],[-2,0],[-3,-2],[-5,-4],[-3,-2],[-2,-4],[-2,-3],[-2,-2],[-3,-1],[-3,1],[-2,2],[-3,1],[-2,0],[-1,-1],[0,-1],[2,-3],[1,-2],[3,-3],[0,-4],[-1,-4],[-5,-2],[-3,-1],[-8,-1],[-4,0],[-6,-2],[-6,-1],[-3,-2],[-3,-1],[-2,-3],[-3,-2],[-5,-5],[-3,-5],[-2,-2],[-3,-3],[-4,0],[-5,-2],[-7,0],[-2,0],[-4,0],[-4,0],[-3,-2],[-6,-2],[-10,1],[-5,1],[-8,2],[-14,2],[-15,1],[-11,-2],[-7,-2],[-8,1],[-4,0],[-4,-2],[-5,-1],[-6,0],[-12,2],[-9,0],[-8,1],[-12,1],[-6,2],[-11,1],[-12,1],[-3,0],[-4,0],[-4,-2],[-3,0],[-8,-1],[-12,-2],[-10,-1],[-8,1],[-8,3],[-14,2],[-7,3],[-7,1],[-4,-1],[-5,-2],[-3,-2],[-6,-5],[-10,-1],[-6,1],[-4,-1],[-5,1],[-3,-1],[-1,-4],[-1,-3],[-4,-2],[-7,-2],[-4,0],[-4,-1],[-3,-2],[-2,-1],[-1,-2],[-2,-2],[-12,-12],[-17,-3],[-14,1],[-12,3],[-8,4],[-8,2],[-13,6],[-34,6],[-11,1],[-9,3],[-35,14],[-17,5],[-15,2],[-6,3],[-7,1],[-5,2],[-5,1],[-4,1],[-5,-1],[-4,1],[-3,1],[-6,0],[-14,2],[-7,-1],[-16,-6],[-12,-3],[-7,-2],[-13,-3],[-9,-1],[-10,2],[-6,-2],[-8,-3],[-16,-4],[-10,-1],[-6,-1],[-16,0],[-16,0],[-11,-2],[-9,0],[-6,1],[-12,3],[-15,1],[-9,1],[-8,1],[-8,0],[-7,0],[-10,2],[-9,-1],[-4,1],[-2,1],[-3,3],[-9,2],[-11,0],[-8,1],[-11,2],[-12,0],[-13,-2],[-8,-1],[-8,0],[-13,1],[-17,2],[-14,5],[-9,8],[-10,8],[-14,7],[-4,2],[-5,0],[-7,-1],[-11,-2],[-14,0],[-19,2],[-16,0],[-13,2],[-16,4],[-15,3],[-8,2],[-4,0],[-4,-1],[-10,-3],[-7,0],[-3,3],[-5,6],[-5,5],[-2,4],[-2,6],[-5,6],[-3,3],[-4,3],[-3,0],[-7,2],[-8,-1],[-5,0],[-4,-1],[-4,0],[-3,-1],[-5,-3],[-4,-3],[-3,-1],[-6,-2],[-8,-1],[-12,-2],[-16,-1],[-13,0],[-12,1],[-16,0],[-11,0],[-5,0],[-4,-1],[-4,-2],[-5,0],[-17,1],[-8,0],[-11,-2],[-8,0],[-14,1],[-23,1],[-12,0],[-31,-1],[-26,0],[-33,-1],[-11,0],[-12,-1],[-9,-2],[-9,-2],[-11,-1],[-6,0],[-5,0],[-4,0],[-9,1],[-11,1],[-14,1],[-19,2],[-19,2],[-13,2],[-16,3],[-8,4],[-12,3],[-16,2],[-7,1],[-7,3],[-7,1],[-9,-1],[-5,-2],[-12,-9],[-10,-6],[-14,-1],[-5,0],[-9,-1],[-9,-2],[-6,-2],[-5,-2],[-4,-4],[-1,-2],[2,-4],[1,-7],[1,-3],[1,-4],[-3,-4],[-6,-4],[-4,-3],[-10,-3],[-7,-3],[-18,-14],[-11,-5],[-9,-3],[-10,-2],[-15,-2],[-14,-1],[-6,-1],[-2,-2],[-2,-1],[-1,-2],[-4,-2],[-3,1],[-4,0],[-6,0],[-6,0],[-2,-1],[-5,-1],[-7,-1],[-7,-2],[-10,-1],[-6,-3],[-1,-2],[-3,-2],[-4,-2],[-4,-3],[-3,-5],[-4,-7],[-11,-5],[-7,-3],[-5,-1],[-13,-5],[-18,-4],[-9,-5],[-6,-1],[-6,0],[-10,0],[-4,-1],[-3,-2],[0,-5],[-4,-3],[-9,-5],[-8,-2],[-6,-3],[-3,-3],[-4,-3],[-15,-11],[-13,-7],[-11,-5],[-26,-4],[-12,-1],[-21,-2],[-26,-4],[-7,-1],[-7,0],[-3,1],[-2,2],[-2,2],[-2,0],[-3,-1],[-1,-2],[-2,-1],[-1,-3],[-1,-3],[-4,-2],[-5,-1],[-3,0],[-4,1],[-2,2],[-3,1],[-3,-1],[-11,-7],[-3,-3],[-3,-2],[-2,-1],[-1,-2],[-2,-1],[-2,-2],[-2,0],[-2,-1],[-2,-2],[1,-2],[2,-1],[1,-2],[-2,-3],[-6,-1],[-7,-2],[-10,-4],[-5,-3],[-4,-5],[-6,-6],[-2,-1],[-1,-2],[-1,0],[-4,0],[-3,0],[-4,0],[-6,1],[-2,-1],[-2,-1],[-1,-3],[-1,-2],[1,-2],[0,-3],[-2,-4],[-5,-2],[-12,-2],[-3,0],[-3,-1],[-3,-3],[-3,-3],[0,-1],[1,-1],[2,-1],[4,0],[7,0],[3,0],[3,-1],[2,-2],[-4,-6],[-8,-5],[-15,-4],[-11,-2],[-4,-1],[-2,-3],[1,-2],[3,-2],[4,-2],[2,-1],[2,-1],[0,-2],[-7,-2],[-1,-1],[0,-1],[1,-1],[6,0],[3,-3],[0,-4],[-3,-3],[-6,-8],[-4,-6],[-8,-12],[-7,-11],[-2,-7],[0,-7],[1,-4],[0,-3],[0,-4],[-1,-3],[-2,-3],[-4,-5],[-8,-7],[-3,-1],[-5,-1],[-10,-1],[-4,0],[-4,-1],[-3,-1],[0,-3],[-1,-2],[1,-2],[3,-2],[10,-4],[1,-3],[-1,-5],[2,-2],[3,-3],[4,-2],[7,-3],[1,-2],[1,-5],[-1,-2],[0,-2],[3,-6],[5,-4],[3,-5],[2,-4],[1,-2],[1,-2],[2,-2],[7,-5],[0,-4],[-5,-8],[-5,-5],[-4,-5],[-7,-12],[-13,-22],[-12,-26],[-12,-16],[-4,-1],[-4,0],[-5,1],[-7,1],[-15,1],[-6,1],[-3,0],[-1,-1],[1,0],[1,-1],[0,-2],[-1,-1],[-4,0],[-9,0],[-1,-1],[0,-1],[3,-2],[7,-3],[6,-4],[3,-9],[-7,-12],[-15,-15],[-18,-31],[-9,-18],[-34,-80],[-19,-46],[-5,-11],[-6,-16],[-3,-9],[-5,-9],[-4,-9],[-3,-11],[-3,-10],[-2,-6],[-2,-5],[-4,-6],[-7,-3],[-10,-2],[-5,-1],[-4,-1],[-3,-2],[-4,-5],[-4,-2],[-4,-3],[-2,-1],[-3,-3],[-5,-3],[-3,-4],[-5,-4],[-3,-1],[-1,-2],[1,-4],[1,-2],[0,-1],[6,-1],[5,-1],[2,-2],[1,-5],[3,-5],[3,-2],[4,-2],[2,-2],[-1,-1],[-3,-2],[-1,-1],[0,-1],[3,-2],[1,-1],[4,0],[9,-3],[25,-16],[1,-1],[0,-14],[-3,-5],[-14,-22],[-11,-28],[-20,-40],[-33,-51],[-21,-40],[-21,-40],[-29,-54],[-36,-68],[-29,-53],[-27,-65],[-31,-77],[-26,-64],[-14,-34],[1,-14],[0,-8],[1,-6],[-9,-12],[-16,-12],[55,0],[48,-8],[44,-8],[29,-10],[14,3],[7,9],[12,27],[30,15],[24,-6],[17,0],[18,13],[75,-27],[31,-10],[58,-38],[27,-33],[22,-35],[22,-26],[35,-25],[33,-11],[72,-2],[44,3],[67,-8],[115,22],[108,48],[49,-12],[192,45],[175,41],[46,7],[2,27],[86,2],[27,0],[59,-9],[44,-28],[27,-26],[148,34],[176,42],[147,34],[143,33],[82,19],[133,32]],[[14260,48125],[32,4],[51,10],[4,1],[8,3],[4,2],[7,4],[41,18],[4,0],[4,0],[7,2],[5,1],[13,3],[3,2],[1,2],[1,5],[-7,4],[1,20],[3,19],[2,1],[3,1],[75,-3],[11,0],[2,-1],[3,0],[2,-1],[6,-2],[4,-4],[3,-5],[4,-3],[5,-1],[6,-1],[5,-1],[3,1],[2,2],[3,6],[4,4],[4,2],[4,1],[9,5],[61,34],[4,2],[1,0],[2,0],[1,0],[1,0],[1,0],[1,0],[2,-2],[20,5],[20,2],[15,-2],[27,-6],[31,-10],[31,-10],[24,-7],[13,-5],[6,-6],[5,-9],[1,-6],[4,-7],[4,-2],[9,-4],[8,-1],[20,-2],[20,-1],[16,-1],[21,-2],[14,-1],[4,0],[13,8],[30,21],[33,22],[24,17],[18,12],[22,11],[29,11],[202,65],[141,46],[283,92],[6,2],[2,-1],[2,-2],[0,-1],[0,-1],[-80,-26],[16,-21],[0,-1],[-1,-1],[-3,0],[-1,0],[-2,0],[-3,1],[-2,3],[-12,-3],[-13,-1],[-33,-10],[1,-2],[-13,-4],[-1,2],[-59,-15],[-22,-4],[-16,-4],[-6,-4],[2,-4],[8,2],[2,-2],[-204,-64],[-1,3],[4,1],[-1,2],[-2,0],[-10,-4],[0,-2],[15,-19],[-5,-1],[-11,13],[-9,3],[-91,-30],[-11,8],[-44,-13],[-6,-2],[-2,-1],[-1,-2],[-4,-3],[-8,-3],[-1,-5],[3,-3],[-49,-15],[-113,-78],[-26,-18],[-3,-2],[8,-4],[9,-5],[3,-2],[4,3],[6,4],[4,2],[2,0],[3,-1],[9,-4],[1,-1],[1,-2],[-13,-17],[0,-3],[0,-2],[-2,-2],[-2,0],[-2,0],[-1,1],[-6,3],[-5,3],[-13,7],[-11,6],[-8,5],[-2,1],[-22,-15],[6,-3],[1,-1],[7,-5],[5,-3],[4,-2],[9,-5],[8,5],[2,-1],[-8,-5],[-3,-3],[34,-20],[2,-1],[-1,-1],[-11,-7],[2,-5],[3,-2],[1,0],[0,-1],[0,-3],[-11,-29],[22,-1],[2,25],[1,1],[1,1],[2,-1],[1,-1],[9,-1],[1,1],[7,2],[2,0],[27,2],[2,0],[0,3],[-1,10],[-33,30],[38,27],[7,2],[75,-67],[5,-4],[3,1],[-2,2],[1,1],[1,0],[5,0],[2,1],[4,1],[1,0],[1,0],[2,-2],[19,0],[5,3],[-91,106],[45,32],[11,4],[131,-154],[67,-1],[2,1],[-90,106],[67,22],[111,-132],[3,0],[-6,7],[4,1],[8,-8],[58,-1],[3,1],[-169,196],[37,12],[52,-60],[89,30],[2,-2],[9,3],[86,-98],[5,2],[5,-5],[12,2],[3,-1],[12,1],[4,3],[4,2],[1,3],[-3,6],[-6,6],[-8,3],[-7,8],[2,3],[9,3],[3,1],[1,1],[5,1],[6,0],[11,3],[2,2],[0,1],[-4,5],[4,1],[-97,112],[8,2],[-1,2],[108,11],[10,-2],[7,-4],[16,-20],[7,2],[33,-39],[9,3],[-8,9],[6,1],[31,-37],[8,3],[10,-12],[4,2],[-10,11],[26,9],[39,-46],[11,4],[-94,111],[14,6],[-4,5],[-3,0],[-1,2],[-1,2],[2,1],[2,0],[75,-87],[3,-3],[195,64],[4,1],[5,-2],[0,-3],[-2,-1],[-6,1],[-8,-2],[-159,-55],[-3,-1],[26,-31],[43,14],[-13,14],[2,2],[2,1],[4,0],[17,-19],[-51,-17],[31,-37],[40,13],[12,-12],[11,3],[7,2],[6,2],[7,2],[12,5],[-36,45],[18,7],[1,0],[3,1],[1,1],[56,-64],[3,-4],[12,-15]],[[40065,57491],[3,8],[-5,7],[-53,31],[-3,2],[-18,12],[-5,3],[-5,4],[-28,23],[-20,21],[-16,19],[-27,26],[-21,5],[-9,2],[-6,3],[-2,-1],[-9,-5],[-1,-7],[10,-16],[-32,-6],[-8,15],[-8,14],[-9,15],[-70,-13]],[[38738,57561],[27,16],[20,17],[7,0],[4,2],[1,2],[1,4],[17,6],[7,6],[9,22],[16,11],[59,41],[16,10],[53,44],[19,14],[8,5],[5,8],[3,1],[4,1],[4,0],[9,-6],[3,-1],[2,0],[3,2],[11,6],[9,8],[3,1],[8,2],[1,2],[0,2],[-13,11],[0,6],[3,4],[3,3],[12,9],[14,4],[4,6],[2,1],[4,0],[8,0],[4,2],[-1,7],[2,2],[8,-2],[2,1],[15,13],[3,2],[1,2],[2,3],[1,2],[6,6],[5,3],[2,6],[4,2],[5,3],[5,3],[10,1],[5,-2],[9,-1],[5,2],[1,0],[-1,1],[-7,4],[0,1],[2,2],[12,0],[1,1],[0,2],[3,13],[1,7],[-1,7],[1,3],[1,1],[9,0],[2,1],[-1,3],[1,1],[4,0],[1,0],[1,12],[2,1],[14,1],[1,2],[-2,4],[4,6],[15,4],[13,0],[8,0],[10,-9],[3,0],[1,3],[-3,4],[-4,8],[0,3],[2,1],[5,1],[2,0],[1,3],[-1,6],[1,3],[10,6],[4,2],[22,1],[6,-2],[2,1],[1,2],[-1,1],[-7,3],[0,1],[4,2],[9,0],[6,-1],[2,0],[2,2],[1,1],[-2,2],[-6,3],[0,2],[6,2],[9,-1],[4,0],[4,3],[-2,2],[-5,2],[-2,2],[6,5],[2,0],[10,-2],[2,-1],[3,-1],[4,-2],[3,-10],[7,-3],[8,0],[8,3],[11,4],[2,4],[-5,10],[0,3],[5,5],[4,7],[-1,5],[-6,9],[0,2],[2,2],[3,2],[2,1],[2,0],[2,1],[2,0],[4,-1],[4,-1],[3,-1],[3,0],[1,0],[3,-1],[7,-1],[5,-1],[4,1],[2,0],[0,7],[3,6],[1,1],[2,0],[5,-1],[2,1],[2,1],[0,3],[-1,2],[-5,3],[-2,1],[-3,1],[-3,2],[-4,1],[-1,1],[0,1],[2,2],[6,1],[3,0],[2,1],[4,2],[4,1],[5,2],[4,2],[1,1],[1,1],[2,0],[3,0],[3,-1],[3,-2],[5,-4],[7,-3],[3,-1],[4,-1],[3,0],[4,0],[3,1],[3,1],[5,2],[2,1],[11,3],[10,2],[10,3],[66,21],[0,54],[0,18],[-1,5],[-3,5],[-4,5],[-15,17],[-1,2],[1,2],[2,2],[2,1],[2,1],[3,0],[3,0],[2,-1],[2,-2],[1,-1],[1,-4],[1,-1],[5,-7],[5,-7],[2,-4],[2,-3],[2,-8],[1,-13],[1,-4],[-2,-22],[9,-2],[8,-1],[9,-1],[12,-1],[11,0],[11,0],[10,0],[11,2],[8,1],[8,2],[13,5],[1,2],[-2,5],[-2,4],[-3,4],[-20,13],[0,1],[0,1],[1,1],[1,0],[1,0],[1,0],[1,0],[18,-14],[5,-4],[2,-3],[2,-4],[1,-4],[0,-4],[0,-5],[-2,-8],[-2,-7],[3,0],[1,0],[3,1],[1,0],[8,-6],[1,-1],[1,0],[6,-2],[1,0],[1,-1],[6,-5],[1,-1],[0,-1],[-3,-14],[9,-39],[1,-1],[2,-2],[28,-17],[28,-20],[-2,-1],[15,-8],[18,-10],[4,2],[13,-3],[-1,-1],[23,-6],[4,-1],[-1,-1],[36,-3],[1,-1],[2,0],[36,-5],[1,0],[0,-1],[100,-16],[20,0],[4,13]],[[39469,58071],[2,1],[2,2],[-7,5],[-3,1],[-7,-4],[7,-3],[6,-2]],[[39423,58064],[2,2],[-3,3],[-7,-1],[0,-3],[8,-1]],[[39416,58014],[-3,3],[-4,-1],[0,-2],[5,-1],[2,1]]],"bbox":[-8.0893315,31.5441986,-4.9377101,35.8259979],"transform":{"scale":[0.00003151652916529165,0.000042818421184211804],"translate":[-8.0893315,31.5441986]},"license":"ODbL-1.0","attribution":"© OpenStreetMap contributors, opendatacommons.org/licenses/odbl/1-0/","source":"OpenStreetMap admin_level=10 relations, matched to HCP arrondissements on ref:MA:HCP"}
